name,phone,address,city,category,source
The Corner Store,,"428 Westmount Ave,Sudbury,ONP3A 5V8",Sudbury,Convenience Stores,Yellow Pages
Express Mart,,"359 Riverside Dr,Sudbury,ONP3E 1H5",Sudbury,Convenience Stores,Yellow Pages
Madison Confectionery,,"2176 Madison Ave,Sudbury,ONP3A 2R2",Sudbury,Convenience Stores,Yellow Pages
Snack Express - Convenience Store,,"3775 ON-144,Chelmsford,ONP0M 1L0",Sudbury,Convenience Stores,Yellow Pages
Donovan Variety,,"533 Kathleen St,Sudbury,ONP3C 2N1",Sudbury,Convenience Stores,Yellow Pages
Garson Foodmarket,,"61 Birch St,Garson,ONP3L 1B4",Sudbury,Convenience Stores,Yellow Pages
snack express - convenience store,,"161 hwy 17 e,wahnapitae,ONp0m 3c0",Sudbury,Convenience Stores,Yellow Pages
snack express - convenience store,,"105 regional rd 24,lively,ONp3y 1c3",Sudbury,Convenience Stores,Yellow Pages
Gloria's Restaurant,,"469 Bouchard St,Sudbury,ONP3E 2K8",Sudbury,Convenience Stores,Yellow Pages
Cara's Convenience,,"1055A Lorne St,Sudbury,ONP3C 4S5",Sudbury,Convenience Stores,Yellow Pages
Smitty's Convenience,,"3-1769 Regent St,Sudbury,ONP3E 3Z7",Sudbury,Convenience Stores,Yellow Pages
Kwik-Way Lasalle,,"594 Lasalle Blvd,Sudbury,ONP3A 1W9",Sudbury,Convenience Stores,Yellow Pages
Kwik Way,,"33 NOTRE DAME AV,Azilda,ONP0M 1B0",Sudbury,Convenience Stores,Yellow Pages
Kwik Way Hanmer,,"7 cote Blvd,Hanmer,ONP3P 1X5",Sudbury,Convenience Stores,Yellow Pages
Andy's Convenience,,"211 Maani,Lively,ONP0M 2M0",Sudbury,Convenience Stores,Yellow Pages
Gloria's Convenience,,"469 Bouchard St,Sudbury,ONP3E 2K8",Sudbury,Convenience Stores,Yellow Pages
Cobi's Convenience,,"184 Regional Road 8,Onaping,ONP0M 2R0",Sudbury,Convenience Stores,Yellow Pages
Onaping Quick Mart,,"Onaping Plaza,Levack,ONP0M 2R0",Sudbury,Convenience Stores,Yellow Pages
Wahnapitae General Store,,"5 Bank St,Wahnapitae,ONP0M 3C0",Sudbury,Convenience Stores,Yellow Pages
Bob's Service Centre,Call,"6822 Hwy 17 E,Coniston,ONP0M 1M0",Sudbury,Gas Stations,Yellow Pages
Canadian Tire,,"5206 Highway 69 North,Hanmer,ONP3P 1Z3",Sudbury,Gas Stations,Yellow Pages
Mr Gas,,"2002 Bancroft Dr,Sudbury,ONP3B 1S9",Sudbury,Gas Stations,Yellow Pages
Mr Gas,,"102 17 Hwy E,Wahnapitae,ONP0M 3C0",Sudbury,Gas Stations,Yellow Pages
Pioneer Energy,,"1050 Kingsway,Sudbury,ONP3B 2E5",Sudbury,Gas Stations,Yellow Pages
Pioneer - Gas Station,,"3775 ON-144,Chelmsford,ONP0M 1L0",Sudbury,Gas Stations,Yellow Pages
Pioneer - Gas Station,,"1232 Lasalle Blvd,Greater Sudbury,ONP3A 1Y7",Sudbury,Gas Stations,Yellow Pages
Pioneer - Gas Station,,"463 Falconbridge Rd,Greater Sudbury,ONP3A 3Z8",Sudbury,Gas Stations,Yellow Pages
ESSO - Berthiaume Service Centre,,"3466 Hwy 144 PO Box 250,Chelmsford,ONP0M 1L0",Sudbury,Gas Stations,Yellow Pages
Pioneer Petroleums,,"1232 Lasalle Blvd,Sudbury,ONP3A 1Y7",Sudbury,Gas Stations,Yellow Pages
B F Gas Bar & Car Wash,Call,"43 Veterans Rd,Copper Cliff,ONP0M 1N0",Sudbury,Gas Stations,Yellow Pages
Esso,,"161 HWY 17 E,WAHNAPITAE,ONP0M 3C0",Sudbury,Gas Stations,Yellow Pages
Esso,,"105 REGIONAL RD 24,LIVELY,ONP3Y 1C3",Sudbury,Gas Stations,Yellow Pages
Esso,,"180 LASALLE BLVD,SUDBURY,ONP3A 1W3",Sudbury,Gas Stations,Yellow Pages
Esso Val Caron,,"3013 MunicipalRoad80,Val Caron,ONP3N 1R8",Sudbury,Gas Stations,Yellow Pages
Esso,,"1813 REGENT ST S,SUDBURY,ONP3E 3Z7",Sudbury,Gas Stations,Yellow Pages
Esso,,"3397 Falconbridge Hwy,Garson,ONP3L 1E4",Sudbury,Gas Stations,Yellow Pages
Esso,,"458 Cote Blvd,Hanmer,ONP3P 1N8",Sudbury,Gas Stations,Yellow Pages
Esso,,"1003 Kingsway,Sudbury,ONP3B 2E6",Sudbury,Gas Stations,Yellow Pages
Metro (Supermarkets),,"3140 Hwy 69 N,Val Caron,ONP3N 1G3",Sudbury,Grocery Stores,Yellow Pages
Metro Lasalle Court Mall,,"900, Blvd Lasalle,Sudbury,ONP3A 5W8",Sudbury,Grocery Stores,Yellow Pages
Food Basics,,"1800 Lasalle Blvd,Sudbury,ONP3A 2A2",Sudbury,Grocery Stores,Yellow Pages
Food Basics,,"400 Notre Dame Ave,Sudbury,ONP3C 5K5",Sudbury,Grocery Stores,Yellow Pages
Food Basics,,"1875 Regent St S,Sudbury,ONP3E 3Z7",Sudbury,Grocery Stores,Yellow Pages
Food Basics,,"Hwy #69 N,Hanmer,ONP3P 1J6",Sudbury,Grocery Stores,Yellow Pages
Bulk Barn,,"1349 Lasalle Blvd,Sudbury,ONP3A 1Z2",Sudbury,Grocery Stores,Yellow Pages
M & M Food Market Paris Street,,"1500 Paris,Sudbury,ONP3E 3B8",Sudbury,Grocery Stores,Yellow Pages
Valu-Mart,,"24 Amanda St,Coniston,ONP0M 1M0",Sudbury,Grocery Stores,Yellow Pages
M&M Meat Shop,,"3030 MUNICIPAL ROAD 80,Val Caron,ONP3N 1R8",Sudbury,Grocery Stores,Yellow Pages
M&M Food Market,,"1485 Lasalle Blvd,Sudbury,ONP3A 5H7",Sudbury,Grocery Stores,Yellow Pages
Foodland,,"1-3098 Falconbridge Hwy,Garson,ONP3L 1P5",Sudbury,Grocery Stores,Yellow Pages
Garson Foodland,,"85 Young,Capreol,ONP0M 1H0",Sudbury,Grocery Stores,Yellow Pages
The Marketplace,,"40 Elm St,Sudbury,ONP3C 1S8",Sudbury,Grocery Stores,Yellow Pages
Messier's Your Independent Grocer,,"1836 Régent St,Sudbury,ONP3E 3Z8",Sudbury,Grocery Stores,Yellow Pages
Andrew's valu-mart,,"24 Amanda St,Coniston,ONP0M 1M0",Sudbury,Grocery Stores,Yellow Pages
Olivier's Freshmart,,"44 Third Ave,Hornepayne,ONP0M 1Z0",Sudbury,Grocery Stores,Yellow Pages
Marche Azilda Market,,"9 Notre Dame E,Azilda,ONP0M 1B0",Sudbury,Grocery Stores,Yellow Pages
Home Hardware,Call,"366 Second Ave N,Sudbury,ONP3B 3Y4",Sudbury,Hardware Stores,Yellow Pages
Home Hardware,,"4-5085 Highway 69 N,Hanmer,ONP3P 1P7",Sudbury,Hardware Stores,Yellow Pages
Home Hardware,,"3299 Errington Ave, Box 459,Chelmsford,ONP0M 1L0",Sudbury,Hardware Stores,Yellow Pages
Home Hardware,,"47A Levack Dr,Levack,ONP0M 2C0",Sudbury,Hardware Stores,Yellow Pages
Home Hardware,,"9-3098 Falconbridge Hwy,Garson,ONP3L 1P5",Sudbury,Hardware Stores,Yellow Pages
Canadian Tire,,"1 - 3595 Highway 144,Chelmsford,ONP0M 1L0",Sudbury,Hardware Stores,Yellow Pages
Canadian Tire,,"1066 Barrydowne Rd,Sudbury,ONP3A 3V3",Sudbury,Hardware Stores,Yellow Pages
Canadian Tire,,"2259 Regent St,Sudbury,ONP3E 5M9",Sudbury,Hardware Stores,Yellow Pages
Canadian Tire,,"3595 Hwy 144,Chelmsford,ONP0M 1L0",Sudbury,Hardware Stores,Yellow Pages
Canadian Tire,,"1-3595 Hwy 144,Chelmsford,ONP0M 1L0",Sudbury,Hardware Stores,Yellow Pages
The Home Depot,,"1500 Marcus Dr,Sudbury,ONP3B 4K5",Sudbury,Hardware Stores,Yellow Pages
Home Hardware,,"130 Regional Road 24,Lively,ONP3Y 1J2",Sudbury,Hardware Stores,Yellow Pages
Home Hardware,,"13 Young St,Capreol,ONP0M 1H0",Sudbury,Hardware Stores,Yellow Pages
Ace Hardware,,"3140 Hwy 69 N,Val Caron,ONP3N 1G3",Sudbury,Hardware Stores,Yellow Pages
Dollarama,Phone Number705-560-0448,"747 Notre Dame Ave,Sudbury,ONP3A 2T2Get directions",Sudbury,Dollar Stores,Yellow Pages
Dollarama,Phone Number705-523-5574,"2412 Long Lake Rd,Sudbury,ONP3E 0C5Get directions",Sudbury,Dollar Stores,Yellow Pages
Dollarama,Phone Number705-560-3103,"1299 Marcus Dr,Sudbury,ONP3B 4K6Get directions",Sudbury,Dollar Stores,Yellow Pages
Dollarama,Phone Number705-524-0396,"1349 Lasalle Blvd,Sudbury,ONP3A 1Z2Get directions",Sudbury,Dollar Stores,Yellow Pages
Dollarama,Phone Number705-897-0329,"3021 MunicipalRoad80,Val Caron,ONP3N 1E3Get directions",Sudbury,Dollar Stores,Yellow Pages
Dollarama,Phone Number705-522-0094,"1933 Regent St,Sudbury,ONP3E 5R2Get directions",Sudbury,Dollar Stores,Yellow Pages
Dollarama,Phone Number705-855-7984,"3744 Route 144,Chelmsford,ONP0M 1L0Get directions",Sudbury,Dollar Stores,Yellow Pages
Dollarama,Phone Number705-677-0537,"40 Elm St,Sudbury,ONP3C 1S8Get directions",Sudbury,Dollar Stores,Yellow Pages
Dollar Tree,Phone Number705-897-3700,"3140 Highway 69 N.,Val Caron,ONP3N 1G4Get directions",Sudbury,Dollar Stores,Yellow Pages
Giant Tiger,Phone Number705-566-4802,"2208 Lasalle Blvd,Sudbury,ONP3A 2A8Get directions",Sudbury,Dollar Stores,Yellow Pages
Dollar Tree,Phone Number705-583-2016,"111 Centre Street,Espanola,ONP5E 1S4Get directions",Sudbury,Dollar Stores,Yellow Pages
Dollarama,Phone Number705-869-1585,"800 Centre St,Espanola,ONP5E 1J3Get directions",Sudbury,Dollar Stores,Yellow Pages
Giant Tiger,Phone Number705-753-1281,"42 William St,Sturgeon Falls,ONP2B 2A5Get directions",Sudbury,Dollar Stores,Yellow Pages
Dollar Bazaar Plus,Phone Number705-753-9797,"214 King St,Sturgeon Falls,ONP2B 1R7Get directions",Sudbury,Dollar Stores,Yellow Pages
Crazy Bucks 2,Phone Number705-753-9614,"214 King St,Sturgeon Falls,ONP2B 2G7Get directions",Sudbury,Dollar Stores,Yellow Pages
Denise's Dollar Den,Phone Number705-580-3055,"54 Queen St,Sturgeon Falls,ONP2B 2C8Get directions",Sudbury,Dollar Stores,Yellow Pages
Denises Dollar Den,Phone Number705-580-2106,"148 John St,Sturgeon Falls,ONP2B 1Z6Get directions",Sudbury,Dollar Stores,Yellow Pages
Dollarama,Phone Number705-753-3687,"194 Front St,Sturgeon Falls,ONP2B 2J3Get directions",Sudbury,Dollar Stores,Yellow Pages
The Bargain Shop!,Phone Number705-753-6142,"210 Front St,Sturgeon Falls,ONP2B 2J3Get directions",Sudbury,Dollar Stores,Yellow Pages
Your Dollar Store With More,Phone Number705-859-2554,"1-15 Edward St,Wikwemikong,ONP0P 2J0Get directions",Sudbury,Dollar Stores,Yellow Pages
Your Dollar Store,Phone Number705-324-0024,"2-401 Kent St W,Lindsay,ONK9V 4Z1Get directions",Sudbury,Dollar Stores,Yellow Pages
Moez Binz Inc. Overstocks & Liquidation,Phone Number647-499-6313,"5-1150 Sheppard Ave W,North York,ONM3K 2B5",Sudbury,Dollar Stores,Yellow Pages
Lanctot Realty Ltd,Phone Number705-969-8264,"Hanmer,ONP3P 1P7",Sudbury,Dollar Stores,Yellow Pages
Dollarama,,"1299 Marcus Dr,Sudbury,ONP3B 4K6",Sudbury,General Stores,Yellow Pages
Walden General Store,,"1765 Regional Rd 55,Naughton,ONP0M 2M0",Sudbury,General Stores,Yellow Pages
Art Gallery Of Sudbury,,"170 Elgin St,Sudbury,ONP3E 3N5",Sudbury,General Stores,Yellow Pages
Foleyet General Store,,"45 Young,Foleyet,ONP0M 1T0",Sudbury,General Stores,Yellow Pages
Costco Wholesale,,"1465 Kingsway,Sudbury,ONP3B 0A5",Sudbury,General Stores,Yellow Pages
Wanup General Store,,"Old Wanup,Sudbury,ONP3E 4N1",Sudbury,General Stores,Yellow Pages
Just Use Water,,"7-22 Brady St,Sudbury,ONP3E 6E1",Sudbury,General Stores,Yellow Pages
Pitfield's Killarney General Store,,"7 Channel St,Killarney,ONP0M 2A0",Sudbury,General Stores,Yellow Pages
Stewart's General Store,,"29 Main,Webbwood,ONP0P 2G0",Sudbury,General Stores,Yellow Pages
Jones General Stores,,"4027 Espaniel St,Sables-Spanish Rivers,ONP0P 1P0",Sudbury,General Stores,Yellow Pages
Your Dollar Store With More,,"1-15 Edward St,Wikwemikong,ONP0P 2J0",Sudbury,General Stores,Yellow Pages
Bailey Glendon Merchant,,"South Baymouth,Manitowaning,ONP0P 1N0",Sudbury,General Stores,Yellow Pages
Carl's Trading Post,,"South Baymouth,Manitowaning,ONP0P 1N0",Sudbury,General Stores,Yellow Pages
West Bay General Store,,"West Bay,Mindemoya,ONP0P 1S0",Sudbury,General Stores,Yellow Pages
Handi-Spot General Store,,"Serpent River,Spanish,ONP0P 1V0",Sudbury,General Stores,Yellow Pages
Buie General Store,,"9379 Highway 542,Spring Bay,ONP0P 2B0",Sudbury,General Stores,Yellow Pages
Cappellani A & Sons General Merchants,,"9 Curran GD,Missanabie,ONP0M 2H0",Sudbury,General Stores,Yellow Pages
Andy's Manitowabi Grocery,Call,,Sudbury,General Stores,Yellow Pages
Bradley Pharmacy Ltd,Phone Number705-805-9668,"430 Notre Dame Ave,Sudbury,ONP3C 5K7Get directions",Sudbury,Pharmacies,Yellow Pages
Guardian Walden Family Drugstore,Phone Number705-692-5868,"24-135 Regional Rd,Lively,ONP3Y 1J1Get directions",Sudbury,Pharmacies,Yellow Pages
Metro Pharmacy,Phone Number705-523-9994,"1933 Regent St,Sudbury,ONP3E 5R2Get directions",Sudbury,Pharmacies,Yellow Pages
Pharmasave,Phone Number705-969-4400,"5085 Hwy 69 N,Hanmer,ONP3P 1P6Get directions",Sudbury,Pharmacies,Yellow Pages
Pharmasave,Phone Number705-566-5551,"1276 Lasalle Blvd,Sudbury,ONP3A 1Y8Get directions",Sudbury,Pharmacies,Yellow Pages
Pharmasave,Phone Number705-693-2738,"10-3098 Falconbridge Hwy,Garson,ONP3L 1P5Get directions",Sudbury,Pharmacies,Yellow Pages
Pharmasave,Phone Number705-897-1867,"17-3140 Hwy 69 N,Val Caron,ONP3N 1G7Get directions",Sudbury,Pharmacies,Yellow Pages
Pharmasave,Phone Number705-682-2841,"10 Serpentine St,Copper Cliff,ONP0M 1N0Get directions",Sudbury,Pharmacies,Yellow Pages
Pharmasave,Phone Number705-969-4400,"5085 Hwy 69 N Hanmer,Hanmer,ONP3P 1P7Get directions",Sudbury,Pharmacies,Yellow Pages
Pharmasave,Phone Number705-897-1867,"3140 Hwy 69 N Val Caron,ONGet directions",Sudbury,Pharmacies,Yellow Pages
Pharmasave,Phone Number705-969-4400,"5085 Old Hwy 69,Hanmer,ONP3P 1P7Get directions",Sudbury,Pharmacies,Yellow Pages
Sweet Grass Pharmacy & Compounding,Phone Number705-377-7479,"404 ON-551 Unit 5,M'Chigeeng,ONP0P 1G0Get directions",Sudbury,Pharmacies,Yellow Pages
Noelville Pharmacy,Phone Number705-898-2999,"20 St David St N,Noelville,ONP0M 2N0Get directions",Sudbury,Pharmacies,Yellow Pages
i.d.a. - levack pharmacy,Phone Number705-966-3612,"2 1st ave,levack,ONp0m 2c0Get directions",Sudbury,Pharmacies,Yellow Pages
Alban Pharmacy,Phone Number705-857-2349,"24 Delamere Rd,Alban,ONP0M 1A0Get directions",Sudbury,Pharmacies,Yellow Pages
St Charles Pharmacy,Phone Number705-867-2020,"1 King E,St Charles,ONP0M 2W0Get directions",Sudbury,Pharmacies,Yellow Pages
Alban Pharmacy,Phone Number705-857-2349,"24 Delamere Road,Alban,ONP0M 1A0Get directions",Sudbury,Pharmacies,Yellow Pages
Narin Ctr Medical Pharmacy,Phone Number705-583-3061,"36 McIntyre St,Nairn Centre,ONP0M 2L0Get directions",Sudbury,Pharmacies,Yellow Pages
Pharmacy Nipissing,Phone Number705-581-2013,"26 Principale St E,Verner,ONP0H 2M0Get directions",Sudbury,Pharmacies,Yellow Pages
Remedy's Rx Espanola - 5058,Phone Number705-869-1860,"111-800 Centre St,Espanola,ONP5E 1J3Get directions",Sudbury,Pharmacies,Yellow Pages
DRUGStore Pharmacy,Phone Number705-869-0330,"745 Centre St,Espanola,ONP5E 1S8Get directions",Sudbury,Pharmacies,Yellow Pages
Robinson's Pharmasave,Phone Number705-869-1561,"119 Tudhope St,Espanola,ONP5E 1S6Get directions",Sudbury,Pharmacies,Yellow Pages
Espanola Clinic Pharmacy,Phone Number705-862-7000,"801 McKinnon Dr,Espanola,ONP5E 1T2Get directions",Sudbury,Pharmacies,Yellow Pages
i.d.a. - rx drug mart king st,Phone Number705-753-0150,"228 king st,sturgeon falls,ONp2b 1r9Get directions",Sudbury,Pharmacies,Yellow Pages
Sturgeon Falls Life Care Pharmacy,Phone Number705-893-5433,"77 Front St Unit C,Sturgeon Falls,ONP2B 2G9Get directions",Sudbury,Pharmacies,Yellow Pages
Loblaw Pharmacy,Phone Number705-753-5850,"12035 Hwy 17,Sturgeon Falls,ONP2B 2S6Get directions",Sudbury,Pharmacies,Yellow Pages
Northern Lights Remedy'Srx,Phone Number705-753-0202,"12006 Hwy 17 E,Sturgeon Falls,ONP2B 3K8Get directions",Sudbury,Pharmacies,Yellow Pages
Island I D A Pharmacy,Phone Number705-368-3227,"19 Water E,Little Current,ONP0P 1K0Get directions",Sudbury,Pharmacies,Yellow Pages
Mereb Pharmacy,Phone Number705-859-2041,"18 Hills Trail,Wikwemikong,ONP0P 2J0Get directions",Sudbury,Pharmacies,Yellow Pages
Parkway Pharmacy,Phone Number705-859-3535,"18 Hill's Trail,Wikwemikong,ONGet directions",Sudbury,Pharmacies,Yellow Pages
mnis i.d.a. pharmacy,Phone Number705-859-2866,"2098 wikwemikong way e,wikwemikong,ONp0p 2j0Get directions",Sudbury,Pharmacies,Yellow Pages
guardian - manitowaning pharmacy,Phone Number705-859-2323,"147 arthur st,manitowaning,ONp0p 1n0Get directions",Sudbury,Pharmacies,Yellow Pages
P O S Line Manitowaning Pharmacy,Phone Number705-859-1500,"147 Arthur,Manitowaning,ONGet directions",Sudbury,Pharmacies,Yellow Pages
guardian - mindemoya medical pharmacy,Phone Number705-377-5411,"11 yonge st,mindemoya,ONp0p 1s0Get directions",Sudbury,Pharmacies,Yellow Pages
circle k,,"394 oliver rd,thunder bay,ONp7b 2g3",Thunder Bay,Convenience Stores,Yellow Pages
London Grocery,,"320 Balsam St,Thunder Bay,ONP7A 5N8",Thunder Bay,Convenience Stores,Yellow Pages
Jane's Variety,,"301 Brock St E,Thunder Bay,ONP7E 4H6",Thunder Bay,Convenience Stores,Yellow Pages
Cozy's Towing,,"1460 Rosslyn Rd,Thunder Bay,ONP7E 6W1",Thunder Bay,Convenience Stores,Yellow Pages
Mike's Mart,,"509 Edward St N,Thunder Bay,ONP7C 4R1",Thunder Bay,Convenience Stores,Yellow Pages
Mike's Mart,,"708 May St N,Thunder Bay,ONP7C 3R9",Thunder Bay,Convenience Stores,Yellow Pages
Mike's Mart,,"1802 Victoria Ave E,Thunder Bay,ONP7C 1E1",Thunder Bay,Convenience Stores,Yellow Pages
Mike's Mart,,"1500 James St S,Thunder Bay,ONP7E 6N7",Thunder Bay,Convenience Stores,Yellow Pages
Mike's Mart,,"550 Beverly St,Thunder Bay,ONP7B 5V2",Thunder Bay,Convenience Stores,Yellow Pages
Mike's Mart,,"807 Red River Rd,Thunder Bay,ONP7B 1K3",Thunder Bay,Convenience Stores,Yellow Pages
Mike's Mart,,"235 Syndicate Ave S,Thunder Bay,ONP7E 1E1",Thunder Bay,Convenience Stores,Yellow Pages
THP Variety & Gas Bar,,"606 City Rd,Thunder Bay,ONP7J 1K5",Thunder Bay,Convenience Stores,Yellow Pages
Cozy's Towing & Float Service,,"1485 John Street Rd,Thunder Bay,ONP7G 1J1",Thunder Bay,Convenience Stores,Yellow Pages
circle k,,"1315 arthur st e,thunder bay,ONp7e 5n3",Thunder Bay,Convenience Stores,Yellow Pages
Circle K (Mac's Convenience Stores),,"708 May St N,Thunder Bay,ONP7C 3R9",Thunder Bay,Convenience Stores,Yellow Pages
circle k,,"915 red river rd.,thunder bay,ONp7b 1k5",Thunder Bay,Convenience Stores,Yellow Pages
circle k,,"1500 south james st, unit a,thunder bay,ONp7e 6n7",Thunder Bay,Convenience Stores,Yellow Pages
circle k,,"550 beverly st,thunder bay,ONp7b 5v2",Thunder Bay,Convenience Stores,Yellow Pages
Circle K (Mac's Convenience Stores),,"1200 Brown St,Thunder Bay,ONP7E 2M2",Thunder Bay,Convenience Stores,Yellow Pages
Big Pines Trailer Sales Ltd,Call,"344 Cumberland St N,Thunder Bay,ONP7A 4P2",Thunder Bay,Gas Stations,Yellow Pages
Canadian Tire,,"939 Fort William Rd,Thunder Bay,ONP7B 3A6",Thunder Bay,Gas Stations,Yellow Pages
Safeway,,"115 Arthur St W,Thunder Bay,ONP7E 5P7",Thunder Bay,Gas Stations,Yellow Pages
Auto Medic,,"407 Fort William Rd,Thunder Bay,ONP7B 2Z5",Thunder Bay,Gas Stations,Yellow Pages
Chapman's Gas Bar,,"698 City Rd,Thunder Bay,ON",Thunder Bay,Gas Stations,Yellow Pages
Tronsen Automotive,Call,"379 Fort William Rd,Thunder Bay,ONP7B 2Z4",Thunder Bay,Gas Stations,Yellow Pages
Petro-Pass Truck Stop,,"720 Hewitson St,Thunder Bay,ONP7B 5Z1",Thunder Bay,Gas Stations,Yellow Pages
Esso,,"1120 John Street Rd,Thunder Bay,ONP7B 2A3",Thunder Bay,Gas Stations,Yellow Pages
Esso,,"645 Arthur St W,Thunder Bay,ONP7E 5R6",Thunder Bay,Gas Stations,Yellow Pages
Esso,,"3130 Dawson Rd,Thunder Bay,ONP7G 2J8",Thunder Bay,Gas Stations,Yellow Pages
Esso,,"740 Memorial Ave,Thunder Bay,ONP7B 3Z5",Thunder Bay,Gas Stations,Yellow Pages
Esso,,"1315 Arthur St E,Thunder Bay,ONP7E 5N3",Thunder Bay,Gas Stations,Yellow Pages
Esso,,"544 Simpson St,Thunder Bay,ONP7C 3J4",Thunder Bay,Gas Stations,Yellow Pages
Santorelli S,,"3139 Arthur St W,Thunder Bay,ONP7C 4V1",Thunder Bay,Gas Stations,Yellow Pages
Central Car Wash,,"811 Central Ave,Thunder Bay,ONP7B 6P8",Thunder Bay,Gas Stations,Yellow Pages
Beaver Gas Bars,,"807 Red River Rd,Thunder Bay,ONP7B 1K3",Thunder Bay,Gas Stations,Yellow Pages
Memorial Ave Gas Bar,,"970 Memorial Ave,Thunder Bay,ONP7B 4A2",Thunder Bay,Gas Stations,Yellow Pages
Lakeland Sales & Service,,"27 Algonquin Ave N,Thunder Bay,ONP7A 6E2",Thunder Bay,Gas Stations,Yellow Pages
Pro Auto Mechanix Ltd,,"875 Hilldale Rd,Thunder Bay,ONP7G 1Z9",Thunder Bay,Gas Stations,Yellow Pages
Metro Arthur W. & James,,"505 Arthur St W,Thunder Bay,ONP7E 5S4",Thunder Bay,Grocery Stores,Yellow Pages
Metro Grandview Mall,,"640 River St,Thunder Bay,ONP7A 3S4",Thunder Bay,Grocery Stores,Yellow Pages
Metro Arthur W. & Hwy 61,,"1101 Arthur St W,Thunder Bay,ONP7E 5S2",Thunder Bay,Grocery Stores,Yellow Pages
Safeway,,"1015 Dawson Rd,Thunder Bay,ONP7B 5E3",Thunder Bay,Grocery Stores,Yellow Pages
Family Food Centennial,,"146 Centennial Sq,Thunder Bay,ONP7E 1H3",Thunder Bay,Grocery Stores,Yellow Pages
Family Food Centennial,,"161 Court St S,Thunder Bay,ONP7B 2X7",Thunder Bay,Grocery Stores,Yellow Pages
M&M Food Market,,"509 North Edward St.,Thunder Bay,ONP7C 4R1",Thunder Bay,Grocery Stores,Yellow Pages
M&M Food Market,,"843 Red River Rd.,Thunder Bay,ONP7B 1K3",Thunder Bay,Grocery Stores,Yellow Pages
Pure Produce,,"245 McIntyre St,Thunder Bay,ONP7A 3B3",Thunder Bay,Grocery Stores,Yellow Pages
Westfort Foods Inc,Call,"111 Frederica St E,Thunder Bay,ONP7E 3V4",Thunder Bay,Grocery Stores,Yellow Pages
Knyaw Lucky Store,,"1715 Victoria Ave E,Thunder Bay,ONP7C 1C8",Thunder Bay,Grocery Stores,Yellow Pages
Just Basics Skafs,,"A 470 Hodder Ave,Thunder Bay,ONP7A 7X5",Thunder Bay,Grocery Stores,Yellow Pages
The Bagel Store,,"1000 Fort William Rd,Thunder Bay,ONP7B 6B9",Thunder Bay,Grocery Stores,Yellow Pages
Arellas Quality Dollar Store,,"292 Bay St,Thunder Bay,ONP7B 1R8",Thunder Bay,Grocery Stores,Yellow Pages
M & M Foods,,"843 Red River Rd,Thunder Bay,ONP7B 1K3",Thunder Bay,Grocery Stores,Yellow Pages
Real Canadian Superstore,,"600 Harbour Expressway,Thunder Bay,ONP7B 6P4",Thunder Bay,Grocery Stores,Yellow Pages
Shawn's NOFRILLS Thunder Bay,,"1020 Dawson Rd,Thunder Bay,ONP7B 1K6",Thunder Bay,Grocery Stores,Yellow Pages
Wanson Lumber Company Limited,Phone Number1-855-714-9951,"277 John Street,Thunder Bay,ONP7B 1W8Get directions",Thunder Bay,Hardware Stores,Yellow Pages
Chimo Building Centre,Phone Number807-623-5114,"540 Syndicate Ave S,Thunder Bay,ONP7E 1E7Get directions",Thunder Bay,Hardware Stores,Yellow Pages
Nova-Pro Industrial Supply Ltd,Phone Number807-700-7355,"1228 Amber Dr,Thunder Bay,ONP7B 6M5Get directions",Thunder Bay,Hardware Stores,Yellow Pages
Petersen's Building Supplies,Phone Number807-767-5165,"1524 John Street Rd,Thunder Bay,ONP7G 1J1Get directions",Thunder Bay,Hardware Stores,Yellow Pages
Nu-Steel Door Systems,Phone Number1-844-812-0915,"940 Tungsten Street,Thunder Bay,ONP7B 5Z6Get directions",Thunder Bay,Hardware Stores,Yellow Pages
Port Arthur Lumber & Planing Mill Ltd,Phone Number807-623-1262,"324 106th St,Thunder Bay,ONP7B 5G2Get directions",Thunder Bay,Hardware Stores,Yellow Pages
Frontier Glass Inc,Phone Number807-623-1901,"1125 Russell St,Thunder Bay,ONP7B 5M6Get directions",Thunder Bay,Hardware Stores,Yellow Pages
The Home Depot,Phone Number807-624-1100,"359 Main St,Thunder Bay,ONP7B 5L6Get directions",Thunder Bay,Hardware Stores,Yellow Pages
Windsor Plywood,Phone Number807-623-3050,"926 Tungsten St,Thunder Bay,ONP7B 5Z6Get directions",Thunder Bay,Hardware Stores,Yellow Pages
North American Lumber,Phone Number807-623-3404,"1003 Miles St E,Thunder Bay,ONP7C 1J9Get directions",Thunder Bay,Hardware Stores,Yellow Pages
Fisher Powerline Construction,Phone Number807-939-1462,"138B Mission Rd,Fort William First Nation,ONP7J 1K6Get directions",Thunder Bay,Hardware Stores,Yellow Pages
Kostovich Bradley,Phone Number807-345-2474,"523 Beverly St,Thunder Bay,ONP7B 5S8Get directions",Thunder Bay,Hardware Stores,Yellow Pages
Eldorado Construction Ltd,Phone Number807-472-1722,"210 Academy Dr,Thunder Bay,ONP7B 5N6Get directions",Thunder Bay,Hardware Stores,Yellow Pages
Nor-Ont Supply Ltd,Phone Number807-345-1448,"1000 Memorial Ave,Thunder Bay,ONP7B 4A2Get directions",Thunder Bay,Hardware Stores,Yellow Pages
Skyhigh Scaffold Construction Inc,Phone Number807-768-8686,"388 Fort William Rd,Thunder Bay,ONP7B 2Z3Get directions",Thunder Bay,Hardware Stores,Yellow Pages
R.A. Milne Crushing and Screening,Phone Number807-767-7281,"1288 Kam Current Rd,Thunder Bay,ONP7G 1X1Get directions",Thunder Bay,Hardware Stores,Yellow Pages
Canadian Tire Assoc Stores,Phone Number807-475-4234,"1221 West Arthur St,Thunder Bay,ONP7K 1A7Get directions",Thunder Bay,Hardware Stores,Yellow Pages
Rosslyn Service Home Hardware,Phone Number807-939-2521,"3404 Rosslyn Rd,Rosslyn,ONP7K 0P8Get directions",Thunder Bay,Hardware Stores,Yellow Pages
Pines Hardware Inc,Phone Number807-622-7463,"4788 Hwy 11/17,Thunder Bay,ONGet directions",Thunder Bay,Hardware Stores,Yellow Pages
Finmac Lumber Ltd,Phone Number204-815-0867,"945 Elgin Avenue,Winnipeg,MBR3E 1B3Get directions",Thunder Bay,Hardware Stores,Yellow Pages
Milestone Construction,Phone Number506-832-0476,"8 Centennial Rd,Hampton,NBE5N 6N2Get directions",Thunder Bay,Hardware Stores,Yellow Pages
Neebing Lumber,Phone Number807-577-4274,"1279 Rosslyn Rd,Thunder Bay,ONP7E 6V9",Thunder Bay,Hardware Stores,Yellow Pages
Construction Forming Systems Limited,Phone Number807-345-5719,,Thunder Bay,Hardware Stores,Yellow Pages
Milestone,Phone Number807-628-5823,,Thunder Bay,Hardware Stores,Yellow Pages
White Cap (Formerly Brock White),Phone Number807-623-5556,"715 Norah Crescent,Thunder Bay,ONP7C 5H9",Thunder Bay,Hardware Stores,Yellow Pages
Dollarama,,"425 Edward St N,Thunder Bay,ONP7C 4P7",Thunder Bay,Dollar Stores,Yellow Pages
Dollarama,,"369 Main St,Thunder Bay,ONP7B 5L6",Thunder Bay,Dollar Stores,Yellow Pages
Dollarama,,"4-1101 Arthur St W,Thunder Bay,ONP7E 5S2",Thunder Bay,Dollar Stores,Yellow Pages
Dollarama,,"1020 Dawson Rd,Thunder Bay,ONP7B 1K6",Thunder Bay,Dollar Stores,Yellow Pages
Dollarama,,"789 Memorial Ave,Thunder Bay,ONP7B 3Z7",Thunder Bay,Dollar Stores,Yellow Pages
Dollarama,,"800 Victoria Ave E,Thunder Bay,ONP7C 0A2",Thunder Bay,Dollar Stores,Yellow Pages
Dollarama,,"2826 Arthur St E,Thunder Bay,ONP7E 5P4",Thunder Bay,Dollar Stores,Yellow Pages
The Bargain! Shop,,"601 Victoria Ave E,Thunder Bay,ONP7C 1B1",Thunder Bay,Dollar Stores,Yellow Pages
The Bargain! Shop,,"640 River St,Thunder Bay,ONP7A 3S4",Thunder Bay,Dollar Stores,Yellow Pages
Buck or Two Plus!,,"640 River St,Thunder Bay,ONP7A 3S4",Thunder Bay,Dollar Stores,Yellow Pages
Party City,,"341 Main Street,Thunder Bay,ONP7B 5L6",Thunder Bay,Dollar Stores,Yellow Pages
Dollar Tree,,"1186 Memorial Avenue Unit 111,Thunder Bay,ONP7B 6P9",Thunder Bay,Dollar Stores,Yellow Pages
Dollar Tree,,"70 Court St N,Thunder Bay,ONP7A 4T8",Thunder Bay,Dollar Stores,Yellow Pages
Party City,,ONP7B 6G3,Thunder Bay,Dollar Stores,Yellow Pages
Your Perfect Catch,,"4118 Mapleward Rd,Thunder Bay,ONP7K 1A1",Thunder Bay,General Stores,Yellow Pages
Skaf's Bargain Zone,,"470 Hodder Ave,Thunder Bay,ONP7A 7X5",Thunder Bay,General Stores,Yellow Pages
Valley Foods,,"4591 Oliver Rd,Murillo,ONP0T 2G0",Thunder Bay,General Stores,Yellow Pages
Thunder Bay Co-Op Farm Supplies,,"560 Boundary Drive,Slate River,ONP7J 0A5",Thunder Bay,General Stores,Yellow Pages
Hopper's Variety,,"2160 Hwy 588,Thunder Bay,ONP0T 1W0",Thunder Bay,General Stores,Yellow Pages
Doemel's Suomi General Store,,"3851 Hwy 588,Thunder Bay,ONP0T 2K0",Thunder Bay,General Stores,Yellow Pages
Leiterman R C,,"Kakabeka Falls,Thunder Bay,ON",Thunder Bay,General Stores,Yellow Pages
I.D.A. - Thunder Bay Care Pharmacy,Call,"103-1040 Oliver Rd,Thunder Bay,ONP7B 7A5",Thunder Bay,Pharmacies,Yellow Pages
Walmart,,"1101 Arthur St W,Thunder Bay,ONP7E 5S2",Thunder Bay,Pharmacies,Yellow Pages
Metro Pharmacy,,"640 River St,Thunder Bay,ONP7A 3S4",Thunder Bay,Pharmacies,Yellow Pages
Walmart Supercentre,,"777 Memorial Ave,Thunder Bay,ONP7B 3Z7",Thunder Bay,Pharmacies,Yellow Pages
Walmart Supercentre,,"1020 Dawson Rd,Thunder Bay,ONP7B 1K6",Thunder Bay,Pharmacies,Yellow Pages
Safeway Pharmacy,,"115 Arthur St W,Thunder Bay,ONP7E 5P7",Thunder Bay,Pharmacies,Yellow Pages
Safeway Pharmacy,,"1015 Dawson Rd,Thunder Bay,ONP7B 6S7",Thunder Bay,Pharmacies,Yellow Pages
Safeway Pharmacy,,"70 Court St N,Thunder Bay,ONP7A 4T8",Thunder Bay,Pharmacies,Yellow Pages
Loblaw Pharmacy,,"971 Carrick St,Thunder Bay,ONP7B 6L9",Thunder Bay,Pharmacies,Yellow Pages
rexall,,"1265 arthur st e,#100,thunder bay,ONp7e 6e7",Thunder Bay,Pharmacies,Yellow Pages
Oak Medical Arts - Academy Clinic,,"556 Beverly St,Thunder Bay,ONP7B 5V2",Thunder Bay,Pharmacies,Yellow Pages
Syndicate Pharmacy,,"140 Syndicate Ave S,Thunder Bay,ONP7E 1C6",Thunder Bay,Pharmacies,Yellow Pages
Ridgeway Clinic,,"1001 Ridgeway St E,Thunder Bay,ONP7E 5H8",Thunder Bay,Pharmacies,Yellow Pages
Oak Medical Arts - Waterfront Pharmacy,,"100-106 Cumberland St N,Thunder Bay,ONP7A 4M2",Thunder Bay,Pharmacies,Yellow Pages
Janzen's Pharmacy,,"129 Frederica St W,Thunder Bay,ONP7E 3V8",Thunder Bay,Pharmacies,Yellow Pages
White Cedar Pharmacy,,"125 Vickers St S,Thunder Bay,ONP7E 1J2",Thunder Bay,Pharmacies,Yellow Pages
Janzen's Pharmacy,,"296 Bay St,Thunder Bay,ONP7B 1R8",Thunder Bay,Pharmacies,Yellow Pages
circle k,,"628 third line east,sault ste marie,ONp6a 6j8",Sault Ste. Marie,Convenience Stores,Yellow Pages
Metallos Mini Mart,,"147 Northern Ave E,Sault Ste Marie,ONP6B 4H8",Sault Ste. Marie,Convenience Stores,Yellow Pages
Rankin Confectionary,,"450 Frontenac St,Sault Ste Marie,ONP6A 5K9",Sault Ste. Marie,Convenience Stores,Yellow Pages
Brookfield Market,,"899 Second Line W,Sault Ste Marie,ONP6C 2L5",Sault Ste. Marie,Convenience Stores,Yellow Pages
Hi-Way Variety,,"883 Trunk Rd,Sault Ste Marie,ONP6A 3T3",Sault Ste. Marie,Convenience Stores,Yellow Pages
Metallo's Mini Mart,Call,"147 Northern Ave E,Sault Ste Marie,ONP6B 4H8",Sault Ste. Marie,Convenience Stores,Yellow Pages
The Airways General Store,,"2667 Second Line W,Sault Ste Marie,ONP6A 6K4",Sault Ste. Marie,Convenience Stores,Yellow Pages
Krazy Ernie's Food Mart,,"256 McNabb St,Sault Ste Marie,ONP6B 1Y6",Sault Ste. Marie,Convenience Stores,Yellow Pages
circle k,,"381 mcnabb st,sault ste marie,ONp6b 1y9",Sault Ste. Marie,Convenience Stores,Yellow Pages
Eastside Confectionary,,"67 Eastern Ave,Sault Ste Marie,ONP6A 4R3",Sault Ste. Marie,Convenience Stores,Yellow Pages
circle k,,"655 wellington st west,sault ste marie,ONp6c 3v1",Sault Ste. Marie,Convenience Stores,Yellow Pages
circle k,,"647 second line west,sault ste marie,ONp6c 2k8",Sault Ste. Marie,Convenience Stores,Yellow Pages
Paquette's Confectionery,,"383 Korah Rd,Sault Ste. Marie,ONP6C 4H4",Sault Ste. Marie,Convenience Stores,Yellow Pages
Circle K (Mac's Convenience Stores),,"12 2nd Line W,Sault Ste Marie,ONP6C 2H9",Sault Ste. Marie,Convenience Stores,Yellow Pages
circle k,,"650 boundary rd,sault ste marie,ONp6a 5c7",Sault Ste. Marie,Convenience Stores,Yellow Pages
circle k,,"271 dacey rd,sault ste marie,ONp6a 5j9",Sault Ste. Marie,Convenience Stores,Yellow Pages
Ezy Pzy Convenience,,"216 SecondLineW,Sault Ste. Marie,ONP6C 2J3",Sault Ste. Marie,Convenience Stores,Yellow Pages
Goulais River Country Store,Call,"Hwy 17 N,Goulais River,ONP0S 1E0",Sault Ste. Marie,Convenience Stores,Yellow Pages
circle k,,"208d mission rd,wawa,ONp0s 1k0",Sault Ste. Marie,Convenience Stores,Yellow Pages
Esso,,"3 Trunk Rd,Sault Ste Marie,ONP6A 3S2",Sault Ste. Marie,Gas Stations,Yellow Pages
Esso,,"436 FRONTENAC ST,SAULT STE. MARIE,ONP6A 5K9",Sault Ste. Marie,Gas Stations,Yellow Pages
Esso,,"442 Bruce St,Sault Ste Marie,ONP6B 1R4",Sault Ste. Marie,Gas Stations,Yellow Pages
The Trading Post,,"1332 Great Northern Rd,Sault Ste Marie,ONP6A 5K7",Sault Ste. Marie,Gas Stations,Yellow Pages
Ultramar HomEnergy Centre,,"548 Great Northern Rd,Sault Ste Marie,ONP6B 4Z9",Sault Ste. Marie,Gas Stations,Yellow Pages
Excel Auto Repair,Call,"713 Trunk Rd,Sault Ste Marie,ONP6A 3T2",Sault Ste. Marie,Gas Stations,Yellow Pages
Petro-Canada EV Fast Charging Station,,"713 Trunk Rd,Sault Ste Marie,ONP6A 3T2",Sault Ste. Marie,Gas Stations,Yellow Pages
Shell,,"400 McNabb Street,Sault Ste. Marie,ONP6B 1Z1",Sault Ste. Marie,Gas Stations,Yellow Pages
Shell,,"266 Korah Rd,Sault Ste. Marie,ONP6C 4G9",Sault Ste. Marie,Gas Stations,Yellow Pages
Petro-Pass Truck Stop,,"937 Great Northern Rd,Sault Ste-Marie,ONP6B 0B9",Sault Ste. Marie,Gas Stations,Yellow Pages
Petro-Canada,,"713 Trunk Rd,Sault Ste. Marie,ONP6A 3T2",Sault Ste. Marie,Gas Stations,Yellow Pages
HUSKY/ESSO,,"1275 Trunk Rd,Sault Ste Marie,ONP6A 6X8",Sault Ste. Marie,Gas Stations,Yellow Pages
Canadian Tire - Gas+,,"752 Wellington St W,Sault Ste Marie,ONP6C 3V4",Sault Ste. Marie,Gas Stations,Yellow Pages
Petro-Canada,,"411 Great Northern Rd,Sault Ste Marie,ONP6B 5A1",Sault Ste. Marie,Gas Stations,Yellow Pages
Petro-Canada,,"140 Black Rd,Sault Ste Marie,ONP6A 6J8",Sault Ste. Marie,Gas Stations,Yellow Pages
ESSO - Ste Marie Cardlock,,"52 Black Rd,Sault Ste Marie,ON",Sault Ste. Marie,Gas Stations,Yellow Pages
Metro Market Mall,,"275 Second Line W,Sault Ste. Marie,ONP6C 2J4",Sault Ste. Marie,Grocery Stores,Yellow Pages
Metro Northern,,"248 Northern Ave E,Sault Ste. Marie,ONP6B 4H6",Sault Ste. Marie,Grocery Stores,Yellow Pages
Metro Churchill Plaza,,"150 Churchill Blvd,Sault Ste. Marie,ONP6A 3Z9",Sault Ste. Marie,Grocery Stores,Yellow Pages
Food Basics,,"701 Pine St,Sault Ste Marie,ONP6B 3G2",Sault Ste. Marie,Grocery Stores,Yellow Pages
Food Basics,,"625 Trunk Rd,Sault Ste Marie,ONP6A 3T1",Sault Ste. Marie,Grocery Stores,Yellow Pages
M&M Food Market,,"153 Great Northern Rd.,Sault Ste. Marie,ONP6B 4Y9",Sault Ste. Marie,Grocery Stores,Yellow Pages
M&M Food Market,,"216 Second Line West,Sault Ste. Marie,ONP6C 2J3",Sault Ste. Marie,Grocery Stores,Yellow Pages
M&M Food Market,,"357 Trunk Rd.,Sault Ste. Marie,ONP6A 3S9",Sault Ste. Marie,Grocery Stores,Yellow Pages
Paesano Foods,Call,"305 Wellington St W,Sault Ste Marie,ONP6A 1H8",Sault Ste. Marie,Grocery Stores,Yellow Pages
City Meat Market,Call,"814 Queen St E,Sault Ste Marie,ONP6A 2B1",Sault Ste. Marie,Grocery Stores,Yellow Pages
Rome's Your Independent Grocer,,"44 Great Northern Rd,Sault Ste Marie,ONP6B 4Y5",Sault Ste. Marie,Grocery Stores,Yellow Pages
Pino's Get Fresh Foods,,"219 Trunk Rd,Sault Ste Marie,ONP6A 3S5",Sault Ste. Marie,Grocery Stores,Yellow Pages
Metro (Supermarkets),,"248 Northern E & Hwy 17 N,Sault Ste Marie,ONP6B 4H6",Sault Ste. Marie,Grocery Stores,Yellow Pages
Joe's No Frills,,"519 Korah Rd,Sault Ste Marie,ONP6C 4J4",Sault Ste. Marie,Grocery Stores,Yellow Pages
Rome's Flower Market,,"44 Great Northern Rd,Sault Ste. Marie,ONP6B 4Y5",Sault Ste. Marie,Grocery Stores,Yellow Pages
Joe's No Frills 796 Limited,,"519 Korah Rd,Sault Ste. Marie,ONP6C 4J4",Sault Ste. Marie,Grocery Stores,Yellow Pages
Grocer 4 Good,,"147 GORE ST,SAULT STE. MARIE,ONP6A 1M3",Sault Ste. Marie,Grocery Stores,Yellow Pages
Timberland General Store,,"3030 Hwy 17 N,Goulais River,ONP0S 1E0",Sault Ste. Marie,Grocery Stores,Yellow Pages
St Joseph Island Market,,"Richards Landing,Richards Landing,ONP0R 1J0",Sault Ste. Marie,Grocery Stores,Yellow Pages
Kentvale Home Hardware,Call,"712 K-Line Rd,Richards Landing,ONP0R 1J0",Sault Ste. Marie,Hardware Stores,Yellow Pages
Rona,,"275 Second Line W,Sault Ste Marie,ONP6C 2J4",Sault Ste. Marie,Hardware Stores,Yellow Pages
BMR,,"690 Second Line E,Sault Ste Marie,ONP6B 4K3",Sault Ste. Marie,Hardware Stores,Yellow Pages
The Home Depot,,"530 Great Northern Rd,Sault Ste-Marie,ONP6B 4Z9",Sault Ste. Marie,Hardware Stores,Yellow Pages
Lyons Ltd,Call,"500 Wellington Street West,Sault Ste Marie,ONP6C 3T5",Sault Ste. Marie,Hardware Stores,Yellow Pages
Lemays Decorating Centre,Call,"5 Wellington St W,Sault Ste Marie,ONP6A 1G9",Sault Ste. Marie,Hardware Stores,Yellow Pages
Thayer Lumber Co.,Call,"351 Northland Rd,Sault Ste Marie,ONP6C 3N2",Sault Ste. Marie,Hardware Stores,Yellow Pages
Soo Mill Buildall,,"539 Great Northern Rd,Sault Ste Marie,ONP6B 5A1",Sault Ste. Marie,Hardware Stores,Yellow Pages
North Pro Supply,,"189 Walnut St,Sault Ste Marie,ONP6B 2G2",Sault Ste. Marie,Hardware Stores,Yellow Pages
O C P Construction Supplies Inc,,"28 Industrial Court A,Sault Ste Marie,ONP6B 5W6",Sault Ste. Marie,Hardware Stores,Yellow Pages
Lyons Homecare Building Centre,,"Peoples Rd,Sault Ste Marie,ON",Sault Ste. Marie,Hardware Stores,Yellow Pages
Home Depot USA Inc,,"530 Great Northern Rd,Sault Ste. Marie,ONP6B 4Z9",Sault Ste. Marie,Hardware Stores,Yellow Pages
Home Hardware Building Centre,,"594 Second Line E,Sault Ste Marie,ONP6B 4K1",Sault Ste. Marie,Hardware Stores,Yellow Pages
Bobcat of Sault Ste. Marie,,"235 Drive-In Rd,Sault Ste. Marie,ONP6B 5X5",Sault Ste. Marie,Hardware Stores,Yellow Pages
Lafarge Canada Inc.,,"92 Industrial Park Cres,Sault Ste Marie,ONP6B 5P2",Sault Ste. Marie,Hardware Stores,Yellow Pages
O C P,,"531 Second Line E,Sault Ste. Marie,ONP6B 4K2",Sault Ste. Marie,Hardware Stores,Yellow Pages
Home Furniture,,"274 North St,Sault Ste Marie,ONP6A 1M6",Sault Ste. Marie,Hardware Stores,Yellow Pages
ToolTown Inc,,"1-475 Trunk Rd,Sault Ste Marie,ONP6A 3T1",Sault Ste. Marie,Hardware Stores,Yellow Pages
Onofrio's Top Shop,,"1281 Great Northern Rd,Sault Ste. Marie,ONP6B 0B9",Sault Ste. Marie,Hardware Stores,Yellow Pages
Value Village,Phone Number705-256-1806,"248 Northern Ave E,Sault Ste Marie,ONP6B 4H6Get directions",Sault Ste. Marie,Dollar Stores,Yellow Pages
Dollarama,Phone Number705-254-1342,"293 Northern Ave E,Sault Ste Marie,ONP6B 4H9Get directions",Sault Ste. Marie,Dollar Stores,Yellow Pages
Dollarama,Phone Number705-949-5209,"275 Second Line W,Sault Ste. Marie,ONP6C 2J4Get directions",Sault Ste. Marie,Dollar Stores,Yellow Pages
Dollarama,Phone Number705-942-1545,"150 Churchill Blvd,Sault Ste Marie,ONP6A 3Z9Get directions",Sault Ste. Marie,Dollar Stores,Yellow Pages
Dollarama,Phone Number705-945-8240,"293 Bay St,Sault Ste Marie,ONP6A 1X3Get directions",Sault Ste. Marie,Dollar Stores,Yellow Pages
Dollar Tree,Phone Number705-942-2272,"44 Great Northern Rd.,Sault Sainte Marie,ONP6B 4Y5Get directions",Sault Ste. Marie,Dollar Stores,Yellow Pages
Liquidation World,Phone Number705-946-4688,"475 Trunk Rd,Sault Ste Marie,ONP6A 3T1Get directions",Sault Ste. Marie,Dollar Stores,Yellow Pages
Dollar Tree,Phone Number705-949-1776,"Unit 10 625 Trunk Rd,Sault Ste Marie,ONP6A 3T1Get directions",Sault Ste. Marie,Dollar Stores,Yellow Pages
Post Office,,"Goulais River,ONP0S 1E0",Sault Ste. Marie,General Stores,Yellow Pages
Little Rapids General Store,,"59 Little Rapids Road,Thessalon,ONP0R 1L0",Sault Ste. Marie,General Stores,Yellow Pages
the medicine shoppe pharmacy,Phone Number705-253-0720,"316 second line w,sault ste. marie,ONp6c 2j5Get directions",Sault Ste. Marie,Pharmacies,Yellow Pages
Metro Pharmacy,Phone Number705-945-1006,"248 Northern Ave E,Sault Ste Marie,ONP6B 4H6Get directions",Sault Ste. Marie,Pharmacies,Yellow Pages
Metro Pharmacy,Phone Number705-254-7070,"150 Churchill Blvd,Sault Ste Marie,ONP6A 3Z9Get directions",Sault Ste. Marie,Pharmacies,Yellow Pages
Walmart Supercentre,Phone Number705-945-8364,"446 Great Northern Rd,Sault Ste Marie,ONP6B 4Z9Get directions",Sault Ste. Marie,Pharmacies,Yellow Pages
Loblaw Pharmacy,Phone Number705-253-2887,"44-50 Great Northern Rd,Sault Ste. Marie,ONP6B 4Y5Get directions",Sault Ste. Marie,Pharmacies,Yellow Pages
Rexall,Phone Number705-759-3370,"170 East,Sault Ste. Marie,ONP6A 3C6Get directions",Sault Ste. Marie,Pharmacies,Yellow Pages
Rexall,Phone Number705-253-3254,"129 Trunk Rd,Sault Ste. Marie,ONP6A 3S4Get directions",Sault Ste. Marie,Pharmacies,Yellow Pages
Apothecarium The,Phone Number705-949-1000,"341 Trunk Rd,Sault Ste. Marie,ONP6A 3S9Get directions",Sault Ste. Marie,Pharmacies,Yellow Pages
urban square i.d.a. drug mart,Phone Number705-759-4818,"197 trunk road,sault st marie,ONp6a 6x8Get directions",Sault Ste. Marie,Pharmacies,Yellow Pages
Pharmasave Adel Pharmacy,Phone Number705-450-7373,"773 Great Northern Rd,Sault Ste Marie,ONP6B 0B7Get directions",Sault Ste. Marie,Pharmacies,Yellow Pages
Drug Basics Pharmacy,Phone Number705-945-8725,"701 Pine St,Sault Ste Marie,ONP6B 3G2Get directions",Sault Ste. Marie,Pharmacies,Yellow Pages
Guardian - MacKay's Island Pharmacy,Phone Number705-246-0650,"1186 Richard St,Richard's Landing,ONP0R 1J0Get directions",Sault Ste. Marie,Pharmacies,Yellow Pages
Central Algoma Pharmacy,Phone Number705-785-3555,"9242 Hwy 17 E,Bruce Mines,ONP0R 1C0Get directions",Sault Ste. Marie,Pharmacies,Yellow Pages
Guardian - Main Street Pharmacy,Phone Number705-842-2322,"156 Main St,Thessalon,ONP0R 1L0Get directions",Sault Ste. Marie,Pharmacies,Yellow Pages
Brampton Medical Pharmacy,Phone Number905-456-3008,"389 Main St N,Brampton,ONL6X 3P1Get directions",Sault Ste. Marie,Pharmacies,Yellow Pages
Market Mall IDA,Phone Number705-253-1121,"275 Second Line W,Sault Ste. Marie,ONP6C 2J4",Sault Ste. Marie,Pharmacies,Yellow Pages
Metro Pharmacy,Phone Number705-945-1006,,Sault Ste. Marie,Pharmacies,Yellow Pages
Lakeview Grocery And Spyke Gas Bar,,"3790 TroutLakeRd,North Bay,ON",North Bay,Convenience Stores,Yellow Pages
6 Eleven Multi Mart,,"512 Lakeshore Dr,North Bay,ONP1A 2E4",North Bay,Convenience Stores,Yellow Pages
Smoke 'N' Lotto,,"180 Shirreff Ave,North Bay,ONP1B 7K9",North Bay,Convenience Stores,Yellow Pages
Mike's Mart,,"3 Couchie Industrial Rd,North Bay,ONP1B 8G5",North Bay,Convenience Stores,Yellow Pages
The New Duchesnay Store,,"40 Goulais Cres,North Bay,ONP1B 8G5",North Bay,Convenience Stores,Yellow Pages
circle k,,"617 main st e,north bay,ONp1b 1c1",North Bay,Convenience Stores,Yellow Pages
Shell,,"2606 Trout Lake Rd,North Bay,ONP1B 7S7",North Bay,Convenience Stores,Yellow Pages
circle k,,"1867 o'brien st,north bay,ONp1b 5y7",North Bay,Convenience Stores,Yellow Pages
Canadian Tire - Gas+,,"1403 Algonquin Ave,North Bay,ONP1B 4Y6",North Bay,Convenience Stores,Yellow Pages
circle k,,"1128 fisher st,north bay,ONp1b 2g7",North Bay,Convenience Stores,Yellow Pages
circle k,,"621 cassells st,north bay,ONp1b 4a1",North Bay,Convenience Stores,Yellow Pages
on the run - convenience store,,"1000 algonquin ave,north bay,ONp1b 4x7",North Bay,Convenience Stores,Yellow Pages
MacEwen Petroleum,,"1899 Algonquin Ave,North Bay,ONP1B 4Y8",North Bay,Convenience Stores,Yellow Pages
Circle K (Mac's Convenience Stores),,"24 Marshall Ave E,North Bay,ONP1A 1R1",North Bay,Convenience Stores,Yellow Pages
Birchaven And Variety,,"163 Sage Rd,North Bay,ONP1A 3A5",North Bay,Convenience Stores,Yellow Pages
Eagles Nest Chip Stand & Gas Bar,Call,"2 Migizii Miikan,North Bay,ONP1B 8G5",North Bay,Convenience Stores,Yellow Pages
Necessities,Call,"10 Couchie Industrial Road,North Bay,ONP1B 8G5",North Bay,Convenience Stores,Yellow Pages
circle k,,"26 main st n,unit 5,callander,ONp0h 1h0",North Bay,Convenience Stores,Yellow Pages
North Division Ontario Inc,,"13 Hwy 94,Corbeil,ONP0H 1H0",North Bay,Convenience Stores,Yellow Pages
Mr Gas,,"890 Hwy 17 E,North Bay,ONP1B 8G4",North Bay,Gas Stations,Yellow Pages
Ultramar,,"101-125 Brule St,North Bay,ONP1A 3Z5",North Bay,Gas Stations,Yellow Pages
Pioneer - Gas Station,,"1575 Seymour St,North Bay,ONP1B 8G4",North Bay,Gas Stations,Yellow Pages
Esso,Call,"1575 Seymour,North Bay,ONP1B 8G4",North Bay,Gas Stations,Yellow Pages
Esso,,"1575 SEYMOUR ST,NORTH BAY,ONP1B 8G4",North Bay,Gas Stations,Yellow Pages
Esso,,"1000 Algonquin Ave,North Bay,ONP1B 4X7",North Bay,Gas Stations,Yellow Pages
Esso,,"280 Pinewood Park Dr,North Bay,ONP1B 8Z4",North Bay,Gas Stations,Yellow Pages
Bvd Northbay Inc,,"280 Pinewood Park Dr,North Bay,ONP1B 8Z4",North Bay,Gas Stations,Yellow Pages
Bay Truckstop & Restaurant,,"3060 11 Hwy N,North Bay,ONP1B 8K2",North Bay,Gas Stations,Yellow Pages
Petro-Canada,,"1119 Algonquin Ave,North Bay,ONP1B 4Y1",North Bay,Gas Stations,Yellow Pages
CAT Scale,,"280 Pinewood Park Drive,North Bay,ONP1B 8Z4",North Bay,Gas Stations,Yellow Pages
ultramar energy,,"125 brule st,101,north bay,ONp1a 3z4",North Bay,Gas Stations,Yellow Pages
HUSKY,,"3090 Hwy 11 N,North Bay,ONP1B 8G3",North Bay,Gas Stations,Yellow Pages
Metro North Bay,Phone Number705-840-2424,"390 Lakeshore Dr,North Bay,ONP1A 2C7Get directions",North Bay,Grocery Stores,Yellow Pages
Food Basics,Phone Number705-472-8031,"1901 Cassells St,North Bay,ONP1B 4E1Get directions",North Bay,Grocery Stores,Yellow Pages
Sobeys,Phone Number705-472-4001,"1899 Algonquin,North Bay,ONP1B 4Y8Get directions",North Bay,Grocery Stores,Yellow Pages
Bulk Barn,Phone Number705-475-0409,"850 McKeown Ave,North Bay,ONP1B 8M1Get directions",North Bay,Grocery Stores,Yellow Pages
FreshCo,Phone Number705-495-4221,"2555 Trout Lake Rd.,North Bay,ONP1B 7S8Get directions",North Bay,Grocery Stores,Yellow Pages
M & M Meat Shops,Phone Number705-497-9756,"Century Centre Plaza,North Bay,ONP1B 9N8Get directions",North Bay,Grocery Stores,Yellow Pages
Lakeview Grocery And Spyke Gas Bar,Phone Number705-497-8780,"3790 TroutLakeRd,North Bay,ONGet directions",North Bay,Grocery Stores,Yellow Pages
Real Food,Phone Number514-386-9816,"Boul St-Jean,Pointe-Claire,QCP1C 4L3Get directions",North Bay,Grocery Stores,Yellow Pages
What's 4 Dinr,Phone Number705-476-5600,"107 Shirreff Ave,North Bay,ONP1B 7K8Get directions",North Bay,Grocery Stores,Yellow Pages
Delivery in North Bay,Phone Number705-499-7917,"17 Mercer Dr,North Bay,ONP1A 2N6Get directions",North Bay,Grocery Stores,Yellow Pages
Foodland,Phone Number705-744-2228,"327 Main St,Mattawa,ONP0H 1V0Get directions",North Bay,Grocery Stores,Yellow Pages
Foodland,Phone Number705-752-2754,"30 Bay St,Callander,ONP0H 1H0Get directions",North Bay,Grocery Stores,Yellow Pages
Sobey's,Phone Number705-752-2754,"30 Bay St,Callander,ONP0H 1H0Get directions",North Bay,Grocery Stores,Yellow Pages
Oshell's Valu-Mart,Phone Number705-724-2686,"519 Main St,Powassan,ONP0H 1Z0Get directions",North Bay,Grocery Stores,Yellow Pages
Dave & Jenna's NOFRILLS Sturgeon Falls,Phone Number1-866-987-6453,"12035 Hwy 17 E,Sturgeon Falls,ONP2B 2S6Get directions",North Bay,Grocery Stores,Yellow Pages
Metro Sturgeon Falls,Phone Number705-753-4033,"203 Front St,Sturgeon Falls,ONP2B 2J4Get directions",North Bay,Grocery Stores,Yellow Pages
Co-Opérative Régionale Nipissing-Sudbury Limited,Phone Number705-594-23541-800-361-9255,"4 Principal St,Verner,ONP0H 2M0Get directions",North Bay,Grocery Stores,Yellow Pages
Les Aliments M&M,Phone Number819-627-9330,"550 Chemin Kipawa,Témiscaming,QCJ0Z 3R0Get directions",North Bay,Grocery Stores,Yellow Pages
IGA Temiscaming,Phone Number819-627-9948,"201 Rue De La Falaise,Témiscaming,QCJ0Z 3R0Get directions",North Bay,Grocery Stores,Yellow Pages
Mattawa Freshmart,Phone Number705-744-2498,"1016 John,Mattawa,ONP0H 1V0",North Bay,Grocery Stores,Yellow Pages
Gomoll Timber Mart,Call,"8 Joseph St,Powassan,ONP0H 1Z0",North Bay,Hardware Stores,Yellow Pages
Thibault & Son Lumber Mill,Call,"701 Mcgruthers Road,North Bay,ONP1B 8G2",North Bay,Hardware Stores,Yellow Pages
RONA North Bay Lakeview,,"11 Memorial Drive,North Bay,ONP1B 4G6",North Bay,Hardware Stores,Yellow Pages
Canadian Tire,Call,"890 McKeown Ave,North Bay,ONP1B 8M1",North Bay,Hardware Stores,Yellow Pages
The Home Depot,,"1275 Seymour St,North Bay,ONP1B 9V6",North Bay,Hardware Stores,Yellow Pages
Lakeview Builders Supplies 1983 Ltd,,"523 McGaughey Ave,North Bay,ONP1B 1W5",North Bay,Hardware Stores,Yellow Pages
Bath Planet,,"1104 Fisher St,North Bay,ONP1B 2G7",North Bay,Hardware Stores,Yellow Pages
Heritage Moulding & Trim,,"1401 Seymour St,North Bay,ONP1A 0C5",North Bay,Hardware Stores,Yellow Pages
Home Depot USA Inc,,"1275 Seymour St,North Bay,ONP1B 9V6",North Bay,Hardware Stores,Yellow Pages
Gateway Home Hardware,Call,"1300 Algonquin Ave,North Bay,ONP1B 4Y2",North Bay,Hardware Stores,Yellow Pages
Home Hardware Building Centre - Cary All,,"1705 Seymour St,North Bay,ONP1A 0C6",North Bay,Hardware Stores,Yellow Pages
RONA Lakeview Builders Supplies,,"523 McGaughey Avenue,North Bay,ONP1B 8H2",North Bay,Hardware Stores,Yellow Pages
Ferris Home Hardware,,"390 Lakeshore Dr,North Bay,ONP1A 2C7",North Bay,Hardware Stores,Yellow Pages
Regal Overhead Doors Regal,,"1250 Airport Road,North Bay,ONP1B 8G2",North Bay,Hardware Stores,Yellow Pages
Lafarge Canada Inc.,,"175 Progress Rd,North Bay,ONP1A 0B8",North Bay,Hardware Stores,Yellow Pages
Home Hardware Stores,Call,"1300 Algonquin,North Bay,ONP1B 4Y2",North Bay,Hardware Stores,Yellow Pages
Rascom Greenbuild Services - North Bay Sales Off ice,,"669 Cassells St Unit E,North Bay,ONP1B 4A1",North Bay,Hardware Stores,Yellow Pages
Northern Stable Supply/ Simply Wood Ltd,,"102 Booth Rd,North Bay,ONP1B 8Z4",North Bay,Hardware Stores,Yellow Pages
Dollarama,,"975 McKeown Ave,North Bay,ONP1B 9P2",North Bay,Dollar Stores,Yellow Pages
Dollarama,,"300 Lakeshore Dr,North Bay,ONP1A 3V2",North Bay,Dollar Stores,Yellow Pages
Dollarama,,"1500 Fisher St,North Bay,ONP1B 2H3",North Bay,Dollar Stores,Yellow Pages
Dollarama,,"1899 Algonquin Ave,North Bay,ONP1B 4Z0",North Bay,Dollar Stores,Yellow Pages
Giant Tiger,,"278 Lakeshore Dr,North Bay,ONP1A 2C2",North Bay,Dollar Stores,Yellow Pages
Dollar Tree,,"850 McKeown Avenue,North Bay,ONP1B 8M1",North Bay,Dollar Stores,Yellow Pages
Dollar Tree,,"390 Lakeshore Drive Unit 7,North Bay,ONP1A 2C7",North Bay,Dollar Stores,Yellow Pages
Dollarama,,"194 Front St,Sturgeon Falls,ONP2B 2J3",North Bay,Dollar Stores,Yellow Pages
The Bargain Shop!,,"210 Front St,Sturgeon Falls,ONP2B 2J3",North Bay,Dollar Stores,Yellow Pages
Denises Dollar Den,,"148 John St,Sturgeon Falls,ONP2B 1Z6",North Bay,Dollar Stores,Yellow Pages
Denise's Dollar Den,,"54 Queen St,Sturgeon Falls,ONP2B 2C8",North Bay,Dollar Stores,Yellow Pages
Dollar Bazaar Plus,,"214 King St,Sturgeon Falls,ONP2B 1R7",North Bay,Dollar Stores,Yellow Pages
Crazy Bucks 2,,"214 King St,Sturgeon Falls,ONP2B 2G7",North Bay,Dollar Stores,Yellow Pages
Giant Tiger,,"42 William St,Sturgeon Falls,ONP2B 2A5",North Bay,Dollar Stores,Yellow Pages
Scott's Discount Store,,"328 Main St,Mattawa,ONP0H 1V0",North Bay,Dollar Stores,Yellow Pages
Media Madness,,"41 Lakeshore Dr,Sudbury,ONP0M 1S0",North Bay,Dollar Stores,Yellow Pages
Overstock Liquidation,,"3001 Lakefield Rd,Selwyn,ONK9J 6X5",North Bay,Dollar Stores,Yellow Pages
CJ's Variety,,"148 Main St W,North Bay,ONP1B 2T5",North Bay,General Stores,Yellow Pages
Jeff & Tanis' No Frills,,"300 Lakeshore Dr,North Bay,ONP1A 2V2",North Bay,General Stores,Yellow Pages
Wagner's General Store,,"649 Astorville,Callander,ONP0H 1K0",North Bay,General Stores,Yellow Pages
Eagle Lake Narrows Country Store,,"Eagle Lake,South River,ONP0A 1X0",North Bay,General Stores,Yellow Pages
5 Gables Contracting,,"153 Black Fox Rd,Hagar,ONP0M 1X0",North Bay,General Stores,Yellow Pages
Gerry's General Store,Call,,North Bay,General Stores,Yellow Pages
Pharmasave,,"2547 Trout Lake Rd,North Bay,ONP1B 7S8",North Bay,Pharmacies,Yellow Pages
Pharmasave,,"1221 Algonquin Ave,North Bay,ONP1B 4Y3",North Bay,Pharmacies,Yellow Pages
Pharmasave,,"239 Main St E,North Bay,ONP1B 1B2",North Bay,Pharmacies,Yellow Pages
Pharmasave,,"41 Lakeshore Dr,North Bay,ONP1A 2A1",North Bay,Pharmacies,Yellow Pages
Walmart Supercentre,,"1500 Fisher St,North Bay,ONP1B 2H3",North Bay,Pharmacies,Yellow Pages
Loblaw Pharmacy,,"1 Laurentian Ave,North Bay,ONP1B 9T2",North Bay,Pharmacies,Yellow Pages
Loblaw Pharmacy,,"300 Lakeshore Dr,North Bay,ONP1A 3V2",North Bay,Pharmacies,Yellow Pages
Medical Pharmacy,,"133 Main St W,North Bay,ONP1B 2T6",North Bay,Pharmacies,Yellow Pages
rexall,,"1205 fisher st,north bay,ONp1b 2h2",North Bay,Pharmacies,Yellow Pages
Harris Guardian Pharmacy,,"111 Main St,North Bay,ONP1B 2T6",North Bay,Pharmacies,Yellow Pages
Northern Shores Pharmacy,,"10 Maplewood,North Bay,ONP1B 5H2",North Bay,Pharmacies,Yellow Pages
Robinson's Pharmasave,,"2547 Trout Lake Rd,North Bay,ONP1B 7S8",North Bay,Pharmacies,Yellow Pages
north bay guardian drugs,,"1950 algonquin ave,north bay,ONp1b 4z2",North Bay,Pharmacies,Yellow Pages
North Bay Lifecare Pharmacy,,"142 Main St E,North Bay,ONP1B 1A8",North Bay,Pharmacies,Yellow Pages
Shoppers Drug Mart,,"276 Lakeshore Dr,North Bay,ONP1A 2C2",North Bay,Pharmacies,Yellow Pages
Shoppers Drug Mart,,"66 Josephine St,North Bay,ONP1B 0A7",North Bay,Pharmacies,Yellow Pages
Shoppers Drug Mart,,"2025 Cassells St,North Bay,ONP1B 4E1",North Bay,Pharmacies,Yellow Pages
Algonquin Pharmasave,,"1221 Algonquin Ave,North Bay,ONP1B 4Y3",North Bay,Pharmacies,Yellow Pages
North Bay Plumber - Providence Plumbing,,"637 Robarts Ave,North Bay,ONP1B 7E5",North Bay,Pharmacies,Yellow Pages
Shell,,"565 Algonquin Boulevard East,Timmins,ONP4N 7N5",Timmins,Convenience Stores,Yellow Pages
T & S Variety Store,,"269 Dale Ave,Timmins,ONP4N 1M7",Timmins,Convenience Stores,Yellow Pages
circle k,,"20 victoria ave,timmins,ONp4n 8k5",Timmins,Convenience Stores,Yellow Pages
Circle K (Mac's Convenience Stores),,"3-30 Algonquin Blvd W,Timmins,ONP4N 2R3",Timmins,Convenience Stores,Yellow Pages
circle k,,"287 algonquin road west,timmins,ONp4n 2r9",Timmins,Convenience Stores,Yellow Pages
circle k,,"60 dwyer ave,schumacher,ONp0n 1g0",Timmins,Convenience Stores,Yellow Pages
On the Run,,"504-690 River Park Rd,Timmins,ONP4P 1B4",Timmins,Convenience Stores,Yellow Pages
circle k,,"4327 harold ave east,south porcupine,ONp0n 1h0",Timmins,Convenience Stores,Yellow Pages
Angel's Mini Mart,,"136 Railway St,Cochrane,ONP0L 1C0",Timmins,Convenience Stores,Yellow Pages
Pro's Mini Mart,,"39 Huron Rd Gd,Cochrane,ONP0L 1C0",Timmins,Convenience Stores,Yellow Pages
the c store,,"562 algonquin blvd e,timmins,ONp4n 1b7",Timmins,Convenience Stores,Yellow Pages
Rubino's Gas Bar,Phone Number705-235-4797,"4310 Harold Ave,South Porcupine,ONP0N 1H0Get directions",Timmins,Gas Stations,Yellow Pages
Canadian Tire,Phone Number705-268-8591,"2199 Riverside Dr,Timmins,ONP4R 0A1Get directions",Timmins,Gas Stations,Yellow Pages
Pioneer Energy,Phone Number705-268-5737,"1455 Riverside Dr,Timmins,ONP4R 1M8Get directions",Timmins,Gas Stations,Yellow Pages
Esso,Phone Number705-268-3400,"2154 RIVERSIDE DR,TIMMINS,ONP4N 7C3Get directions",Timmins,Gas Stations,Yellow Pages
Esso,Phone Number705-264-3515,"562 ALGONQUIN BLVD E,TIMMINS,ONP4N 1B7Get directions",Timmins,Gas Stations,Yellow Pages
Esso,Phone Number705-268-3460,"690 Riverpark Rd, Suite 504,Timmins,ONP4P 1B4Get directions",Timmins,Gas Stations,Yellow Pages
New North Fuels Inc,Phone Number705-264-3431,"364 Moneta Ave,Timmins,ONP4N 7C5Get directions",Timmins,Gas Stations,Yellow Pages
Shell,Phone Number705-360-1818,"565 Algonquin Boulevard East,Timmins,ONP4N 7N5Get directions",Timmins,Gas Stations,Yellow Pages
Shell,Phone Number705-268-0618,"1300 Riverside Drive,Timmins,ONP4R 1A5Get directions",Timmins,Gas Stations,Yellow Pages
Petro-Canada,Phone Number705-268-1136,"31 Algonquin Blvd W,Timmins,ONP4N 2R2Get directions",Timmins,Gas Stations,Yellow Pages
Esso,Phone Number705-232-4051,"Hwy 11,Val Gagne,ONP0K 1W0Get directions",Timmins,Gas Stations,Yellow Pages
Dumont George Service Station Ltd,Phone Number705-232-4263,"559 Ambridge Dr,Iroquois Falls,ONP0K 1E0Get directions",Timmins,Gas Stations,Yellow Pages
Petro-Canada,Phone Number705-232-4263,"559 Ambridge Dr,Iroquois Falls,ONP0K 1G0Get directions",Timmins,Gas Stations,Yellow Pages
Iroquois Falls Esso,Phone Number705-258-3489,"232 Cambridge Ave,ONP0K 1E0Get directions",Timmins,Gas Stations,Yellow Pages
Canadian Tire Gas+,Phone Number705-272-4850,"215 Highway,Cochrane,ONP0L 1C0Get directions",Timmins,Gas Stations,Yellow Pages
Petro-Canada Gas Station & Petro-Pass Truck Stop,Phone Number705-272-2737,"54 Hwy 11 W,Cochrane,ONP0L 1C0Get directions",Timmins,Gas Stations,Yellow Pages
Girard Esso,Phone Number705-272-5424,"19 Hwy 11 S,Cochrane,ONP0L 1C0Get directions",Timmins,Gas Stations,Yellow Pages
Bruneau Travel Centre,Phone Number705-272-4303,"65 Hwy 11 W,Cochrane,ONP0L 1C0Get directions",Timmins,Gas Stations,Yellow Pages
Dog Star Service,Phone Number705-565-2262,"Moyneur,Matachewan,ONP0K 1M0Get directions",Timmins,Gas Stations,Yellow Pages
M D K Gas Bar,Phone Number705-565-2320,"14498 Alma Ir,Matachewan,ONGet directions",Timmins,Gas Stations,Yellow Pages
Metro Timmins,Phone Number705-268-5481,"140 Algonquin Blvd W,Timmins,ONP4N 1A9Get directions",Timmins,Grocery Stores,Yellow Pages
Food Basics,Phone Number705-268-9922,"105 Brunette Rd,Timmins,ONP4N 2R1Get directions",Timmins,Grocery Stores,Yellow Pages
M&M Food Market,Phone Number705-267-2066,"100 Waterloo Rd.,Timmins,ONP4N 4X5Get directions",Timmins,Grocery Stores,Yellow Pages
M&M Food Market,Phone Number705-288-5540,"215 Main St,South Porcupine,ONP0N 1H0Get directions",Timmins,Grocery Stores,Yellow Pages
Pick of the Crop,Phone Number705-268-3635,"70 Algonquin Blvd W,Timmins,ONP4N 2R3Get directions",Timmins,Grocery Stores,Yellow Pages
Foodland,Phone Number705-268-5020,"670 Airport Rd,Timmins,ONP4N 7C3Get directions",Timmins,Grocery Stores,Yellow Pages
Bartolomucci Dante,Phone Number705-264-5237,"1-154 Sixth Ave,Timmins,ONP4N 5M3Get directions",Timmins,Grocery Stores,Yellow Pages
Toffanello's Fresh Pasta,Phone Number705-268-6933,"A-119 Wilson Ave,Timmins,ONP4N 2S8Get directions",Timmins,Grocery Stores,Yellow Pages
Dailey's Your Independent Grocer,Phone Number705-264-8233,"654 Algonquin Blvd E,Timmins,ONP4N 8R4Get directions",Timmins,Grocery Stores,Yellow Pages
Alan's No Frills,Phone Number1-866-987-6453,"1500 Riverside Dr, Unit D,Timmins,ONP4R 1A1Get directions",Timmins,Grocery Stores,Yellow Pages
Mandy & Raj's Valu-mart Iroquois Falls,Phone Number705-232-5153,"320 Main St,Iroquois Falls,ONP0K 1G0Get directions",Timmins,Grocery Stores,Yellow Pages
Foodland,Phone Number705-232-4071,"171 Ambridge Dr,Iroquois Falls,ONP0K 1G0Get directions",Timmins,Grocery Stores,Yellow Pages
Myna Variety Store & Grocery,Phone Number705-258-3854,"231 Devonshire,Iroquois Falls,ONP0K 1E0Get directions",Timmins,Grocery Stores,Yellow Pages
Bouchard Grocery,Phone Number705-236-9901,"361 McIntyre Ave,Ramore,ONGet directions",Timmins,Grocery Stores,Yellow Pages
Brennan & Samantha’s Your Independent Grocer Cochrane,Phone Number705-272-4238,"31-1 Hwy 11 W,Cochrane,ONP0L 1C0Get directions",Timmins,Grocery Stores,Yellow Pages
Blanchette Freshmart,Phone Number705-338-2708,"164 Main St,Smooth Rock Falls,ONP0L 2B0Get directions",Timmins,Grocery Stores,Yellow Pages
Pettenuzzo's Your Independent Grocer,Phone Number705-567-4939,"15 McChesney Ave,Kirkland Lake,ONP2N 3R9Get directions",Timmins,Grocery Stores,Yellow Pages
Foodland Kirkland Lake,Phone Number705-567-7207,"47 Government Rd E,Kirkland Lake,ONP2N 1A4Get directions",Timmins,Grocery Stores,Yellow Pages
Foodland,Phone Number705-567-6649,"47 Government Rd E,Kirkland Lake,ONP2N 1A4Get directions",Timmins,Grocery Stores,Yellow Pages
Pronto store,Phone Number705-567-7070,"5-1 Taylor Ave,Kirkland Lake,ONP2N 2K9Get directions",Timmins,Grocery Stores,Yellow Pages
Timmins Home Improvement Centre,Phone Number705-264-6433,"89 Wilson Avenue,Timmins,ONP4N 2S8Get directions",Timmins,Hardware Stores,Yellow Pages
The Home Depot,Phone Number705-360-8750,"2143 Riverside Dr,Timmins,ONP4N 7C3Get directions",Timmins,Hardware Stores,Yellow Pages
Porcupine Pro Hardware,Phone Number705-235-2323,"85 Bruce Ave,South Porcupine,ONP0N 1H0Get directions",Timmins,Hardware Stores,Yellow Pages
Ray Ray Reno,Phone Number705-288-3725,"279 Spruce St S,Timmins,ONP4N 2N1Get directions",Timmins,Hardware Stores,Yellow Pages
The Sarjeant Co.,Phone Number705-268-6188,"2614 Highway 655,Timmins,ONP4N 8R9Get directions",Timmins,Hardware Stores,Yellow Pages
BMR Feldman Timber,Phone Number705-268-3030,"681 Algonquin Blvd E,Timmins,ONP4N 7N6Get directions",Timmins,Hardware Stores,Yellow Pages
Timmin's Mechanical Solutions,Phone Number705-268-1716,"4539 Hwy 101 W,Timmins,ONP4R 0E7Get directions",Timmins,Hardware Stores,Yellow Pages
Timmins Home Hardware Building Centre,Phone Number705-267-6295,"1700 Riverside Dr,Timmins,ONP4R 1N7Get directions",Timmins,Hardware Stores,Yellow Pages
Home Depot Store #7236,Phone Number705-264-2211,"2143 Riverside Dr,Timmins,ONP4R 0A1Get directions",Timmins,Hardware Stores,Yellow Pages
Northern Landscape & Construction Supply - Brick yard,Phone Number705-465-5762,"1330 Riverside Dr,Timmins,ONP4R 1A5Get directions",Timmins,Hardware Stores,Yellow Pages
Echo Valley Exteriors,Phone Number705-273-2881,"2278 HWY 101 E,MATHESON,ONP0K 1N0Get directions",Timmins,Hardware Stores,Yellow Pages
The Sarjeant Co.,Phone Number705-232-5550,"742 Highway 67,Iroquois Falls,ONP0K 1G0Get directions",Timmins,Hardware Stores,Yellow Pages
Home Hardware Building Centre,Phone Number705-232-4029,"745 Ambridge Dr,Iroquois Falls,ONP0K 1G0Get directions",Timmins,Hardware Stores,Yellow Pages
Collins Home Hardware Building Centre,Phone Number705-273-1890,"413 5th Ave,Matheson,ONP0K 1N0Get directions",Timmins,Hardware Stores,Yellow Pages
The Sarjeant Co.,Phone Number705-272-4248,"19 2nd St,Cochrane,ONP0L 1C0Get directions",Timmins,Hardware Stores,Yellow Pages
Allan's Home Hardware Building Centre,Phone Number705-272-4271,"119 Railway St,Cochrane,ONP0L 1C0Get directions",Timmins,Hardware Stores,Yellow Pages
Distanceswitch,Phone Number705-221-6513,"Cochrane,ON",Timmins,Hardware Stores,Yellow Pages
Norcon Renovations,Phone Number705-221-4726,,Timmins,Hardware Stores,Yellow Pages
Dollarama,,"1850 Riverside Dr,Timmins,ONP4R 1N7",Timmins,Dollar Stores,Yellow Pages
Dollarama,,"4858 Hwy 101 E,Porcupine,ONP0N 1K0",Timmins,Dollar Stores,Yellow Pages
Dollarama,,"425 Algonquin Blvd E,Timmins,ONP4N 1B5",Timmins,Dollar Stores,Yellow Pages
Dollarama,,"1500 Riverside Dr,Timmins,ONP4R 1A1",Timmins,Dollar Stores,Yellow Pages
Giant Tiger,,"180 6 Ave,Cochrane,ONP0L 1C0",Timmins,Dollar Stores,Yellow Pages
Giant Tiger,,"4858 ON-101 #114,Porcupine,ONP0N 1K0",Timmins,Dollar Stores,Yellow Pages
Giant Tiger,,"3-1869 Riverside Dr,Timmins,ONP4R 0A5",Timmins,Dollar Stores,Yellow Pages
The Bargain! Shop,,"414 Algonquin Blvd E,Timmins,ONP4N 1B6",Timmins,Dollar Stores,Yellow Pages
Buck or Two Plus!,,"168-1500 Riverside Dr,Timmins,ONP4R 1A1",Timmins,Dollar Stores,Yellow Pages
Cochrane Discount & Dollar Store,,"108 6 Ave,Cochrane,ONP0L 1C0",Timmins,Dollar Stores,Yellow Pages
Dollar Tree,,"1869 Riverside Drive,Timmins,ONP4R 1N3",Timmins,Dollar Stores,Yellow Pages
The Bargain! Shop,,"288 Cambridge Ave,Iroquois Falls,ONP0K 1E0",Timmins,Dollar Stores,Yellow Pages
Dollarama,,"15-51 Hwy 11 W Rr 1,Cochrane,ONP0L 1C0",Timmins,Dollar Stores,Yellow Pages
Vaillancourt E,Phone Number705-264-6660,"355 Algonquin Blvd E,Timmins,ONP4N 1B5Get directions",Timmins,General Stores,Yellow Pages
Bucket Shop The,Phone Number705-531-2658,"200 McBride St,Timmins,ONP4R 1N1Get directions",Timmins,General Stores,Yellow Pages
Shoppers Home Health Care,,"4-681 Algonquin Blvd E,Timmins,ONP4N 8S6",Timmins,Pharmacies,Yellow Pages
Walmart Supercentre,,"1870 Riverside Dr,Timmins,ONP4N 7C3",Timmins,Pharmacies,Yellow Pages
Loblaw Pharmacy,,"654 Algonquin Blvd E,Timmins,ONP4N 8R4",Timmins,Pharmacies,Yellow Pages
rexall,,"119 pine st s,timmins,ONp4n 2k3",Timmins,Pharmacies,Yellow Pages
Wallace Drug,Call,"109 6th Avenue,Cochrane,ONP0L 1C0",Timmins,Pharmacies,Yellow Pages
Dupuis G,,"30 Father Costello Dr,Timmins,ON",Timmins,Pharmacies,Yellow Pages
guardian - mcdonald's pharmacy,,"67 bruce ave,south porcupine,ONp0n 1h0",Timmins,Pharmacies,Yellow Pages
health care guardian pharmacy,,"27 cedar st s,timmins,ONp4n 2g5",Timmins,Pharmacies,Yellow Pages
Shoppers Drug Mart,,"227 Algonquin Blvd W,Timmins,ONP4N 2R8",Timmins,Pharmacies,Yellow Pages
Shoppers Drug Mart,,"5-681 Algonquin Blvd E,Timmins,ONP4N 8S6",Timmins,Pharmacies,Yellow Pages
Pharmasave Timmins,,"57-1500 Riverside Drive,Timmins,ONP4R 1A1",Timmins,Pharmacies,Yellow Pages
i.d.a. - rx drug mart iroquois falls,,"201 ambridge dr,iroquois falls,ONp0k 1g0",Timmins,Pharmacies,Yellow Pages
Family Care,,"190 Main St,Iroquois Falls,ON",Timmins,Pharmacies,Yellow Pages
Guardian Willis Pharmacy,,"414 Fifth Ave,Matheson,ONP0K 1N0",Timmins,Pharmacies,Yellow Pages
Cochrane Pharmacy,,"134 3rd Street,Cochrane,ONP0L 1C0",Timmins,Pharmacies,Yellow Pages
Cvs Pharmacy Medical Alert System,,"Timmins,ON",Timmins,Pharmacies,Yellow Pages
Keewatin Place,Call,"1007 Hwy 17 W,Keewatin,ONP0X 1C0",Kenora,Convenience Stores,Yellow Pages
Vet's Confectionery,,"6 Sixth Ave S,Kenora,ONP9N 2B5",Kenora,Convenience Stores,Yellow Pages
Ninth Street Confectionery,,"612 Ninth St N,Kenora,ONP9N 2S9",Kenora,Convenience Stores,Yellow Pages
Kenora Husky Travel Stop,,"470 Lakeview Dr,Kenora,ONP9N 0H2",Kenora,Convenience Stores,Yellow Pages
Luby's 24 Hour Food Store,Call,"612 Ninth St N,Kenora,ONP9N 2S9",Kenora,Convenience Stores,Yellow Pages
The Loaf N' Jug Food Mart,,"1132 Ninth St N,Kenora,ONP9N 2T5",Kenora,Convenience Stores,Yellow Pages
Top Valu Convience Store,,"1405 Valley Dr,Kenora,ONP9N 2V1",Kenora,Convenience Stores,Yellow Pages
Skyline Store,,"608 Airport Rd,Kenora,ONP9N 0A7",Kenora,Convenience Stores,Yellow Pages
Minaki Marina,Call,"Minaki GD,Minaki,ONP0X 1J0",Kenora,Convenience Stores,Yellow Pages
Redditt Mini Mart,,"Gd,Redditt,ONP0X 1M0",Kenora,Convenience Stores,Yellow Pages
Zig's Place,,"Hwy 621,Morson,ONP0W 1M0",Kenora,Convenience Stores,Yellow Pages
Oxdrift Country Store,,"18808 17 Hwy,Oxdrift,ONP0V 2J0",Kenora,Convenience Stores,Yellow Pages
7-Eleven,,"212 Government St & Myrtle,DRYDEN,ONP8N 2R1",Kenora,Convenience Stores,Yellow Pages
Co-op Gas Bar,,"264 Government St,Dryden,ONP8N 2R5",Kenora,Convenience Stores,Yellow Pages
Dryden Petro Pass,,"140 Colonization Ave N,Dryden,ONP8N 2Y8",Kenora,Convenience Stores,Yellow Pages
Grandpa Georges,,"Hollow Water First Nation GD,Manigotagan,MBR0E 1E0",Kenora,Convenience Stores,Yellow Pages
Beausejour Consumers Co-op Ltd,,"20 Co-Op Dr,Oakbank,MBR0E 1J0",Kenora,Convenience Stores,Yellow Pages
Beausejour Consumers Co-op Ltd,,"44 Burrows Rd,Pinawa,MBR0E 1L0",Kenora,Convenience Stores,Yellow Pages
Petro-Canada,,"500 Hwy 502,Lac Du Bonnet,MBR0E 1A0",Kenora,Convenience Stores,Yellow Pages
Canadian Tire,,"1229 Highway 17 E,Kenora,ONP9N 1L9",Kenora,Gas Stations,Yellow Pages
Canadian Tire,,"1229 Highway 17 East,Kenora,ONP9N 1L9",Kenora,Gas Stations,Yellow Pages
Wholesale Club Kenora,,"16 Tenth Ave S,Kenora,ONP9N 2J4",Kenora,Gas Stations,Yellow Pages
Red River Co-op,Call,"740 Lakeview Dr,Kenora,ONP9N 3P7",Kenora,Gas Stations,Yellow Pages
ultramar energy,,"1030 railway st,kenora,ONp9n 3x8",Kenora,Gas Stations,Yellow Pages
Top Valu,,"1405 Valley Dr,Kenora,ONP9N 2V1",Kenora,Gas Stations,Yellow Pages
C & C Service,Call,"1405 Valley Dr,Kenora,ONP9N 2V1",Kenora,Gas Stations,Yellow Pages
NAPA AUTOPRO - Rosie's Value Automotive,,"1399 Railway Street,Kenora,ONP9N 0B3",Kenora,Gas Stations,Yellow Pages
Westfair Foods Gas Bar,,"16 10th Av S,Kenora,ONP9N 2J5",Kenora,Gas Stations,Yellow Pages
Lake-Vu Motel Restaurant & Convenience Centre,,"740 Lakeview Dr,Kenora,ONP9N 3P7",Kenora,Gas Stations,Yellow Pages
Husky,,"1401 Hwy 17 E,Kenora,ONP9N 1M1",Kenora,Gas Stations,Yellow Pages
Shell,,"405 2nd St S,Kenora,ONP9N 1G7",Kenora,Gas Stations,Yellow Pages
Petro-Pass Truck Stop,,"1775 Veteran's Drive,Kenora,ONP9N 0B9",Kenora,Gas Stations,Yellow Pages
Chipman Gas Bar,,"8 Chipman St,Kenora,ONP9N 1V6",Kenora,Gas Stations,Yellow Pages
Petro-Canada EV Fast Charging Station,,"924 5th St S,Kenora,ONP9N 1L8",Kenora,Gas Stations,Yellow Pages
Petro-Canada,,"1020 Railway St,Kenora,ONP9N 0B2",Kenora,Gas Stations,Yellow Pages
Petro-Canada,,"924 Fifth St S,Kenora,ONP9N 1L8",Kenora,Gas Stations,Yellow Pages
Petro Canada Bulk PlantTardiff André Petro-Canada,,"1775 Veteran's Drive,Kenora,ONP9N 3X8",Kenora,Gas Stations,Yellow Pages
Safeway,,"400 First Ave S,Kenora,ONP9N 4W1",Kenora,Grocery Stores,Yellow Pages
Safeway,,"400 First Ave S,Kenora,ONP9N 1W4",Kenora,Grocery Stores,Yellow Pages
M&M Food Market,,"610 Lakeview Drive,Kenora,ONP9N 3V2",Kenora,Grocery Stores,Yellow Pages
Green Achers Of Wabigoon,,"10695 17 Hwy,Wabigoon,ONP9N 2Y4",Kenora,Grocery Stores,Yellow Pages
Tracy's NOFRILLS Kenora,,"538 Park St,Kenora,ONP9N 1A1",Kenora,Grocery Stores,Yellow Pages
Dalseg's Trading Pose,Call,"1624B 71Hwy,Nestor Falls,ONP0X 1K0",Kenora,Grocery Stores,Yellow Pages
IGA Garden Market,,"303 Government St,Dryden,ONP8N 1G4",Kenora,Grocery Stores,Yellow Pages
Safeway,,"75 Whyte Ave,Dryden,ONP8N 3E6",Kenora,Grocery Stores,Yellow Pages
M&M Food Market,,"439 Government Street,Dryden,ONP8N 2P4",Kenora,Grocery Stores,Yellow Pages
Belair Community Store,,"39001 Belair Rd,Bélair,MBR0E 0E0",Kenora,Grocery Stores,Yellow Pages
Great Falls Foods,,"98190 Pth 11,Great Falls,MBR0E 0V0",Kenora,Grocery Stores,Yellow Pages
Beaver Mills Market Ltd,Call,"420 Atwood,Rainy River,ONP0W 1L0",Kenora,Grocery Stores,Yellow Pages
Manohar Vegetarian Bakery,,"203 Park Av,Lac Du Bonnet,MBR0E 1A0",Kenora,Grocery Stores,Yellow Pages
Campbell's Foods,,"74 McArthur Av,Lac Du Bonnet,MBR0E 1A0",Kenora,Grocery Stores,Yellow Pages
Greensidens Meat Processing,,"19 Main,Devlin,ONP0W 1C0",Kenora,Grocery Stores,Yellow Pages
West End Cannabis VB,,"260 Howey,Red Lake,ONP0V 2M0",Kenora,Grocery Stores,Yellow Pages
North American Lumber,Phone Number807-547-22191-866-456-2477,"909 Ottawa St,Keewatin,ONP0X 1C0Get directions",Kenora,Hardware Stores,Yellow Pages
Countryside Kenora,Phone Number807-547-1906,"1987 Hwy 17 W,Keewatin,ONP0X 1C0Get directions",Kenora,Hardware Stores,Yellow Pages
McMunn & Yates,Phone Number807-547-3366,"1666 Hwy 17 W,Keewatin,ONP0X 1C0Get directions",Kenora,Hardware Stores,Yellow Pages
E & G Custom Sawing Ltd,Phone Number807-548-4491,"111 Jones Rd,Kenora,ONP9N 0B6Get directions",Kenora,Hardware Stores,Yellow Pages
Home Hardware Building Centre,Phone Number807-468-8975,"1105 Highway 17 E,Kenora,ONP9N 1L9Get directions",Kenora,Hardware Stores,Yellow Pages
E&G Custom Sawing Ltd,Phone Number807-467-0889,"111 Jones Rd,Kenora,ONP9N 0B6Get directions",Kenora,Hardware Stores,Yellow Pages
True Value,Phone Number807-226-9633,"5522 Highway 71 S,Sioux Narrows,ONP0X 1N0Get directions",Kenora,Hardware Stores,Yellow Pages
Mayer Hardware,Phone Number807-226-1111,"5522 Highway 71 S,Sioux Narrows,ONP0X 1N0Get directions",Kenora,Hardware Stores,Yellow Pages
Lumber One Building Supplies,Phone Number204-349-2294,"1 Willow Dr,Falcon Lake,MBR0E 0N0Get directions",Kenora,Hardware Stores,Yellow Pages
Falls Hardware Ltd,Phone Number807-484-2213,"30 Heronry Lake,Nestor Falls,ONP0X 1K0Get directions",Kenora,Hardware Stores,Yellow Pages
Rona Dryden,Phone Number807-223-6699,"329 Government street,Dryden,ONP8N 2P4Get directions",Kenora,Hardware Stores,Yellow Pages
Brien Mulyk -General Maintenance & Construction,Phone Number807-220-5383,"43 Ingall Dr,Dryden,ONP8N 3B9Get directions",Kenora,Hardware Stores,Yellow Pages
Home Building Centre,Phone Number807-223-6929,"509 Government St,Dryden,ONP8N 2P6Get directions",Kenora,Hardware Stores,Yellow Pages
B Taylor Home Hardware Building Centre,Phone Number807-223-3381,"509 Government St,Dryden,ONP8N 2P6Get directions",Kenora,Hardware Stores,Yellow Pages
Gillis Quarries Ltd,Phone Number204-268-2934,"203 Gillis St,Garson,MBR0E 0R0Get directions",Kenora,Hardware Stores,Yellow Pages
The Ironwood,Phone Number204-753-2105,"40 Vanier Ave,Pinawa,MBR0E 1L0Get directions",Kenora,Hardware Stores,Yellow Pages
S E G Enterprises Excavating And Gravel Ltd,Phone Number204-426-5446,"506 GD,Hadashville,MBR0E 0X0Get directions",Kenora,Hardware Stores,Yellow Pages
Pembina Consumers Co-operative,Phone Number204-444-5599,"15 Co-Op Dr,Oakbank,MBR0E 1J0Get directions",Kenora,Hardware Stores,Yellow Pages
Home Hardware Building Centre,Phone Number807-222-3155,"18-30 Spruce St,Ear Falls,ONP0V 1T0Get directions",Kenora,Hardware Stores,Yellow Pages
Rainy River Hardware,Phone Number807-852-4045,"220 4th Street,Rainy River,ONP0W 1L0Get directions",Kenora,Hardware Stores,Yellow Pages
Cold Spring Granite (Canada) Ltd,Phone Number204-345-8448,"50 Bruchanski Rd,Lac Du Bonnet,MBR0E 1A0Get directions",Kenora,Hardware Stores,Yellow Pages
Rona,Phone Number204-345-2261,"92 2nd Street,Lac Du Bonnet,MBR0E 1A0Get directions",Kenora,Hardware Stores,Yellow Pages
Stratton Equipment Sales,Phone Number807-483-7777,"127 Hwy 617 North,Stratton,ONP0W 1N0Get directions",Kenora,Hardware Stores,Yellow Pages
Falls Hardware Ltd,Phone Number807-484-2454,"1532 71 Hwy,Nestor Falls,ONP0X 1K0Get directions",Kenora,Hardware Stores,Yellow Pages
Home Hardware Store,Phone Number807-727-2247,"238 Howey,Red Lake,ONP0V 2M0Get directions",Kenora,Hardware Stores,Yellow Pages
Home Hardware,Phone Number807-727-2247,"14 Hwy 105,Red Lake,ONP0V 2M0Get directions",Kenora,Hardware Stores,Yellow Pages
Northwest Tim-Br,Phone Number807-727-3715,"18 Young St,Red Lake,ONP0V 2M0Get directions",Kenora,Hardware Stores,Yellow Pages
Lafarge Canada Inc.,Phone Number807-727-2621,"99 Forestry Rd,Red Lake,ONP0V 2M0Get directions",Kenora,Hardware Stores,Yellow Pages
Tompkins Home Hardware Building Centre - Home Hardware,Phone Number807-482-2754,"82 Front St,Emo,ONP0W 1E0Get directions",Kenora,Hardware Stores,Yellow Pages
Kaun's Building Centre,Phone Number807-274-6246,"Crozier RR 1,Fort Frances,ONP9A 3M2Get directions",Kenora,Hardware Stores,Yellow Pages
Sms Equipment Inc,Phone Number807-274-99851-866-458-0101,"16 Hwy11-71,Fort Frances,ONP9A 3M2Get directions",Kenora,Hardware Stores,Yellow Pages
Lucko Sales & Service Ltd,Phone Number204-268-2050,"901 Park av,Beausejour,MBGet directions",Kenora,Hardware Stores,Yellow Pages
D & A Construction,Phone Number807-274-2379,"336 Hwy 11-71,Fort Frances,ONP9A 3M2Get directions",Kenora,Hardware Stores,Yellow Pages
guardian - beausejour pharmacy,Phone Number204-268-2500,"635 park ave,beausejour,MBr0e 0c0Get directions",Kenora,Hardware Stores,Yellow Pages
Home Hardware,Phone Number204-367-2380,"3 Linden St,Pine Falls,MBR0E 1M0Get directions",Kenora,Hardware Stores,Yellow Pages
Dollarama,,"534 Park St,Kenora,ONP9N 1A1",Kenora,Dollar Stores,Yellow Pages
The Bargain! Shop,,"119-123 Main St S,Kenora,ONP9N 1S9",Kenora,Dollar Stores,Yellow Pages
Kenora Dollar Store,,"534 Park St,Kenora,ONP9N 1A1",Kenora,Dollar Stores,Yellow Pages
Kenora's Downtown Dollar Store,,"224 Second St S,Kenora,ONP9N 1G2",Kenora,Dollar Stores,Yellow Pages
Deals For Dollars,,"A-18 Pine St,Pine Falls,MBR0E 1M0",Kenora,Dollar Stores,Yellow Pages
The Bargain! Shop,,"62 2nd Street,Lac Du Bonnet,MBR0E 1A0",Kenora,Dollar Stores,Yellow Pages
Dollar Tree,,"442 Park Avenue,Beausejour,MBR0E 0C0",Kenora,Dollar Stores,Yellow Pages
Dollarama,,"178 PTH 12 North,Steinbach,MBR5G 1T7",Kenora,Dollar Stores,Yellow Pages
Liquidation World,,"3-178 Pth 12 N,Steinbach,MBR5G 1T7",Kenora,Dollar Stores,Yellow Pages
The Bargain! Shop,,"20 Brant Rd,Steinbach,MBR5G 1Y2",Kenora,Dollar Stores,Yellow Pages
Giant Tiger,,"12 Fifth Ave,Sioux Lookout,ONP8T 1E1",Kenora,Dollar Stores,Yellow Pages
Dollarama,,"1030 Manitoba Ave,Selkirk,MBR1A 4M2",Kenora,Dollar Stores,Yellow Pages
ESSO - Reddens Camp,,"Highway 17 East RR 2 Stn Main,Kenora,ONP9N 3W8",Kenora,General Stores,Yellow Pages
Gill's Trading Post,,"5701C Highway 71,Sioux Narrows,ONP0X 1N0",Kenora,General Stores,Yellow Pages
Big Island Retail Store,,"8860 621 Hwy,ONP0W 1J0",Kenora,General Stores,Yellow Pages
Northern Store,,"40 Burrows Rd,Pinawa,MBR0E 1L0",Kenora,General Stores,Yellow Pages
Red Apple,,"21 Hwy 105,Red Lake,ONP0V 2M0",Kenora,General Stores,Yellow Pages
Carmody Glenn,,"352 Pit Road 1,Fort Frances,ONP9A 3R5",Kenora,General Stores,Yellow Pages
Walmart,,"1-24 Mikana Way,Kenora,ONP9N 4J1",Kenora,Pharmacies,Yellow Pages
Loblaw Pharmacy,,"538 Park St,Kenora,ONP9N 1A1",Kenora,Pharmacies,Yellow Pages
Tilley's Pharmasave,,"201 Main St S,Kenora,ONP9N 1T3",Kenora,Pharmacies,Yellow Pages
Guardian - Keewatin Pharmacy,,"912 Ottawa St,Keewatin,ONP0X 1C0",Kenora,Pharmacies,Yellow Pages
I.D.A. - Johnson's Pharmacy,,"116 Main St S,Kenora,ONP9N 1S9",Kenora,Pharmacies,Yellow Pages
Kenora Medical Centre Pharmacy,,"45 Wolsley St,Kenora,ONP9N 3W7",Kenora,Pharmacies,Yellow Pages
Shoppers Drug Mart,,"305 Main St S,Kenora,ONP9N 1T4",Kenora,Pharmacies,Yellow Pages
the medicine shoppe pharmacy,,"700 lakeview dr,kenora,ONp9n 3p7",Kenora,Pharmacies,Yellow Pages
I.D.A. - Rainy River Drugs,,"212 4 Street,Rainy River,ONP0W 1L0",Kenora,Pharmacies,Yellow Pages
Shoppers Drug Mart,,"25 Duke St,Dryden,ONP8N 1E6",Kenora,Pharmacies,Yellow Pages
Pharmasave,,"38 King St,Dryden,ONP8N 1B3",Kenora,Pharmacies,Yellow Pages
Pharmasave,,"1-35 Whyte Ave,Dryden,ONP8N 1Z2",Kenora,Pharmacies,Yellow Pages
Dryden Pharmasave,,"35 Whyte Ave,Dryden,ONP8N 1Z2",Kenora,Pharmacies,Yellow Pages
northern i.d.a. pharmacy,,"72 van horne ave,unit c,dryden,ONp8n 2b1",Kenora,Pharmacies,Yellow Pages
wellwise by shoppers,,"439 government street,unit 7,dryden,ONp8n 2p4",Kenora,Pharmacies,Yellow Pages
10197146 Manitoba Ltd O/A WHITEMOUTH PHARMACY,,"A 159 Railway Av,Whitemouth,MBR0E 2G0",Kenora,Pharmacies,Yellow Pages
Hillside Shop & Save,,"Hillside S,Elliot Lake,ONP5A 1N7",Elliot Lake,Convenience Stores,Yellow Pages
Jai Laxmiji Ontario Inc,,"50 Esten Dr S,Elliot Lake,ONP5A 3M9",Elliot Lake,Convenience Stores,Yellow Pages
On the Run,,"225 Hwy 108 N,Elliot Lake,ONP5A 2T1",Elliot Lake,Convenience Stores,Yellow Pages
On the Run,,"498 Causley St,Blind River,ONP0R 1B0",Elliot Lake,Convenience Stores,Yellow Pages
Wapekeka Community Store Inc,,"Big Trout Lake,Big Trout Lake,ONP0P 1B0",Elliot Lake,Convenience Stores,Yellow Pages
Scone & Wong Convenience Plus,,"44 Village Rd S,Cutler,ONP0P 1B0",Elliot Lake,Convenience Stores,Yellow Pages
Highway Variety Plus,,"6 Algoma,Spanish,ONP0P 2A0",Elliot Lake,Convenience Stores,Yellow Pages
Seventeen Convenience Store,,"4 Woodward,Blind River,ON",Elliot Lake,Convenience Stores,Yellow Pages
Ty's Smoke House & Supplies,,"3 Village Rd,Blind River,ONP0R 1B0",Elliot Lake,Convenience Stores,Yellow Pages
Kwik-Way,,"Causley,Blind River,ONP0R 1B0",Elliot Lake,Convenience Stores,Yellow Pages
Northern Variety,,"5 Riverside Dr,ONP0R 1B0",Elliot Lake,Convenience Stores,Yellow Pages
Northern Variety & Take-Out,,"5 Riverside Dr,Blind River,ONP0R 1B0",Elliot Lake,Convenience Stores,Yellow Pages
Village General Store & Hotel,,"22274 Hwy 17,ONP0R 1H0",Elliot Lake,Convenience Stores,Yellow Pages
Poirier's Confectionery & Pizza,,"355 Imperial S,Massey,ONP0P 1P0",Elliot Lake,Convenience Stores,Yellow Pages
Ironbridge Shell And Food Store,,"Hwy17,Iron Bridge,ONP0R 1H0",Elliot Lake,Convenience Stores,Yellow Pages
Canadian Tire,Phone Number705-848-3663,"50 Hillside Dr S,Elliot Lake,ONP5A 1M7Get directions",Elliot Lake,Gas Stations,Yellow Pages
Esso,Phone Number705-848-4932,"225 Highway 108,Elliot Lake,ONP5A 2T1Get directions",Elliot Lake,Gas Stations,Yellow Pages
Esso,Phone Number705-356-2718,"498 Causley St,Blind River,ONP0R 1B0Get directions",Elliot Lake,Gas Stations,Yellow Pages
Serpent River Trading Post,Phone Number705-844-2864,"479 Hwy 17 N,Cutler,ONP0P 1B0Get directions",Elliot Lake,Gas Stations,Yellow Pages
Esso,Phone Number705-844-2332,"151 Front St,Spanish,ONP0P 2A0Get directions",Elliot Lake,Gas Stations,Yellow Pages
Highway Variety Plus,Phone Number705-844-2577,"6 Algoma,Spanish,ONP0P 2A0Get directions",Elliot Lake,Gas Stations,Yellow Pages
Broken Canoe Trading Post,Phone Number705-356-1927,"7 West,Blind River,ONP0R 1B0Get directions",Elliot Lake,Gas Stations,Yellow Pages
Esso,Phone Number705-843-1100,"1100 Hwy 17 W,Iron Bridge,ONP0R 1H0Get directions",Elliot Lake,Gas Stations,Yellow Pages
Shell,Phone Number705-865-2858,"465 Sauble Street East,Massey,ONP0P 1P0Get directions",Elliot Lake,Gas Stations,Yellow Pages
Ironbridge Shell And Food Store,Phone Number705-843-0003,"Hwy17,Iron Bridge,ONP0R 1H0Get directions",Elliot Lake,Gas Stations,Yellow Pages
Canadian Tire,Phone Number705-848-3663,"50 Hillside Drive South,Elliot Lake,ONP5A 1M7",Elliot Lake,Gas Stations,Yellow Pages
Petro-Canada,Phone Number705-848-7114,,Elliot Lake,Gas Stations,Yellow Pages
Foodland,,"40 Hillside Dr S,Elliot Lake,ONP5A 1M7",Elliot Lake,Grocery Stores,Yellow Pages
Lyle's No Frills,,"177 Hwy 108 N,Elliot Lake,ONP5A 2S9",Elliot Lake,Grocery Stores,Yellow Pages
Hutton's Valu-Mart,,"105 Causley St,Blind River,ONP0R 1B0",Elliot Lake,Grocery Stores,Yellow Pages
MacDonald's Groceries,,"Hwy 17,Iron Bridge,ONP0R 1H0",Elliot Lake,Grocery Stores,Yellow Pages
Red Top Motor Inn,,"22133 Hwy 17,Iron Bridge,ONP0R 1H0",Elliot Lake,Grocery Stores,Yellow Pages
Martins Country Market,Call,"1750 Hwy 17,Massey,ONP0P 1P0",Elliot Lake,Grocery Stores,Yellow Pages
Martins Country Market,,"1750 Trans-Canada Highway,Sables-Spanish Rivers,ONP0P 1P0",Elliot Lake,Grocery Stores,Yellow Pages
Dean's Valu-mart Gore Bay,,"40 Meredith St,Gore Bay,ONP0P 1H0",Elliot Lake,Grocery Stores,Yellow Pages
FreshCo,,"800 Centre St,Espanola,ONP5E 1J3",Elliot Lake,Grocery Stores,Yellow Pages
Tanner's Your Independent Grocer,,"745 Centre St,Espanola,ONP5E 1S8",Elliot Lake,Grocery Stores,Yellow Pages
Maple Ridge Store,,"Thessalon,ONP0R 1L0",Elliot Lake,Grocery Stores,Yellow Pages
Jones' Valu-mart Thessalon,,"215 Main St, Box 264,Thessalon,ONP0R 1L0",Elliot Lake,Grocery Stores,Yellow Pages
Garson Foodland,,"Meredith E,Little Current,ONP0P 1K0",Elliot Lake,Grocery Stores,Yellow Pages
RONA Algoma Builders Supply / Elliot Lake,,"125 Ontario 108,Elliot Lake,ONP5A 2T1",Elliot Lake,Hardware Stores,Yellow Pages
Canadian Tire,,"50 Hillside Dr S,Elliot Lake,ONP5A 1M7",Elliot Lake,Hardware Stores,Yellow Pages
Pro Desk at RONA,,"31 Timber Road,Elliot Lake,ONP5A 2T1",Elliot Lake,Hardware Stores,Yellow Pages
Soo Mill & Lumber Limited,,"4 Kilborn Way Ss 2,Elliot Lake,ONP5A 2T1",Elliot Lake,Hardware Stores,Yellow Pages
Lafarge Canada Inc.,,"3136A Highway 17,Spragge,ONP0R 1A0",Elliot Lake,Hardware Stores,Yellow Pages
Home Hardware Building Centre,Call,"325 Leacock St,Blind River,ONP0R 1B0",Elliot Lake,Hardware Stores,Yellow Pages
Blind River Home Hardware Building Centre,,"325 Leacock Street,Blind River,ONP0R 1B0",Elliot Lake,Hardware Stores,Yellow Pages
Home Hardware Building Centre,Call,"325 Leacock St Blind River,Blind River,ONP0R 1B0",Elliot Lake,Hardware Stores,Yellow Pages
Home Hardware,,"275 Imperial St,Massey,ONP0P 1P0",Elliot Lake,Hardware Stores,Yellow Pages
Lafarge Canada,,"10 Mississaugi Lighthouse,ONP0P 1Y0",Elliot Lake,Hardware Stores,Yellow Pages
Dollarama,,"40 Hillside Dr S,Elliot Lake,ONP5A 1M7",Elliot Lake,Dollar Stores,Yellow Pages
Dollarama,,"151 Ontario Ave,Elliot Lake,ONP5A 2T2",Elliot Lake,Dollar Stores,Yellow Pages
The Bargain! Shop,,"105 Causley St,Blind River,ONP0R 1B0",Elliot Lake,Dollar Stores,Yellow Pages
Co-Bo's Party & Craft,,"14 Woodward Av,Blind River,ONP0R 1B0",Elliot Lake,Dollar Stores,Yellow Pages
The Algoma Store,,,Elliot Lake,Dollar Stores,Yellow Pages
The Buck Stops Here,,"26 Prince Edward Walk,Elliot Lake,ONP5A 1Z7",Elliot Lake,Dollar Stores,Yellow Pages
MAGNOLIA DIVINE CREATIONS,,"182 Ontario Ave,Elliot Lake,ONP5A 1Y4",Elliot Lake,General Stores,Yellow Pages
Pharmasave,,"36 Prince Edward Walk,ONP5A 1Z7",Elliot Lake,Pharmacies,Yellow Pages
DRUGStore Pharmacy,,"177 Hwy 108 N,Elliot Lake,ONP5A 2S9",Elliot Lake,Pharmacies,Yellow Pages
rexall,,"31 nova scotia walk,elliot lake,ONp5a 1y9",Elliot Lake,Pharmacies,Yellow Pages
Elliot Lake Health Centre,,"267 Hillside Dr S,Elliot Lake,ONP5A 1N7",Elliot Lake,Pharmacies,Yellow Pages
Shoppers Drug Mart,,"220 Ontario St,Elliot Lake,ONP5A 1Y5",Elliot Lake,Pharmacies,Yellow Pages
Angus Pharmacy,,"14 Brunswick Walk,Elliot Lake,ONP5A 2A8",Elliot Lake,Pharmacies,Yellow Pages
I D A Drug Stores,Call,"27 Woodward Ave,Blind River,ONP0R 1B0",Elliot Lake,Pharmacies,Yellow Pages
Mitchell Pharmacy,Call,"27 Woodward Ave,Blind River,ONP0R 1B0",Elliot Lake,Pharmacies,Yellow Pages
Janeway PharmaChoice,,"180 Sable St E,Massey,ONP0P 1P0",Elliot Lake,Pharmacies,Yellow Pages
The Edgewater,,"3 Water St Rr 1,Gore Bay,ONP0P 1H0",Elliot Lake,Pharmacies,Yellow Pages
guardian - central pharmacy,Call,"45 meredith st,gore bay,ONp0p 1h0",Elliot Lake,Pharmacies,Yellow Pages
guardian - little current pharmacy,,"41 meredith st e,little current,ONp0p 1k0",Elliot Lake,Pharmacies,Yellow Pages
i.d.a. - robertson's drug store,,"39 meredith st,gore bay,ONp0p 1h0",Elliot Lake,Pharmacies,Yellow Pages
A F Bennett Pharmachoice Ltd,,,Elliot Lake,Pharmacies,Yellow Pages
Al's Best Buy,,"66 Brunetville Rd,Kapuskasing,ONP5N 2G3",Kapuskasing,Convenience Stores,Yellow Pages
Sam's Mini Mart & Convenience Plus,Call,"59 Labelle St,Hearst,ONP5N 1L6",Kapuskasing,Convenience Stores,Yellow Pages
Shell,,"1 Riverside Drive,Kapuskasing,ONP5N 1A1",Kapuskasing,Convenience Stores,Yellow Pages
Circle K (Mac's Convenience Stores),,"32 Government Rd E,Etobicoke,ONP5N 2W5",Kapuskasing,Convenience Stores,Yellow Pages
Chez Real Confectionery,,"175 Main St,Smooth Rock Falls,ONP0L 2B0",Kapuskasing,Convenience Stores,Yellow Pages
Taffy's Convenience Inc,,"148 Governmen Rd,ON",Kapuskasing,Convenience Stores,Yellow Pages
Flying J,,"410 Government Rd E Rr 1,Kapuskasing,ONP5N 2X7",Kapuskasing,Gas Stations,Yellow Pages
Esso,,"48 GOVERNMENT RD,KAPUSKASING,ONP5N 2W6",Kapuskasing,Gas Stations,Yellow Pages
Sunys,,"25 Brunetville Rd,Kapuskasing,ONP5N 2E9",Kapuskasing,Gas Stations,Yellow Pages
Damco Fuels & Supplies,,"211 Hwy 11 W,Moonbeam,ON",Kapuskasing,Gas Stations,Yellow Pages
2779571 Ontario Inc,,"1-220 Hwy 11,Smooth Rock Falls,ON",Kapuskasing,Gas Stations,Yellow Pages
Mike's Variety & ESSO,,"220 Hwy 11 N,Smooth Rock Falls,ONP0L 2B0",Kapuskasing,Gas Stations,Yellow Pages
Canadian Tire Associate Store,,,Kapuskasing,Gas Stations,Yellow Pages
Sobeys,,"25 Brunetville Rd,Kapuskasing,ONP5N 2E9",Kapuskasing,Grocery Stores,Yellow Pages
M&M Food Market,,"110 Government Road,Kapuskasing,ONP5N 2W8",Kapuskasing,Grocery Stores,Yellow Pages
Mack's Your Independent Grocer Kapuskasing,Call,"55 Brunetville Rd,Kapuskasing,ONP5N 2E8",Kapuskasing,Grocery Stores,Yellow Pages
Blanchette Freshmart,,"164 Main St,Smooth Rock Falls,ONP0L 2B0",Kapuskasing,Grocery Stores,Yellow Pages
Hearst Coop,Call,"1105 George Street,Hearst,ONP0L 1N0",Kapuskasing,Hardware Stores,Yellow Pages
RONA Kapuskasing,,"18 Brunelle Sud,Kapuskasing,ONP5N 2T2",Kapuskasing,Hardware Stores,Yellow Pages
Knowles Building Centre,Call,"1 Queen St,Kapuskasing,ONP5N 1G4",Kapuskasing,Hardware Stores,Yellow Pages
Yvon's Home Hardware Building Centre,,"40 Brunetville Rd,Kapuskasing,ONP5N 2E7",Kapuskasing,Hardware Stores,Yellow Pages
Castle Building Centre,,"1 Queen St,Kapuskasing,ONP5N 1G4",Kapuskasing,Hardware Stores,Yellow Pages
Spacek's Home Furniture,Call,"8 Circle,Kapuskasing,ONP5N 1T3",Kapuskasing,Hardware Stores,Yellow Pages
Yvon's Home Hardware Building Centre,,"19 Albert St,Moonbeam,ONP0L 1V0",Kapuskasing,Hardware Stores,Yellow Pages
Blanchette Hardware,,"Smooth Rock Falls,ON",Kapuskasing,Hardware Stores,Yellow Pages
Dollarama,,"25 Cain Ave,Kapuskasing,ONP5N 1T2",Kapuskasing,Dollar Stores,Yellow Pages
Dollar Tree,,"354 Government Road,Kapuskasing,ONP5N 2X7",Kapuskasing,Dollar Stores,Yellow Pages
LEBEL,,"150 Brunetville Rd,Kapuskasing,ONP5N 2H3",Kapuskasing,General Stores,Yellow Pages
Sherwood General Store,,"140 Government Rd,Opasatika,ONP0L 1Z0",Kapuskasing,General Stores,Yellow Pages
Walmart,Phone Number705-335-3636,"350 Government Rd E,Kapuskasing,ONP5N 2X7Get directions",Kapuskasing,Pharmacies,Yellow Pages
Loblaw Pharmacy,Phone Number705-337-4920,"55 Brunetville Rd,Kapuskasing,ONP5N 2E8Get directions",Kapuskasing,Pharmacies,Yellow Pages
Rexall,Phone Number705-337-1777,"142 Progress Cres, Unit B,Kapuskasing,ONP5N 3H7Get directions",Kapuskasing,Pharmacies,Yellow Pages
Shoppers Drug Mart,Phone Number705-335-22491-800-746-7737,"25 Brunetville Rd,Kapuskasing,ONP5N 2E9Get directions",Kapuskasing,Pharmacies,Yellow Pages
Smooth Rock Falls Pharmacy Ltd,Phone Number705-338-4470,"133 5th St,Smooth Rock Falls,ONP0L 2B0Get directions",Kapuskasing,Pharmacies,Yellow Pages
Shell,,"111 Government Rd W,Kirkland Lake,ONP2N 2E8",Kirkland Lake,Convenience Stores,Yellow Pages
Larder Lake Co-Op,,"25 Godfrey St,Larder Lake,ON",Kirkland Lake,Convenience Stores,Yellow Pages
M g And Sons General Store,,"76 Howie St,Charlton,ONP0J 1B0",Kirkland Lake,Convenience Stores,Yellow Pages
circle k,,"16 government rd e,kirkland lake,ONp2n 1a2",Kirkland Lake,Convenience Stores,Yellow Pages
Esso,,"16 Government Rd E,Kirkland Lake,ONP2N 1A2",Kirkland Lake,Gas Stations,Yellow Pages
Perlita's Gas Bar,,"Tarzwell,Swastika,ON",Kirkland Lake,Gas Stations,Yellow Pages
Canadian Tire - Gas+,,"165 Govt Rd W,Kirkland Lake,ONP2N 2E8",Kirkland Lake,Gas Stations,Yellow Pages
Altramar,,"38 First St,Englehart,ON",Kirkland Lake,Gas Stations,Yellow Pages
Esso,,"141 FOURTH AVE,ENGLEHART,ONP0J 1H0",Kirkland Lake,Gas Stations,Yellow Pages
Shell,,"135 4 Ave,Englehart,ONP0J 1H0",Kirkland Lake,Gas Stations,Yellow Pages
Dog Star Service,,"Moyneur,Matachewan,ONP0K 1M0",Kirkland Lake,Gas Stations,Yellow Pages
M D K Gas Bar,,"14498 Alma Ir,Matachewan,ON",Kirkland Lake,Gas Stations,Yellow Pages
Foodland,,"47 Government Rd E,Kirkland Lake,ONP2N 1A4",Kirkland Lake,Grocery Stores,Yellow Pages
Pronto store,,"5-1 Taylor Ave,Kirkland Lake,ONP2N 2K9",Kirkland Lake,Grocery Stores,Yellow Pages
Foodland Kirkland Lake,,"47 Government Rd E,Kirkland Lake,ONP2N 1A4",Kirkland Lake,Grocery Stores,Yellow Pages
Pettenuzzo's Your Independent Grocer,,"15 McChesney Ave,Kirkland Lake,ONP2N 3R9",Kirkland Lake,Grocery Stores,Yellow Pages
Bouchard Grocery,,"361 McIntyre Ave,Ramore,ON",Kirkland Lake,Grocery Stores,Yellow Pages
Austin's Valu-Mart,,"66 Fourth Ave,Englehart,ONP0J 1H0",Kirkland Lake,Grocery Stores,Yellow Pages
Bowman's Berry Patch,,"211259 Garden Rd,Thornloe,ONP0J 1S0",Kirkland Lake,Grocery Stores,Yellow Pages
Canadian Tire,PhonePhone Number705-567-9281,"146 Government Road West,Kirkland Lake,ONP2N 2E9Get directions",Kirkland Lake,Hardware Stores,Yellow Pages
Breault Castle Building Centre,PhonePhone Number705-567-5359,"50 Goodfish Rd,Kirkland Lake,ONP2N 3N4Get directions",Kirkland Lake,Hardware Stores,Yellow Pages
Breault Castle's Building Centre TrueValueHardware,PhonePhone Number705-567-5359,"50 Goodfish Rd,Kirkland Lake,ONP2N 3N4Get directions",Kirkland Lake,Hardware Stores,Yellow Pages
Grant Home Hardware Building Centre,PhonePhone Number705-567-4630,"15 Kirkland St E,Kirkland Lake,ONP2N 1N9Get directions",Kirkland Lake,Hardware Stores,Yellow Pages
Williams & Scott Ace Hardware,PhonePhone Number705-544-2002,"47 Fourth Ave,Englehart,ONP0J 1H0Get directions",Kirkland Lake,Hardware Stores,Yellow Pages
J C D Home Hardware,PhonePhone Number705-679-3111,"Hwy 11,Cobalt,ONP0J 1H0Get directions",Kirkland Lake,Hardware Stores,Yellow Pages
Bauman Brad,PhonePhone Number705-647-4522,"981441 Belle Vallee Rd,New Liskeard,ONP0J 1P0Get directions",Kirkland Lake,Hardware Stores,Yellow Pages
Unique Home Centre,PhonePhone Number705-647-5348,"883336 Ontario 65,New Liskeard,ONP0J 1P0Get directions",Kirkland Lake,Hardware Stores,Yellow Pages
Grant Home Hardware Building Centre,PhonePhone Number705-647-9311,"88331 Hwy 65 W,New Liskeard,ONP0J 1P0Get directions",Kirkland Lake,Hardware Stores,Yellow Pages
Dollarama,,"150 Government Rd W,Kirkland Lake,ONP2N 2E9",Kirkland Lake,Dollar Stores,Yellow Pages
Giant Tiger,,"150 Government Rd E,Kirkland Lake,ONP2N 2E9",Kirkland Lake,Dollar Stores,Yellow Pages
MacPherson's General Store,,"5411 Hwy 11,Swastika,ONP0K 1T0",Kirkland Lake,General Stores,Yellow Pages
Dobson's General Store,,"47 4th Ave,Englehart,ON",Kirkland Lake,General Stores,Yellow Pages
Pharmasave,,"15 Station Rd N,Kirkland Lake,ONP2N 3J1",Kirkland Lake,Pharmacies,Yellow Pages
Loblaw Pharmacy,,"15 McChesney Ave,Kirkland Lake,ONP2N 3R9",Kirkland Lake,Pharmacies,Yellow Pages
Kirkland Pharmacy,,"38 Government Rd W,Kirkland Lake,ONP2N 2E2",Kirkland Lake,Pharmacies,Yellow Pages
Pharmasave,,"15 Station Rd S,Kirkland Lake,ONP2N 3H2",Kirkland Lake,Pharmacies,Yellow Pages
Larder Lake Pharmacy,,"15-B Godfrey St,Larder Lake,ONP0K 1L0",Kirkland Lake,Pharmacies,Yellow Pages
Pharmasave,,"43 3rd St,Englehart,ONP0J 1H0",Kirkland Lake,Pharmacies,Yellow Pages
MJ Coffee & More,,"374880 11B HY,COLEMAN TWP,ONP0J 1K0",Temiskaming Shores,Convenience Stores,Yellow Pages
circle k,,"14 paget st,new liskeard,ONp0j 1p0",Temiskaming Shores,Convenience Stores,Yellow Pages
SONERCO - Garage Rachel Roy 2001 Inc.,,"37, rue Ontario,Notre-Dame-du-Nord,QCJ0Z 3B0",Temiskaming Shores,Convenience Stores,Yellow Pages
Al's & Mym's Smoke Shop,,"53 Rue Polson Gd,Notre-Dame-Du-Nord,QCJ0Z 3B0",Temiskaming Shores,Convenience Stores,Yellow Pages
Larochelle Station de Service Inc,Call,"1506, Rte 101,Fabre,QCJ0Z 1Z0",Temiskaming Shores,Convenience Stores,Yellow Pages
Kenabeek General Store,,"10-5 Con Henwood Twp,Kenabeek,ONP0J 1M0",Temiskaming Shores,Convenience Stores,Yellow Pages
Mr Gas,,"58 Armstrong St,New Liskeard,ON",Temiskaming Shores,Gas Stations,Yellow Pages
BNS Corner Gas Inc,,"102 King St,North Cobalt,ON",Temiskaming Shores,Gas Stations,Yellow Pages
New Liskeard Esso,,"883340 65 Hy,Dymond,ONP0J 1P0",Temiskaming Shores,Gas Stations,Yellow Pages
Festival Des Folies Franco-Fun,,"59 Whitewood Ave W,New Liskeard,ONP0J 1P0",Temiskaming Shores,Gas Stations,Yellow Pages
HUSKY/ESSO,,"997491 Hwy 11 N,New Liskeard,ONP0J 1P0",Temiskaming Shores,Gas Stations,Yellow Pages
Texaco Canada Inc,,"4 Con Coleman Twp,Cobalt,ONP0J 1C0",Temiskaming Shores,Gas Stations,Yellow Pages
Corrie's Corner,,"999958 Hwy 11,Harley,ON",Temiskaming Shores,Gas Stations,Yellow Pages
The Dam Depot,,"30 Main,Latchford,ONP0J 1N0",Temiskaming Shores,Gas Stations,Yellow Pages
Ontario Northland,,"32 Main St,Latchford,ONP0J 1N0",Temiskaming Shores,Gas Stations,Yellow Pages
Earlton Country Store,,"69 Tenth Avenue South,Earlton,ONP0J 1E0",Temiskaming Shores,Gas Stations,Yellow Pages
Shell,,"6 Rue des Oblats Nord,Ville-Marie,QCJ9V 1J3",Temiskaming Shores,Gas Stations,Yellow Pages
Esso,,"67, rue Sainte-Anne,Ville-Marie,QCJ9V 2B6",Temiskaming Shores,Gas Stations,Yellow Pages
Petro-Canada,,"16, rue des Oblats N,Ville-Marie,QCJ9V 1J3",Temiskaming Shores,Gas Stations,Yellow Pages
Ultramar,,"36 1st Englehart,Englehart,ONP0J 1H0",Temiskaming Shores,Gas Stations,Yellow Pages
Food Basics,,"Hwy 11-B,New Liskeard,ONP0J 1P0",Temiskaming Shores,Grocery Stores,Yellow Pages
Davys Independant Grocer,,"55 Scott St,Nlskd,ONP0J 1P0",Temiskaming Shores,Grocery Stores,Yellow Pages
Chartrand's Your Independent Grocer,,"55 Scott St,Temiskaming Shores,ONP0J 1P0",Temiskaming Shores,Grocery Stores,Yellow Pages
Marché Bonichoix,,"20 rue Ontario,Notre-Dame-du-Nord,QCJ0Z 3B0",Temiskaming Shores,Grocery Stores,Yellow Pages
"Provigo Nolet, Ville-Marie",,"100 rue des Oblats N,Ville-Marie,QCJ9V 1J7",Temiskaming Shores,Grocery Stores,Yellow Pages
La Faluche de Notre-Dame,,"38 rue Notre-Dame-de-Lourdes,Ville-Marie,QCJ9V 1X9",Temiskaming Shores,Grocery Stores,Yellow Pages
Marché Bonichoix,,"12 rue Principale,Laverlochère,QCJ0Z 2P0",Temiskaming Shores,Grocery Stores,Yellow Pages
La Biotique,,"35 rue Notre-Dame O,Lorrainville,QCJ0Z 2R0",Temiskaming Shores,Grocery Stores,Yellow Pages
IGA,,"14 rue Notre-Dame E,Lorrainville,QCJ0Z 2R0",Temiskaming Shores,Grocery Stores,Yellow Pages
Bowman's Berry Patch,,,Temiskaming Shores,Grocery Stores,Yellow Pages
Earlton Grocery King,,"10th St,ONP0J 1E0",Temiskaming Shores,Grocery Stores,Yellow Pages
Rona,Phone Number705-647-6784,"245 Whitewood Ave W,New Liskeard,ONP0J 1P0Get directions",Temiskaming Shores,Hardware Stores,Yellow Pages
TSC Stores,Phone Number705-647-8311,"150 Wilson Ave,New Liskeard,ONP0J 1P0Get directions",Temiskaming Shores,Hardware Stores,Yellow Pages
Breault's Discount Warehouse,Phone Number705-647-4412,"74 Scott St,Nlskd,ONP0J 1P0Get directions",Temiskaming Shores,Hardware Stores,Yellow Pages
Demora Construction Services Inc,Phone Number705-647-3800,"270 Broadwood Ave,New Liskeard,ONP0J 1P0Get directions",Temiskaming Shores,Hardware Stores,Yellow Pages
BMR Yvon Champoux,Phone Number819-723-2253,"40 Rue Ontario,Notre-Dame-Du-Nord,QCJ0Z 3B0Get directions",Temiskaming Shores,Hardware Stores,Yellow Pages
Yvon Champoux Inc,Phone Number819-723-2278,"40 Ontario,Notre-Dame-du-Nord,QCJ0Z 3B0Get directions",Temiskaming Shores,Hardware Stores,Yellow Pages
Construction David Paquin,Phone Number819-629-5630,"889 Rte 101 N,Saint-Bruno-De-Guigues,QCJ0Z 2G0Get directions",Temiskaming Shores,Hardware Stores,Yellow Pages
Boss Man Limited,Phone Number705-622-3077,"8585 Industrial Park Rd Rr 2,Thornloe,ONP0J 1S0Get directions",Temiskaming Shores,Hardware Stores,Yellow Pages
Earlton Country Store,Phone Number705-563-2671,"69 Tenth Avenue South,Earlton,ONP0J 1E0Get directions",Temiskaming Shores,Hardware Stores,Yellow Pages
Construction R. Chalifoux & C. Falardeau,Phone Number819-279-8322,"995 Rte 391,Saint-Eugène-De-Guigues,QCJ0Z 3L0Get directions",Temiskaming Shores,Hardware Stores,Yellow Pages
Home Hardware,Phone Number819-629-2474819-629-3083,"62 rue des Oblats N,Ville-Marie,QCJ9V 1J6Get directions",Temiskaming Shores,Hardware Stores,Yellow Pages
Garage Luc Leblanc Inc,Phone Number819-622-0238,"59 Ste-Anne,Ville-Marie,QCGet directions",Temiskaming Shores,Hardware Stores,Yellow Pages
Location et Garage Luc Leblanc Inc,Phone Number819-622-0238,"59 Ste-Anne,Ville-Marie,QCJ9V 2B6Get directions",Temiskaming Shores,Hardware Stores,Yellow Pages
BMR J. Drolet & Fils - Ville-Marie,Phone Number819-629-2885,"11 Rue Des Oblats S,Ville-Marie,QCJ9V 1J9Get directions",Temiskaming Shores,Hardware Stores,Yellow Pages
Agrizone Novago Coopérative - Ville-Marie,Phone Number819-629-2505,"52 rue St-André,Ville-Marie,QCJ9V 1Z7Get directions",Temiskaming Shores,Hardware Stores,Yellow Pages
BMR,Phone Number819-625-2135,"83 rue Notre-Dame O,Lorrainville,QCJ0Z 2R0Get directions",Temiskaming Shores,Hardware Stores,Yellow Pages
Earlton Country Store,Phone Number1-877-557-2315,,Temiskaming Shores,Hardware Stores,Yellow Pages
Dollarama,,"RR 2 Hwy 11B & 65 East,New Liskeard,ONP0J 1P0",Temiskaming Shores,Dollar Stores,Yellow Pages
Giant Tiger,,"32 Whitewood Ave,New Liskeard,ONP0J 1P0",Temiskaming Shores,Dollar Stores,Yellow Pages
Silver Nugget General Store,Phone Number705-679-5253,"13 Cobalt St,Cobalt,ONP0J 1H0Get directions",Temiskaming Shores,General Stores,Yellow Pages
Kenabeek General Store,Phone Number705-563-2772,"10-5 Con Henwood Twp,Kenabeek,ONP0J 1M0Get directions",Temiskaming Shores,General Stores,Yellow Pages
Dobson's General Store,Phone Number705-544-7838,"47 4th Ave,Englehart,ONGet directions",Temiskaming Shores,General Stores,Yellow Pages
M g And Sons General Store,Phone Number705-544-2333,"76 Howie St,Charlton,ONP0J 1B0Get directions",Temiskaming Shores,General Stores,Yellow Pages
Walmart Supercentre,,"133 Hwy 11,New Liskeard,ONP0J 1P0",Temiskaming Shores,Pharmacies,Yellow Pages
Loblaw Pharmacy,,"55 Scott St,New Liskeard,ONP0J 1P0",Temiskaming Shores,Pharmacies,Yellow Pages
Findlay's Drug Store,,"247 Whitewood Ave W,New Liskeard,ONP0J 1P0",Temiskaming Shores,Pharmacies,Yellow Pages
i.d.a. - smallman pharmacy,Call,"368 main st,haileybury,ONp0j 1k0",Temiskaming Shores,Pharmacies,Yellow Pages
Guardian - Cobalt Pharmacy,,"24 Prospect Ave,Cobalt,ONP0J 1C0",Temiskaming Shores,Pharmacies,Yellow Pages
i.d.a. - earlton pharmacy,,"14 10th st,earlton,ONp0j 1e0",Temiskaming Shores,Pharmacies,Yellow Pages
Proxim Pier-Luc Pharand et Justin Beauregard,,"58 Rue Sainte Anne,Ville Marie,QCJ9V 2B7",Temiskaming Shores,Pharmacies,Yellow Pages
Proxim pharmacie affiliée - Pier-Luc Pharand et Justin Beauregard,,"58 Rue Sainte Anne,Ville-Marie,QCJ9V 2B7",Temiskaming Shores,Pharmacies,Yellow Pages
Adam Nathalie,,"58, rue Sainte-Anne,Ville-Marie,QCJ0Z 3W0",Temiskaming Shores,Pharmacies,Yellow Pages
Earlton Pharmacy,,"14 10 St E,ON",Temiskaming Shores,Pharmacies,Yellow Pages
Abitibi Campground Confectionery,,,Cochrane,Convenience Stores,Yellow Pages
Mike's Variety & ESSO,Phone Number705-264-8113,"220 Hwy 11 N,Smooth Rock Falls,ONP0L 2B0Get directions",Cochrane,Gas Stations,Yellow Pages
2779571 Ontario Inc,Phone Number705-338-4044,"1-220 Hwy 11,Smooth Rock Falls,ONGet directions",Cochrane,Gas Stations,Yellow Pages
South Porcupine ESSO,Phone Number705-235-5540,"109 Harold St,South Porcupine,ONP0N 1H0Get directions",Cochrane,Gas Stations,Yellow Pages
Petro-Canada,Phone Number705-235-4797,"4310 Harold ave,South Porcupine,ONP0N 1H0Get directions",Cochrane,Gas Stations,Yellow Pages
SHELL - South Porcupine Hwy 101,Phone Number705-235-3111,"4310 Harold Ave,South Porcupine,ONP0N 1H0Get directions",Cochrane,Gas Stations,Yellow Pages
Krakana's Pump Service,Phone Number705-235-4744,"4388 Harold Ave Highway 101 E,South Porcupine,ONP0N 1H0Get directions",Cochrane,Gas Stations,Yellow Pages
Canadian Tire Gas+,Phone Number705-268-6801,"55 Waterloo Road at Algonquin,Timmins,ONP4N 8M4Get directions",Cochrane,Gas Stations,Yellow Pages
Petro-Pass Truck Stop,Phone Number705-264-3431,"364 Moneta Ave,Timmins,ONP4N 7C5Get directions",Cochrane,Gas Stations,Yellow Pages
Esso Truck Stop Restaurant,Phone Number705-268-4583,"2154 Riverside Dr,Timmins,ONP4N 7C5Get directions",Cochrane,Gas Stations,Yellow Pages
Canadian Tire Gas+,Phone Number705-268-5310,"2207 Riverside Drive,Timmins,ONP4R 0A1Get directions",Cochrane,Gas Stations,Yellow Pages
ESSO - Two Bay Enterprises,Phone Number705-336-2944,"12 Ferguson Rd,Moosonee,ONP0L 1Y0Get directions",Cochrane,Gas Stations,Yellow Pages
Two Bay Enterprises Ltd,Phone Number705-336-2521,"90 Ferguson Rd,Moosonee,ONP0L 1Y0Get directions",Cochrane,Gas Stations,Yellow Pages
Chevron Commercial Cardlock,Phone Number1-800-331-7353,"439 Griffin Road East,Cochrane,ABT4C 2B8Get directions",Cochrane,Gas Stations,Yellow Pages
Brennan & Samantha’s Your Independent Grocer Cochrane,,"31-1 Hwy 11 W,Cochrane,ONP0L 1C0",Cochrane,Grocery Stores,Yellow Pages
Myna Variety Store & Grocery,,"231 Devonshire,Iroquois Falls,ONP0K 1E0",Cochrane,Grocery Stores,Yellow Pages
Foodland,,"171 Ambridge Dr,Iroquois Falls,ONP0K 1G0",Cochrane,Grocery Stores,Yellow Pages
Mandy & Raj's Valu-mart Iroquois Falls,,"320 Main St,Iroquois Falls,ONP0K 1G0",Cochrane,Grocery Stores,Yellow Pages
M&M Food Market,,"215 Main St,South Porcupine,ONP0N 1H0",Cochrane,Grocery Stores,Yellow Pages
Foodland,,"670 Airport Rd,Timmins,ONP4N 7C3",Cochrane,Grocery Stores,Yellow Pages
Dailey's Your Independent Grocer,,"654 Algonquin Blvd E,Timmins,ONP4N 8R4",Cochrane,Grocery Stores,Yellow Pages
Bartolomucci Dante,,"1-154 Sixth Ave,Timmins,ONP4N 5M3",Cochrane,Grocery Stores,Yellow Pages
M&M Food Market,,"100 Waterloo Rd.,Timmins,ONP4N 4X5",Cochrane,Grocery Stores,Yellow Pages
Food Basics,,"105 Brunette Rd,Timmins,ONP4N 2R1",Cochrane,Grocery Stores,Yellow Pages
Pick of the Crop,,"70 Algonquin Blvd W,Timmins,ONP4N 2R3",Cochrane,Grocery Stores,Yellow Pages
Metro Timmins,,"140 Algonquin Blvd W,Timmins,ONP4N 1A9",Cochrane,Grocery Stores,Yellow Pages
Toffanello's Fresh Pasta,,"A-119 Wilson Ave,Timmins,ONP4N 2S8",Cochrane,Grocery Stores,Yellow Pages
Zudel's Limited,,"49 Dale Ave,Timmins,ONP4N 1L9",Cochrane,Grocery Stores,Yellow Pages
Alan's No Frills,,"1500 Riverside Dr, Unit D,Timmins,ONP4R 1A1",Cochrane,Grocery Stores,Yellow Pages
The Sarjeant Co.,,"19 2nd St,Cochrane,ONP0L 1C0",Cochrane,Hardware Stores,Yellow Pages
Allan's Home Hardware Building Centre,,"119 Railway St,Cochrane,ONP0L 1C0",Cochrane,Hardware Stores,Yellow Pages
Home Hardware Building Centre,,"745 Ambridge Dr,Iroquois Falls,ONP0K 1G0",Cochrane,Hardware Stores,Yellow Pages
The Sarjeant Co.,,"742 Highway 67,Iroquois Falls,ONP0K 1G0",Cochrane,Hardware Stores,Yellow Pages
The Sarjeant Co.,,"2614 Highway 655,Timmins,ONP4N 8R9",Cochrane,Hardware Stores,Yellow Pages
Porcupine Pro Hardware,,"85 Bruce Ave,South Porcupine,ONP0N 1H0",Cochrane,Hardware Stores,Yellow Pages
BMR Feldman Timber,,"681 Algonquin Blvd E,Timmins,ONP4N 7N6",Cochrane,Hardware Stores,Yellow Pages
Timmins Home Improvement Centre,Call,"89 Wilson Avenue,Timmins,ONP4N 2S8",Cochrane,Hardware Stores,Yellow Pages
Ray Ray Reno,,"279 Spruce St S,Timmins,ONP4N 2N1",Cochrane,Hardware Stores,Yellow Pages
Home Depot Store #7236,,"2143 Riverside Dr,Timmins,ONP4R 0A1",Cochrane,Hardware Stores,Yellow Pages
Northern Landscape & Construction Supply - Brick yard,,"1330 Riverside Dr,Timmins,ONP4R 1A5",Cochrane,Hardware Stores,Yellow Pages
Timmins Home Hardware Building Centre,,"1700 Riverside Dr,Timmins,ONP4R 1N7",Cochrane,Hardware Stores,Yellow Pages
Echo Valley Exteriors,Call,"2278 HWY 101 E,MATHESON,ONP0K 1N0",Cochrane,Hardware Stores,Yellow Pages
The Home Depot,,"2143 Riverside Dr,Timmins,ONP4N 7C3",Cochrane,Hardware Stores,Yellow Pages
Collins Home Hardware Building Centre,,"413 5th Ave,Matheson,ONP0K 1N0",Cochrane,Hardware Stores,Yellow Pages
Timmin's Mechanical Solutions,,"4539 Hwy 101 W,Timmins,ONP4R 0E7",Cochrane,Hardware Stores,Yellow Pages
Northern Store,Phone Number705-336-2280,"Moosonee,ONP0L 1Y0",Cochrane,General Stores,Yellow Pages
Smooth Rock Falls Pharmacy Ltd,,"133 5th St,Smooth Rock Falls,ONP0L 2B0",Cochrane,Pharmacies,Yellow Pages
Sam's Mini Mart & Convenience Plus,Phone Number705-372-1111,"59 Labelle St,Hearst,ONP5N 1L6Get directions",Hearst,Convenience Stores,Yellow Pages
Circle K (Mac's Convenience Stores),Phone Number705-335-2556,"32 Government Rd E,Etobicoke,ONP5N 2W5Get directions",Hearst,Convenience Stores,Yellow Pages
Shell,Phone Number705-335-2556,"1 Riverside Drive,Kapuskasing,ONP5N 1A1Get directions",Hearst,Convenience Stores,Yellow Pages
Al's Best Buy,Phone Number705-335-3350,"66 Brunetville Rd,Kapuskasing,ONP5N 2G3Get directions",Hearst,Convenience Stores,Yellow Pages
Chez Real Confectionery,Phone Number705-338-2566,"175 Main St,Smooth Rock Falls,ONP0L 2B0Get directions",Hearst,Convenience Stores,Yellow Pages
B & L Reddick Ltd,Phone Number807-826-3902,"75 Manitou W,ONP0T 2C0Get directions",Hearst,Convenience Stores,Yellow Pages
B & L Reddick Garage & Convenience Store,Phone Number807-826-3902,"75 Manitou W,Manitouwadge,ONP0T 2C0Get directions",Hearst,Convenience Stores,Yellow Pages
Angel's Mini Mart,Phone Number705-272-5861,"136 Railway St,Cochrane,ONP0L 1C0Get directions",Hearst,Convenience Stores,Yellow Pages
Pro's Mini Mart,Phone Number705-272-5239,"39 Huron Rd Gd,Cochrane,ONP0L 1C0Get directions",Hearst,Convenience Stores,Yellow Pages
Sam's Place,Phone Number705-856-2513,"84 McKinley,Wawa,ONP0S 1K0Get directions",Hearst,Convenience Stores,Yellow Pages
Mike's Mart,Phone Number705-856-1416,"208D Mission Rd Hwy 101,Wawa,ONP0S 1K0Get directions",Hearst,Convenience Stores,Yellow Pages
Long Lake 58 General Store,Phone Number807-876-4412,"10090 Hwy 11,Longlac,ONP0T 2A0Get directions",Hearst,Convenience Stores,Yellow Pages
Woodcrest Confectionary,Phone Number807-876-9572,"119 Woodcrest Dr,Longlac,ONP0T 2A0Get directions",Hearst,Convenience Stores,Yellow Pages
On the Run,Phone Number705-268-3460,"504-690 River Park Rd,Timmins,ONP4P 1B4Get directions",Hearst,Convenience Stores,Yellow Pages
circle k,Phone Number705-268-8281,"20 victoria ave,timmins,ONp4n 8k5Get directions",Hearst,Convenience Stores,Yellow Pages
circle k,Phone Number705-267-0316,"287 algonquin road west,timmins,ONp4n 2r9Get directions",Hearst,Convenience Stores,Yellow Pages
Circle K (Mac's Convenience Stores),Phone Number705-268-6021,"3-30 Algonquin Blvd W,Timmins,ONP4N 2R3Get directions",Hearst,Convenience Stores,Yellow Pages
T & S Variety Store,Phone Number705-267-5945,"269 Dale Ave,Timmins,ONP4N 1M7Get directions",Hearst,Convenience Stores,Yellow Pages
circle k,Phone Number705-264-2077,"60 dwyer ave,schumacher,ONp0n 1g0Get directions",Hearst,Convenience Stores,Yellow Pages
circle k,Phone Number705-235-8350,"4327 harold ave east,south porcupine,ONp0n 1h0Get directions",Hearst,Convenience Stores,Yellow Pages
circle k,Phone Number807-229-2066,"20 peninsula rd,marathon,ONp0t 2e0Get directions",Hearst,Convenience Stores,Yellow Pages
Depanneur Bourdages,Phone Number705-362-8925,"510 Tremblay,Hearst,ONP0L 1N0",Hearst,Convenience Stores,Yellow Pages
Esso,Phone Number705-362-4111,"1112 Front St,Hearst,ONP0L 1N0Get directions",Hearst,Gas Stations,Yellow Pages
Shell,Phone Number705-362-4749,"1200 Front St,Hearst,ONP0L 1N0Get directions",Hearst,Gas Stations,Yellow Pages
Canadian Tire - Gas+,Phone Number705-362-1115,"1404 Front St,Hearst,ONP0L 1N0Get directions",Hearst,Gas Stations,Yellow Pages
Shell,Phone Number705-362-4879,"1200 Front Street,Hearst,ONP0L 1N0Get directions",Hearst,Gas Stations,Yellow Pages
HUSKY/ESSO,Phone Number705-362-48681-800-661-3835,"1565 Hwy 11 W,Hearst,ONP0L 1N0Get directions",Hearst,Gas Stations,Yellow Pages
Norm's Gas Bar,Phone Number705-463-2203,"14 Rogers Rd,Constance Lake,ONP0L 1B0Get directions",Hearst,Gas Stations,Yellow Pages
Sunys,Phone Number705-335-6555,"25 Brunetville Rd,Kapuskasing,ONP5N 2E9Get directions",Hearst,Gas Stations,Yellow Pages
Esso,Phone Number705-335-3345,"48 GOVERNMENT RD,KAPUSKASING,ONP5N 2W6Get directions",Hearst,Gas Stations,Yellow Pages
Esso,Phone Number807-868-2638,"Hwy 631 N Building 2001,Hornepayne,ONP0M 1Z0Get directions",Hearst,Gas Stations,Yellow Pages
Flying J,Phone Number705-337-0290,"410 Government Rd E Rr 1,Kapuskasing,ONP5N 2X7Get directions",Hearst,Gas Stations,Yellow Pages
Damco Fuels & Supplies,Phone Number705-367-2001,"211 Hwy 11 W,Moonbeam,ONGet directions",Hearst,Gas Stations,Yellow Pages
Petro Canada Products,Phone Number807-826-3550,"4 Sault Rd,Manitouwadge,ONP0T 2C0Get directions",Hearst,Gas Stations,Yellow Pages
Albert & Sons Towing,Phone Number807-822-2441,"211 Hwy 17,White River,ONP0M 3G0Get directions",Hearst,Gas Stations,Yellow Pages
A1,Phone Number807-822-1234,"210 Winnipeg Street,White River,ONP0M 3G0Get directions",Hearst,Gas Stations,Yellow Pages
Pelletier's Gas Bar,Phone Number807-887-2952,"177 New E,Nipigon,ONP0T 1J0Get directions",Hearst,Gas Stations,Yellow Pages
Esso,Phone Number705-856-2626,"148 Mission Rd,Wawa,ONP0S 1K0Get directions",Hearst,Gas Stations,Yellow Pages
Petro-Canada,Phone Number705-856-78001-800-668-0220,"137 Mission Rd,Wawa,ONP0S 1K0Get directions",Hearst,Gas Stations,Yellow Pages
Pimii Kamik Gas Bar,Phone Number705-864-0880,"566 Fox Lake,Chapleau,ONP0M 1K0Get directions",Hearst,Gas Stations,Yellow Pages
Donald L Davidson Fuels Ltd,Phone Number705-856-2166,"54 Pinewood Dr,Wawa,ONP0S 1K0Get directions",Hearst,Gas Stations,Yellow Pages
Esso,Phone Number705-856-2166,"54 Pinewood Dr,Wawa,ONP0S 1K0Get directions",Hearst,Gas Stations,Yellow Pages
Brian’s Your Independent Grocer Hearst,Phone Number705-362-1168,"1521 Hwy 11 W,Hearst,ONP0L 1N0Get directions",Hearst,Grocery Stores,Yellow Pages
Sobeys,Phone Number705-337-1231,"25 Brunetville Rd,Kapuskasing,ONP5N 2E9Get directions",Hearst,Grocery Stores,Yellow Pages
Mack's Your Independent Grocer Kapuskasing,Phone Number705-337-4909,"55 Brunetville Rd,Kapuskasing,ONP5N 2E8Get directions",Hearst,Grocery Stores,Yellow Pages
M&M Food Market,Phone Number705-335-6710,"110 Government Road,Kapuskasing,ONP5N 2W8Get directions",Hearst,Grocery Stores,Yellow Pages
Home Hardware Building Centre,Phone Number705-884-2941,"275 chemin du Lac PO Box 99,Dubreuilville,ONP0S 1B0Get directions",Hearst,Grocery Stores,Yellow Pages
North Central Co-Op,Phone Number807-822-2389,"204 A Elgin,White River,ONP0M 3G0Get directions",Hearst,Grocery Stores,Yellow Pages
Rousselle's Valu-Mart,Phone Number807-826-3077,"9 Shebandowan Ave,Manitouwadge,ONP0T 2C0Get directions",Hearst,Grocery Stores,Yellow Pages
Melanie's Your Independent Grocer,Phone Number807-826-3323,"3 Huron Walk, Unit #1,Manitouwadge,ONP0T 2C0Get directions",Hearst,Grocery Stores,Yellow Pages
Sam'S Foodline,Phone Number705-856-2021,"55 Broadway,Wawa,ONP0S 1K0Get directions",Hearst,Grocery Stores,Yellow Pages
John's Valu-Mart,Phone Number705-856-2555,"186 Mission Rd,Wawa,ONP0S 1K0Get directions",Hearst,Grocery Stores,Yellow Pages
Longlac Freshmart,Phone Number807-876-4622,"103 Hamel Av,Longlac,ONP0T 2A0Get directions",Hearst,Grocery Stores,Yellow Pages
Zudel's Limited,Phone Number705-267-4500,"49 Dale Ave,Timmins,ONP4N 1L9Get directions",Hearst,Grocery Stores,Yellow Pages
Sirard's Your Independent Grocer Marathon,Phone Number807-229-8006,"2 Hemlo Dr,Marathon,ONP0T 2E0Get directions",Hearst,Grocery Stores,Yellow Pages
D H Foods Ltd,Phone Number807-229-0641,"3 Peninsula Rd,Marathon,ONP0T 2E0Get directions",Hearst,Grocery Stores,Yellow Pages
Bigway,Phone Number807-475-4573,"17 Main street,Kakabeka Falls,ONP0T 1W0Get directions",Hearst,Grocery Stores,Yellow Pages
Daneff's Food Market,Phone Number807-854-1401,"108 1 av N W,Geraldton,ONP0T 1M0Get directions",Hearst,Grocery Stores,Yellow Pages
Tyler's No Frills,Phone Number1-866-987-6453,"1012 Main St,Geraldton,ONP0T 1M0Get directions",Hearst,Grocery Stores,Yellow Pages
Family Foods Costa's,Phone Number807-824-2311,"402 Winnipeg St,Schreiber,ONP0T 2S0Get directions",Hearst,Grocery Stores,Yellow Pages
Brisson Castle Building & Living Centre,,"21 5th St,Cochrane,ONP0L 1C0",Hearst,Hardware Stores,Yellow Pages
Hearst Lumber / Hearst Home Building Centre,,"720 George St,Hearst,ONP0L 1N0",Hearst,Hardware Stores,Yellow Pages
Home Hardware,,"69 Front St,Hornepayne,ONP0M 1Z0",Hearst,Hardware Stores,Yellow Pages
Home Hardware Building Centre,,"275 chemin du Lac PO Box 99,Dubreuilville,ONP0S 1B0",Hearst,Hardware Stores,Yellow Pages
Home Hardware Building Centre,Call,"2 Station Rd,Manitouwadge,ONP0T 2C0",Hearst,Hardware Stores,Yellow Pages
Home Hardware Store,,"220 Winnipeg St,White River,ONP0M 3G0",Hearst,Hardware Stores,Yellow Pages
Lafarge Canada Inc.,,"Highway 17 & 614,Hemlo,ONP0T 2E0",Hearst,Hardware Stores,Yellow Pages
Great Canadian Dollar Store,,"3 Fifteenth St,Hearst,ONP0L 1N0",Hearst,Dollar Stores,Yellow Pages
The Bargain! Shop,,"1315 Front St,Hearst,ONP0L 1N0",Hearst,Dollar Stores,Yellow Pages
The Bargain! Shop,,"21 Huron Walk,Manitouwadge,ONP0T 2C0",Hearst,Dollar Stores,Yellow Pages
The Bargain! Shop,,"60 Broadway Ave,Wawa,ONP0S 1K0",Hearst,Dollar Stores,Yellow Pages
The Bargain! Shop,,"2 Hemlo Dr,Marathon,ONP0T 2E0",Hearst,Dollar Stores,Yellow Pages
A&J Sutherland General Store,,,Hearst,General Stores,Yellow Pages
Young's General Store,,"111 Mission Rd Hwy 101,Wawa,ONP0S 1K0",Hearst,General Stores,Yellow Pages
Long Lake 58 General Store,Call,"10090 Hwy 11,Longlac,ONP0T 2A0",Hearst,General Stores,Yellow Pages
Bucket Shop The,,"200 McBride St,Timmins,ONP4R 1N1",Hearst,General Stores,Yellow Pages
Vaillancourt E,,"355 Algonquin Blvd E,Timmins,ONP4N 1B5",Hearst,General Stores,Yellow Pages
9171-0426 Quebec Inc,Phone Number450-435-3663,"9 de L'Eglise,Jogues,ONP0L 1R0Get directions",Hearst,Pharmacies,Yellow Pages
Pharmacie Novena,Phone Number705-372-1212,"1509 11 Hy W,Hearst,ONP0L 1N0Get directions",Hearst,Pharmacies,Yellow Pages
Hornepayne Medical Inc,Phone Number807-868-2058,"333 Front,Hornepayne,ONP0M 1Z0Get directions",Hearst,Pharmacies,Yellow Pages
Manitouwadge Pharmacy,Phone Number807-826-3888,"2 Huron Walk,Manitouwadge,ONP0T 2C0Get directions",Hearst,Pharmacies,Yellow Pages
White River Pharmacy,Phone Number807-297-2002,"102 Winnipeg street,White river,ONP0M 3G0Get directions",Hearst,Pharmacies,Yellow Pages
Cochrane Pharmacy,Phone Number705-272-1333,"134 3rd Street,Cochrane,ONP0L 1C0Get directions",Hearst,Pharmacies,Yellow Pages
Fenlon's Pharmacy Ltd,Phone Number705-856-2800,"88 Broadway,Wawa,ONP0S 1K0Get directions",Hearst,Pharmacies,Yellow Pages
Fenelon's Pharmacy,Phone Number705-856-0915,"88 Broadway,Wawa,ONP0S 1K0Get directions",Hearst,Pharmacies,Yellow Pages
rexall,Phone Number807-876-1212,"101 king st,longlac,ONp0t 2a0Get directions",Hearst,Pharmacies,Yellow Pages
Walmart Supercentre,Phone Number705-267-3101,"1870 Riverside Dr,Timmins,ONP4N 7C3Get directions",Hearst,Pharmacies,Yellow Pages
Pharmasave Timmins,Phone Number705-267-6660,"57-1500 Riverside Drive,Timmins,ONP4R 1A1Get directions",Hearst,Pharmacies,Yellow Pages
Shoppers Drug Mart,Phone Number705-264-4311,"227 Algonquin Blvd W,Timmins,ONP4N 2R8Get directions",Hearst,Pharmacies,Yellow Pages
Wallace Drug,Phone Number705-272-4381,"109 6th Avenue,Cochrane,ONP0L 1C0Get directions",Hearst,Pharmacies,Yellow Pages
health care guardian pharmacy,Phone Number705-267-2048,"27 cedar st s,timmins,ONp4n 2g5Get directions",Hearst,Pharmacies,Yellow Pages
rexall,Phone Number705-267-6422,"119 pine st s,timmins,ONp4n 2k3Get directions",Hearst,Pharmacies,Yellow Pages
Loblaw Pharmacy,Phone Number705-264-8300,"654 Algonquin Blvd E,Timmins,ONP4N 8R4Get directions",Hearst,Pharmacies,Yellow Pages
Shoppers Home Health Care,Phone Number705-264-6511,"4-681 Algonquin Blvd E,Timmins,ONP4N 8S6Get directions",Hearst,Pharmacies,Yellow Pages
Shoppers Drug Mart,Phone Number705-264-6511,"5-681 Algonquin Blvd E,Timmins,ONP4N 8S6Get directions",Hearst,Pharmacies,Yellow Pages
Dupuis G,Phone Number705-268-3080,"30 Father Costello Dr,Timmins,ONGet directions",Hearst,Pharmacies,Yellow Pages
guardian - mcdonald's pharmacy,Phone Number705-235-3941,"67 bruce ave,south porcupine,ONp0n 1h0Get directions",Hearst,Pharmacies,Yellow Pages
i.d.a. - marathon drug associates,Phone Number807-229-1670,"2 hemlo dr,marathon,ONp0t 2e0Get directions",Hearst,Pharmacies,Yellow Pages
Moe & Jo's Lighthouse Variety,Call,"41 Simcoe Plaza,Terrace Bay,ONP0T 2W0",Marathon,Convenience Stores,Yellow Pages
circle k,,"20 peninsula rd,marathon,ONp0t 2e0",Marathon,Convenience Stores,Yellow Pages
B & L Reddick Ltd,,"75 Manitou W,ONP0T 2C0",Marathon,Convenience Stores,Yellow Pages
B & L Reddick Garage & Convenience Store,,"75 Manitou W,Manitouwadge,ONP0T 2C0",Marathon,Convenience Stores,Yellow Pages
Woodcrest Confectionary,,"119 Woodcrest Dr,Longlac,ONP0T 2A0",Marathon,Convenience Stores,Yellow Pages
Circle K (Mac's Convenience Stores),,"145 Railway St,Nipigon,ONP0T 2J0",Marathon,Convenience Stores,Yellow Pages
Ann's Country Store,,"RR 1,Dorion,ONP0T 1K0",Marathon,Convenience Stores,Yellow Pages
Murillo Variety,,"RR 1 Oliver Rd,Murillo,ONP0T 2G0",Marathon,Convenience Stores,Yellow Pages
Grissom's,,"Fort Albany,ONP0L 1H0",Marathon,Convenience Stores,Yellow Pages
Norman Ashamock Store,,"Fort Albany GD,Fort Albany,ONP0L 1H0",Marathon,Convenience Stores,Yellow Pages
Akwan,,"Attawapiskat,ONP0L 1A0",Marathon,Convenience Stores,Yellow Pages
Chookomolin Diversified Products,Call,"Peawanuck,ONP0L 2H0",Marathon,Convenience Stores,Yellow Pages
Koostachin & Sons,Call,,Marathon,Convenience Stores,Yellow Pages
Corny's Variety Store,,,Marathon,Convenience Stores,Yellow Pages
Corny's Variety Store,,"Fort Hope,Fort Hope,ONP0T 1L0",Marathon,Convenience Stores,Yellow Pages
Loone's Variety & Gas Bar,,"67 First Nation Rd,Fort Albany,ONP0L 1H0",Marathon,Convenience Stores,Yellow Pages
Airport Motor Inn,,"1 A 17 Hwy N,Marathon,ONP0T 2E0",Marathon,Gas Stations,Yellow Pages
15016894 Canada,,"82 Peninsula,Marathon,ONP0T 2E0",Marathon,Gas Stations,Yellow Pages
Petro-Canada EV Fast Charging Station,,"4 Hemlo Dr,Marathon,ONP0T 2E0",Marathon,Gas Stations,Yellow Pages
Petro-Canada,,"4 Hemlo Dr,Marathon,ONP0T 2E0",Marathon,Gas Stations,Yellow Pages
Cando's Corner,,"18 Pic River Rd,ONP0T 1R0",Marathon,Gas Stations,Yellow Pages
Canco One Stop,,"Hwy 17,Terrace Bay,ONP0T 2W0",Marathon,Gas Stations,Yellow Pages
Shell,,"1151 Hwy 17,Terrace Bay,ONP0T 2W0",Marathon,Gas Stations,Yellow Pages
Drifters Restaurant and Motel,Call,"3 Simcoe Plaza,Terrace Bay,ONP0T 2W0",Marathon,Gas Stations,Yellow Pages
ESSO - Terrace Bay Enterprises Ltd,,"Hwy 17,Terrace Bay,ONP0T 2W0",Marathon,Gas Stations,Yellow Pages
Petro Canada Products,,"4 Sault Rd,Manitouwadge,ONP0T 2C0",Marathon,Gas Stations,Yellow Pages
ultramar energy,,"hwy 17, 10 kingsway,schreiber,ONp0t 2s0",Marathon,Gas Stations,Yellow Pages
A1,Call,"210 Winnipeg Street,White River,ONP0M 3G0",Marathon,Gas Stations,Yellow Pages
Albert & Sons Towing,Call,"211 Hwy 17,White River,ONP0M 3G0",Marathon,Gas Stations,Yellow Pages
Pelletier's Gas Bar,,"177 New E,Nipigon,ONP0T 1J0",Marathon,Gas Stations,Yellow Pages
Longlac Auto Centre,,"136 Queen St,Longlac,ONP0T 2A0",Marathon,Gas Stations,Yellow Pages
Nakina Service Centre,,"119 584 Hwy N,Nakina,ONP0T 2H0",Marathon,Gas Stations,Yellow Pages
Esso,Call,"Hwy 631 N Building 2001,Hornepayne,ONP0M 1Z0",Marathon,Gas Stations,Yellow Pages
Talkrs Inc,,"453-11 17 Hwy,ONP0T 2J0",Marathon,Gas Stations,Yellow Pages
Zechner's Ltd,Phone Number1-844-206-2411,"155 Railway,Nipigon,ONP0T 2J0Get directions",Marathon,Grocery Stores,Yellow Pages
Northern Store,Phone Number705-997-2130,"Attawapiskat,ONP0L 1A0",Marathon,Grocery Stores,Yellow Pages
Northern Store,Phone Number807-469-5241,"Weagamow Lake GD,Weagamow Lake,ONP0V 2Y0Get directions",Marathon,Grocery Stores,Yellow Pages
Northern Store,Phone Number705-278-3385,"PO Box 151,Fort Albany,ONP0L 1H0",Marathon,Grocery Stores,Yellow Pages
Northern Store,Phone Number807-478-2517,"PO Box 94,Fort Severn,ONP0V 1W0",Marathon,Grocery Stores,Yellow Pages
Saunders Foodland,Phone Number807-886-2630,"59 Salls,Red Rock,ONP0T 2P0Get directions",Marathon,Grocery Stores,Yellow Pages
Zechner's Ltd,Phone Number807-887-2910,"155 Railway Street,Nipigon,ONP0T 2J0Get directions",Marathon,Grocery Stores,Yellow Pages
Zechner's Ltd,Phone Number807-887-2636,"155 Railway St,Nipigon,ONP0T 2J0Get directions",Marathon,Grocery Stores,Yellow Pages
Pure Produce,Phone Number807-630-4288,"245 McIntyre St,Thunder Bay,ONP7A 3B3Get directions",Marathon,Grocery Stores,Yellow Pages
Olivier's Freshmart,Phone Number807-868-2705,"44 Third Ave,Hornepayne,ONP0M 1Z0Get directions",Marathon,Grocery Stores,Yellow Pages
Northern Store,Phone Number705-473-9900,"Peawanuck,Peawanuck,ONP0L 2H0",Marathon,Grocery Stores,Yellow Pages
Gluten Free Manitouwadge,Phone Number807-228-3140,,Marathon,Grocery Stores,Yellow Pages
Canadian Tire,Call,"3 Peninsula Road,Marathon,ONP0T 2E0",Marathon,Hardware Stores,Yellow Pages
Marathon Home Hardware,,"Peninsula Rd,Marathon,ON",Marathon,Hardware Stores,Yellow Pages
Home Hardware Building Centre,,"4 Peninsula Rd,Marathon,ONP0T 2E0",Marathon,Hardware Stores,Yellow Pages
Home Hardware Building Centre,,"3 Mill Road N,Terrace Bay,ONP0T 2W0",Marathon,Hardware Stores,Yellow Pages
Lafarge Canada Inc.,,"Hwy 627,Heron Bay,ONP0T 1R0",Marathon,Hardware Stores,Yellow Pages
Pro Hardware & NAPA Auto Parts,,"804 Winnipeg,SCHREIBER,ON",Marathon,Hardware Stores,Yellow Pages
Cebrario's Hardware,,"702 Winnipeg,Schreiber,ONP0T 2S0",Marathon,Hardware Stores,Yellow Pages
NAPA Auto Parts & Pro Hardware,,"804 Winnipeg,Schreiber,ONP0T 2S0",Marathon,Hardware Stores,Yellow Pages
RONA Barino Construction Ltd.,,"102 Hamel Avenue,LONGLAC,ONP0T 2A0",Marathon,Hardware Stores,Yellow Pages
Marino's Hardware,,"107 Geraldton Main St,Geraldton,ONP0T 1M0",Marathon,Hardware Stores,Yellow Pages
Errington Home Hardware,,"124 Arena Rd,ONP0T 1M0",Marathon,Hardware Stores,Yellow Pages
Got Wood Building Supplies,,"124 OldArenaRd,Geraldton,ONP0T 1M0",Marathon,Hardware Stores,Yellow Pages
Mannila's Hardware Limited - Home Hardware,,"109 4th St,Nipigon,ONP0T 2J0",Marathon,Hardware Stores,Yellow Pages
Nu-Steel Door Systems,Call,"940 Tungsten Street,Thunder Bay,ONP7B 5Z6",Marathon,Hardware Stores,Yellow Pages
Wrfp,,"17-315 Hwy 17 Rr 1,Nairn Centre,ONP0M 2L0",Marathon,Hardware Stores,Yellow Pages
Upsala General Store,,"4892 17Hwy,Upsala,ONP0T 2Y0",Marathon,General Stores,Yellow Pages
Northern Store,Call,"Lansdowne House,ONP0T 1Z0",Marathon,General Stores,Yellow Pages
Northern Store,,"Kashechewan GD,Kashechewan,ONP0L 1S0",Marathon,General Stores,Yellow Pages
Northern Store,Call,"Weagamow Lake GD,Weagamow Lake,ONP0V 2Y0",Marathon,General Stores,Yellow Pages
Northern Store,,"PO Box 400,Moose Factory,ONP0L 1W0",Marathon,General Stores,Yellow Pages
Northern Store,,"Moose Factory,ONP0L 1W0",Marathon,General Stores,Yellow Pages
i.d.a. - marathon drug associates,,"2 hemlo dr,marathon,ONp0t 2e0",Marathon,Pharmacies,Yellow Pages
guardian - stewart pharmacy,,"31 simcoe plaza,terrace bay,ONp0t 2w0",Marathon,Pharmacies,Yellow Pages
Manitouwadge Pharmacy,,"2 Huron Walk,Manitouwadge,ONP0T 2C0",Marathon,Pharmacies,Yellow Pages
White River Pharmacy,,"102 Winnipeg street,White river,ONP0M 3G0",Marathon,Pharmacies,Yellow Pages
rexall,,"101 king st,longlac,ONp0t 2a0",Marathon,Pharmacies,Yellow Pages
Hornepayne Medical Inc,,"333 Front,Hornepayne,ONP0M 1Z0",Marathon,Pharmacies,Yellow Pages
Rexall,,"54 Front St,Nipigon,ONP0T 2J0",Marathon,Pharmacies,Yellow Pages
rexall,,"305 main st,geraldton,ONp0t 1m0",Marathon,Pharmacies,Yellow Pages
White River Pharmacy,,"White River,ON",Marathon,Pharmacies,Yellow Pages
Schreiber Pharmacy,,"301 Scotia,Rossport,ONP0T 2S0",Marathon,Pharmacies,Yellow Pages
Lake Helen Gas & Variety,,"Nipigon,ONP0T 2J0",Nipigon,Gas Stations,Yellow Pages
Narvi's Truck & Auto Service,,"453 Hwy 11-17,Nipigon,ONP0T 2J0",Nipigon,Gas Stations,Yellow Pages
NAPA AUTOPRO - Allen's Auto Repair,,"185 Railway Street,,Nipigon,ONP0T 2J0",Nipigon,Gas Stations,Yellow Pages
HUSKY/ESSO,,"453 Trans-Canada Hwy,Nipigon,ONP0T 2J0",Nipigon,Gas Stations,Yellow Pages
Petro-Canada,,"498 Hwy 17,Nipigon,ONP0T 2J0",Nipigon,Gas Stations,Yellow Pages
Petro-Canada EV Fast Charging Station,,"498 Hwy 17,Nipigon,ONP7C 1T5",Nipigon,Gas Stations,Yellow Pages
Lar's Place,,"233 Beamish St Rr 1,Macdiarmid,ONP0T 2B0",Nipigon,Gas Stations,Yellow Pages
Kakabeka Esso,,"4795 Hwy 11-17,Kakabeka Falls,ONP0T 1W0",Nipigon,Gas Stations,Yellow Pages
XTR,,"4810 Hwy 17,Upsala,ONP0T 2Y0",Nipigon,Gas Stations,Yellow Pages
Zechner's Ltd,Call,"155 Railway,Nipigon,ONP0T 2J0",Nipigon,Grocery Stores,Yellow Pages
Zechner's Ltd,Call,"155 Railway Street,Nipigon,ONP0T 2J0",Nipigon,Grocery Stores,Yellow Pages
Zechner's Ltd,,"155 Railway St,Nipigon,ONP0T 2J0",Nipigon,Grocery Stores,Yellow Pages
Saunders Foodland,,"59 Salls,Red Rock,ONP0T 2P0",Nipigon,Grocery Stores,Yellow Pages
Family Foods Costa's,,"402 Winnipeg St,Schreiber,ONP0T 2S0",Nipigon,Grocery Stores,Yellow Pages
Rice N Spice Heritage,,"234 Cumberland St N,Thunder Bay,ONP7A 4N3",Nipigon,Grocery Stores,Yellow Pages
Squitti's Grocery,,"325 Bay St,Thunder Bay,ONP7B 1S2",Nipigon,Grocery Stores,Yellow Pages
Doemel's Suomi General Store,Phone Number807-475-9195,"3851 Hwy 588,Thunder Bay,ONP0T 2K0Get directions",Nipigon,General Stores,Yellow Pages
Upsala General Store,Phone Number807-986-2228,"4892 17Hwy,Upsala,ONP0T 2Y0Get directions",Nipigon,General Stores,Yellow Pages
Northern Store,Phone Number705-275-4574,"Kashechewan GD,Kashechewan,ONP0L 1S0Get directions",Nipigon,General Stores,Yellow Pages
White Cedar Pharmacy,,"2001 Lakeshore Dr,Shuniah,ONP7A 0L4",Nipigon,Pharmacies,Yellow Pages
Balmer Video,,"250 Fifth St,Balmertown,ONP0V 1C0",Red Lake,Convenience Stores,Yellow Pages
Red Pine Store,,"100 KejickBay,Lac Seul,ONP0V 2A0",Red Lake,Convenience Stores,Yellow Pages
Shady's Snak Shak,,"97 Front,Sioux Lookout,ON",Red Lake,Convenience Stores,Yellow Pages
Fair Convenience,,"24 Fair St,Sioux Lookout,ONP8T 1H3",Red Lake,Convenience Stores,Yellow Pages
Northern Quickstop,Call,"Deer Lake,ONP0V 1N0",Red Lake,Convenience Stores,Yellow Pages
Casuals' Convenience Store,,"1 Patricia Ave,Pickle Lake,ONP0V 3A0",Red Lake,Convenience Stores,Yellow Pages
Sam's Store,,"Big Trout Lake GD,Big Trout Lake,ONP0V 1G0",Red Lake,Convenience Stores,Yellow Pages
TJ's Kwik Stop,Call,"34 Hwy 105,Red Lake,ONP0V 2M0",Red Lake,Convenience Stores,Yellow Pages
Cash 'N Carry Store,,"Weagamow Lake GD,Weagamow Lake,ONP0V 2Y0",Red Lake,Convenience Stores,Yellow Pages
B & P Variety,,"Perrault Falls GD,Perrault Falls,ONP0V 2K0",Red Lake,Convenience Stores,Yellow Pages
Muskrat Dam Ochikan Atawagamik,,"Muskrat Dam,ONP0V 3B0",Red Lake,Convenience Stores,Yellow Pages
J & D Trading,,"Deer Lake,ONP0V 1N0",Red Lake,Convenience Stores,Yellow Pages
Timmin's Store,,"Summer Beaver,ONP0T 3B0",Red Lake,Convenience Stores,Yellow Pages
Clearwater Market Inc,,,Red Lake,Convenience Stores,Yellow Pages
Wabigoon Lake Community Store,,"Wabigoon Indian Reserve 27,Dinorwic,ON",Red Lake,Convenience Stores,Yellow Pages
Petro-Pass Truck Stop,,"84 Hammell Rd,Red Lake,ONP0V 2M0",Red Lake,Gas Stations,Yellow Pages
Clark's Corner Gas,,"41 Dickenson,Balmertown,ONP0V 1C0",Red Lake,Gas Stations,Yellow Pages
Devil's Gap Marina,Call,"724 Bald Indian Bay,Kenora,ONP9N 3W9",Red Lake,Gas Stations,Yellow Pages
The Wellington Centre,Call,"67 Wellington St,Sioux Lookout,ONP8T 1E2",Red Lake,Gas Stations,Yellow Pages
Water Pumping Station,,"60 Wellington St,Sioux Lookout,ONP8T 1E1",Red Lake,Gas Stations,Yellow Pages
5 Mile Corner,,"1284 Hwy 72,Sioux Lookout,ON",Red Lake,Gas Stations,Yellow Pages
Esso,,"15 Wellington St,Sioux Lookout,ONP8T 1E3",Red Lake,Gas Stations,Yellow Pages
Esso Shree Manibhadra Ontario Ltd,,"104 Main,Ignace,ONP0T 1T0",Red Lake,Gas Stations,Yellow Pages
K & S Petro-Canada Service Centre,,"311 Main,Ignace,ONP0T 1T0",Red Lake,Gas Stations,Yellow Pages
Shell,,"311 Main Street,Ignace,ONP0T 1T0",Red Lake,Gas Stations,Yellow Pages
Tower Hill Truck Stop,,"1030 Main Street Hwy 17 E,Ignace,ONP0T 1T0",Red Lake,Gas Stations,Yellow Pages
Petro-Canada,,"Hwy 17 W,Ignace,ONP0T 1T0",Red Lake,Gas Stations,Yellow Pages
Tower Hill Truck Stop,,,Red Lake,Gas Stations,Yellow Pages
PR Gas,,"1 Kinew Dr,Eagle River,ONP0V 3H0",Red Lake,Gas Stations,Yellow Pages
Esso,,"34 Hwy 105,Red Lake,ONP0V 2M0",Red Lake,Gas Stations,Yellow Pages
Esso,,"Hwy 105,Ear Falls,ONP0V 1T0",Red Lake,Gas Stations,Yellow Pages
Sobeys,,"Highway 105 & Discovery Rd,Red Lake,ONP0V 2M0",Red Lake,Grocery Stores,Yellow Pages
IGA,,"Highway 105 & Discovery Rd,Red Lake,ONP0V 2M0",Red Lake,Grocery Stores,Yellow Pages
Balmertown Food Fair,,"2 7th Street,Balmertown,ONP0V 1C0",Red Lake,Grocery Stores,Yellow Pages
Mitchel's Midtown Grocery,Call,"248 Howey St,Red Lake,ONP0V 2M0",Red Lake,Grocery Stores,Yellow Pages
Shoprite Fine Foods,,"411 Main,Ignace,ONP0T 1T0",Red Lake,Grocery Stores,Yellow Pages
Northern Store,Call,"Cat Lake,ONP0V 1J0",Red Lake,Grocery Stores,Yellow Pages
Northern Store,Call,"Bearskin Lake,ONP0V 1E0",Red Lake,Grocery Stores,Yellow Pages
Ennis Grocery Store,,"Savant Lake,ONP0V 2S0",Red Lake,Grocery Stores,Yellow Pages
Wilson's Fine Foods,Call,"30 Spruce,Ear Falls,ONP0V 1T0",Red Lake,Grocery Stores,Yellow Pages
Vermilion Bay Co-Operative Limited,Call,"84 Spruce,Vermilion Bay,ONP0V 2V0",Red Lake,Grocery Stores,Yellow Pages
Northern Stores,Call,"Wunnummin Lake,ONP0V 2Z0",Red Lake,Grocery Stores,Yellow Pages
Northern Store,Call,"Sandy Lake,ONP0A 1M0",Red Lake,Grocery Stores,Yellow Pages
Northern Store,Call,"Sachigo Lake,ONP0V 2P0",Red Lake,Grocery Stores,Yellow Pages
Home Hardware Building Centre,Phone Number807-737-1950,"40 Alcona Drive,Sioux Lookout,ONP8T 1B3Get directions",Red Lake,Hardware Stores,Yellow Pages
Mistik North Inc,Phone Number807-928-2335,"2 Pickle Lake Rd,Pickle Lake,ONGet directions",Red Lake,Hardware Stores,Yellow Pages
North American Lumber,Phone Number807-727-2825,"238 Howey St Redlk,Red Lake,ONP0V 2M0Get directions",Red Lake,Hardware Stores,Yellow Pages
Goodfellow Inc,Phone Number709-635-2991,"4 Wellon Dr,Deer Lake,NLGet directions",Red Lake,Hardware Stores,Yellow Pages
Lafarge Canada Inc.,Phone Number807-548-1858,"3210A Highway 17 E,Kenora,ONP9N 3X7",Red Lake,Hardware Stores,Yellow Pages
Giant Tiger,PhonePhone Number807-737-0026,"12 Fifth Ave,Sioux Lookout,ONP8T 1E1Get directions",Red Lake,Dollar Stores,Yellow Pages
Second Chance Thrift,PhonePhone Number807-727-9035,"150 Howey,ONP0V 2M0Get directions",Red Lake,Dollar Stores,Yellow Pages
Northern Store,,"52 Front St,Sioux Lookout,ONP8T 1B1",Red Lake,General Stores,Yellow Pages
Bragg's,,"320 Main,Ignace,ONP0T 1T0",Red Lake,General Stores,Yellow Pages
Northern Store,Call,"Kasabonika,ONP0V 1Y0",Red Lake,General Stores,Yellow Pages
Tasona Atawekamik,Call,"Big Trout Lake GD,Big Trout Lake,ONP0V 1G0",Red Lake,General Stores,Yellow Pages
Onatamakay Store,Call,"Weagamow Lake GD,Weagamow Lake,ONP0V 2Y0",Red Lake,General Stores,Yellow Pages
Bearskin Consumer's Co-Op Inc,,"Bearskin Lake,ONP0V 1E0",Red Lake,General Stores,Yellow Pages
Poile's General Store,,"Gull Bay GD,Gull Bay,ONP0T 1P0",Red Lake,General Stores,Yellow Pages
Northern Store,Call,"Poplar Hill,ONP0V 3E0",Red Lake,General Stores,Yellow Pages
Northern Store,Call,"Pikangikum,ONP0V 2L0",Red Lake,General Stores,Yellow Pages
Northern Store,,"Pickle Lake,ONP0V 3A0",Red Lake,General Stores,Yellow Pages
Sioux Lookout Remedy'sRx,,"75 King St Box 699,Sioux Lookout,ONP8T 1B1",Red Lake,Pharmacies,Yellow Pages
I.D.A. - Rx Drug Mart Sioux Lookout,,"14 4th Ave,Sioux Lookout,ONP8T 1C5",Red Lake,Pharmacies,Yellow Pages
Guardian - Ignace Pharmacy,,"118-1100 Main St,Ignace,ONP0T 1T0",Red Lake,Pharmacies,Yellow Pages
Red Lake Pharmacy Ltd,,"51-G 105 Hwy,Red Lake,ONP0V 2M0",Red Lake,Pharmacies,Yellow Pages
Ear Falls Pharamacy,,"1273 105Hwy,Ear Falls,ONP0V 1T0",Red Lake,Pharmacies,Yellow Pages
Extra Foods,,"647 Government St,Dryden,ONP8N 2Z5",Sioux Lookout,Gas Stations,Yellow Pages
Red River Co-op,,"640 Government Street,Dryden,ONP8N 2P6",Sioux Lookout,Gas Stations,Yellow Pages
André Tardiff,,"140 Colonization Ave N,ONP8N 2P1",Sioux Lookout,Gas Stations,Yellow Pages
Petro-Pass Truck Stop,,"140 Colonization Ave N,Dryden,ONP8N 2Y8",Sioux Lookout,Gas Stations,Yellow Pages
HUSKY/ESSO,,"379 Government St,Dryden,ONP8N 2P4",Sioux Lookout,Gas Stations,Yellow Pages
Shell,,"75 Whyte Avenue,Dryden,ONP8N 3E6",Sioux Lookout,Gas Stations,Yellow Pages
Fas Gas Plus - Gas Station,,"21 Duke St,Dryden,ONP8N 1E6",Sioux Lookout,Gas Stations,Yellow Pages
DRUGStore Pharmacy,,"647 Government St,Dryden,ONP8N 2Z5",Sioux Lookout,Pharmacies,Yellow Pages
circle k,Phone Number705-869-1712,"110 centre st,espanola,ONp5e 1s4Get directions",Espanola,Convenience Stores,Yellow Pages
Maxine's Gas Bar,Phone Number705-869-6825,"120 Centre St,Espanola,ONP5E 1S4Get directions",Espanola,Convenience Stores,Yellow Pages
Tony's Variety & Video Espanola Ltd,Phone Number705-869-1011,"426 Mead Blvd,Espanola,ONP5E 1M1Get directions",Espanola,Convenience Stores,Yellow Pages
Esso,Phone Number705-862-7528,"331 HWY 17 W,MCKERROW,ONP0P 1M0Get directions",Espanola,Convenience Stores,Yellow Pages
On the Run,Phone Number705-862-7528,"331 Highway 17 W,Espanola,ONP5E 1S1Get directions",Espanola,Convenience Stores,Yellow Pages
Poirier's Confectionery & Pizza,Phone Number705-865-2740,"355 Imperial S,Massey,ONP0P 1P0Get directions",Espanola,Convenience Stores,Yellow Pages
Levack Mini Mart,Phone Number705-966-2460,"37 Levack Dr Gd,Levack,ONP0M 2C0Get directions",Espanola,Convenience Stores,Yellow Pages
Andy's Convenience,Phone Number705-692-7629,"211 Maani,Lively,ONP0M 2M0Get directions",Espanola,Convenience Stores,Yellow Pages
Scone & Wong Convenience Plus,Phone Number705-844-1867,"44 Village Rd S,Cutler,ONP0P 1B0Get directions",Espanola,Convenience Stores,Yellow Pages
Onaping Quick Mart,Phone Number705-966-2066,"Onaping Plaza,Levack,ONP0M 2R0Get directions",Espanola,Convenience Stores,Yellow Pages
circle k,Phone Number705-692-9633,"150 regional rd 24,lively,ONp3y 1j3Get directions",Espanola,Convenience Stores,Yellow Pages
snack express - convenience store,Phone Number705-692-0211,"105 regional rd 24,lively,ONp3y 1c3Get directions",Espanola,Convenience Stores,Yellow Pages
Cobi's Convenience,Phone Number705-966-2282,"184 Regional Road 8,Onaping,ONP0M 2R0Get directions",Espanola,Convenience Stores,Yellow Pages
Bouillon's Esso,Phone Number705-862-7525,"331 Hwy 17,McKerrow,ONP0P 1M0Get directions",Espanola,Convenience Stores,Yellow Pages
Buzah Variety,Phone Number705-859-3886,"922 Wikwemikong Way,ONGet directions",Espanola,Convenience Stores,Yellow Pages
circle k,Phone Number705-855-6732,"3525 highway 144,chelmsford,ONp0m 1l0Get directions",Espanola,Convenience Stores,Yellow Pages
Snack Express - Convenience Store,,"3775 ON-144,Chelmsford,ONP0M 1L0Get directions",Espanola,Convenience Stores,Yellow Pages
Roger's Valu-mart Dowling,Phone Number705-855-5121,"30 Main St E,Dowling,ONP0M 1R0Get directions",Espanola,Convenience Stores,Yellow Pages
G & P Confectionery,Phone Number705-855-2921,"3577 Errington Ave,Chelmsford,ONP0M 1L0Get directions",Espanola,Convenience Stores,Yellow Pages
Kwik-Way Copper Cliff,Phone Number705-682-2300,"13 Serpentine,Copper Cliff,ONP0M 1N0Get directions",Espanola,Convenience Stores,Yellow Pages
Cara's Convenience,Phone Number705-674-0763,"1055A Lorne St,Sudbury,ONP3C 4S5Get directions",Espanola,Convenience Stores,Yellow Pages
Kwik Way,Phone Number705-983-9000,"33 NOTRE DAME AV,Azilda,ONP0M 1B0Get directions",Espanola,Convenience Stores,Yellow Pages
Dino's Milk Mart,Phone Number705-675-5387,"975 Lorne St,Sudbury,ONP3C 4S1Get directions",Espanola,Convenience Stores,Yellow Pages
Gloria's Restaurant,Phone Number705-522-1476,"469 Bouchard St,Sudbury,ONP3E 2K8Get directions",Espanola,Convenience Stores,Yellow Pages
Gloria's Convenience,Phone Number705-522-3800,"469 Bouchard St,Sudbury,ONP3E 2K8Get directions",Espanola,Convenience Stores,Yellow Pages
Smitty's Convenience,Phone Number705-522-1774,"3-1769 Regent St,Sudbury,ONP3E 3Z7Get directions",Espanola,Convenience Stores,Yellow Pages
Betty's,Phone Number705-282-2580,"Meredith,Gore Bay,ONP0P 1H0Get directions",Espanola,Convenience Stores,Yellow Pages
H & M Mini Mart,Phone Number705-282-3151,"12 Hwy 540,Gore Bay,ONP0P 1H0Get directions",Espanola,Convenience Stores,Yellow Pages
U Can,Phone Number705-675-8226,"208 Loach's Rd,Sudbury,ONP3E 2P7Get directions",Espanola,Convenience Stores,Yellow Pages
Express Mart,Phone Number705-677-0648,"359 Riverside Dr,Sudbury,ONP3E 1H5Get directions",Espanola,Convenience Stores,Yellow Pages
Douglas Variety & Video,Phone Number705-670-0892,"76 Douglas St,Sudbury,ONP3E 1E8Get directions",Espanola,Convenience Stores,Yellow Pages
Donovan Variety,Phone Number705-670-9288,"533 Kathleen St,Sudbury,ONP3C 2N1Get directions",Espanola,Convenience Stores,Yellow Pages
Brady Kwik-Way Convenience Store,Phone Number705-674-6000,"233 Brady St, Unit 4,Sudbury,ONP3B 4H5Get directions",Espanola,Convenience Stores,Yellow Pages
circle k,,"110 centre st,espanola,ONp5e 1s4",Espanola,Gas Stations,Yellow Pages
Maxine's Gas Bar,,"120 Centre St,Espanola,ONP5E 1S4",Espanola,Gas Stations,Yellow Pages
Petro-Canada EV Fast Charging Station,,"731 Centre St,Espanola,ONP5E 1T3",Espanola,Gas Stations,Yellow Pages
Petro-Canada,,"731 Centre St,Espanola,ONP5E 1S3",Espanola,Gas Stations,Yellow Pages
Petro-Canada,,"731 Centre St,Espanola,ONP5E 1T3",Espanola,Gas Stations,Yellow Pages
Esso,,"331 HWY 17 W,MCKERROW,ONP0P 1M0",Espanola,Gas Stations,Yellow Pages
Esso,,"300 Hwy 17,Nairn Centre,ONP0M 2L0",Espanola,Gas Stations,Yellow Pages
Jeremy's Country Restaurant & Truck Stop,,"220 Hwy 17,Nairn Centre,ONP0M 2L0",Espanola,Gas Stations,Yellow Pages
Shell,,"465 Sauble Street East,Massey,ONP0P 1P0",Espanola,Gas Stations,Yellow Pages
Shell,,"26 Manitowaning Rd,Little Current,ONP0P 1K0",Espanola,Gas Stations,Yellow Pages
Shell,Call,"83 Manitowaning Road,Little Current,ONP0P 1K0",Espanola,Gas Stations,Yellow Pages
Manitoulin Trading Post,,"11105 Hwy 6,Little Current,ONP0P 1W0",Espanola,Gas Stations,Yellow Pages
Shell,,"Hwy 6,Northeastern Manitoulin and the Islands,ONP0P 1W0",Espanola,Gas Stations,Yellow Pages
Esso,,"151 Front St,Spanish,ONP0P 2A0",Espanola,Gas Stations,Yellow Pages
Serpent River Trading Post,,"479 Hwy 17 N,Cutler,ONP0P 1B0",Espanola,Gas Stations,Yellow Pages
Roger & Nancy's Your Independent Grocer,Call,"65 Regional Rd 24,Lively,ONP3Y 1H3",Espanola,Grocery Stores,Yellow Pages
Manitowaning Freshmart,,"146 Arthur,Manitowaning,ONP0P 1N0",Espanola,Grocery Stores,Yellow Pages
Roger's Valu-mart Dowling,,"30 Main St E,Dowling,ONP0M 1R0",Espanola,Grocery Stores,Yellow Pages
Chartrand's Your Independent Grocer,Call,"4764-17 Regional Rd 15,Chelmsford,ONP0M 1L0",Espanola,Grocery Stores,Yellow Pages
Metro Ontario Inc,,"1875 Regent St,Sudbury,ONP3E 3Z7",Espanola,Grocery Stores,Yellow Pages
Kayleigh May's Kitchen - Independent Epicure Con sultant,,"254 Tuscany Trail,Sudbury,ONP3E 0E8",Espanola,Grocery Stores,Yellow Pages
Watkins Distributor - Tara Plausini Id#430174,,"535 Byng St,Sudbury,ONP3C 3N4",Espanola,Grocery Stores,Yellow Pages
Chris' Your Independent Grocer Sudbury,,"82 Lorne St,Sudbury,ONP3C 4N8",Espanola,Grocery Stores,Yellow Pages
Andy Mckechnie Building Materials Ltd,,"100 McCulloch Dr,Espanola,ONP5E 1J1",Espanola,Hardware Stores,Yellow Pages
Home Hardware Building Centre,,"830 Centre St,Espanola,ONP5E 1J1",Espanola,Hardware Stores,Yellow Pages
RONA Tim's And Co.Home Centre,,"9130 Highway 6,Little Current,ONP0P 1K0",Espanola,Hardware Stores,Yellow Pages
Lafarge Canada Inc.,,"Highway #6,Birch Island,ONP0P 1A0",Espanola,Hardware Stores,Yellow Pages
True Value,,"2174 Wikwemikong Way,Wikwemikong,ONP0P 2J0",Espanola,Hardware Stores,Yellow Pages
Walden Home Hardware,Call,"130 Regional Road 24,Lively,ONP3Y 1J2",Espanola,Hardware Stores,Yellow Pages
Pinehill Lumber,Call,"2 Black Lake Rd,Lively,ONP3Y 1C6",Espanola,Hardware Stores,Yellow Pages
Collins Home Hardware Building Centre,,"7 Birch Street E,Chapleau,ONP0M 1K0",Espanola,Hardware Stores,Yellow Pages
Sandvik Mining And Construction Canada,,"100 Magill St,Lively,ONP3Y 1K7",Espanola,Hardware Stores,Yellow Pages
Kaycan,,"58 Mumford Rd,Lively,ONP3Y 1L2",Espanola,Hardware Stores,Yellow Pages
Equipment Sales & Service Limited,,"15 Mumford Rd,Lively,ONP3Y 1K9",Espanola,Hardware Stores,Yellow Pages
TERAPRO Construction,,"259 Fielding Rd,Greater Sudbury,ONP3Y 1L8",Espanola,Hardware Stores,Yellow Pages
Home Hardware,Call,"3299 Errington Ave,Chelmsford,ONP0M 1L0",Espanola,Hardware Stores,Yellow Pages
Dollarama,,"800 Centre St,Espanola,ONP5E 1J3",Espanola,Dollar Stores,Yellow Pages
Dollar Tree,,"111 Centre Street,Espanola,ONP5E 1S4",Espanola,Dollar Stores,Yellow Pages
Stop 144 Dollar Deals,,"30 Main W,Dowling,ONP0M 1R0",Espanola,Dollar Stores,Yellow Pages
The Bargain! Shop,,"54 Birch St E,Chapleau,ONP0M 1K0",Espanola,Dollar Stores,Yellow Pages
Price Wise,,"3307-144 Hy,Chelmsford,ONP0M 1L0",Espanola,Dollar Stores,Yellow Pages
Dollarama,,"3744 Route 144,Chelmsford,ONP0M 1L0",Espanola,Dollar Stores,Yellow Pages
Dollarama,,"2412 Long Lake Rd,Sudbury,ONP3E 0C5",Espanola,Dollar Stores,Yellow Pages
Dollarama,,"1933 Regent St,Sudbury,ONP3E 5R2",Espanola,Dollar Stores,Yellow Pages
Giant Tiger,,"18-1933 Regent St S,Sudbury,ONP3E 5R2",Espanola,Dollar Stores,Yellow Pages
Giant Tiger,,"1933 Regent St,Sudbury,ONP3E 5R2",Espanola,Dollar Stores,Yellow Pages
Dollarama,,"40 Elm St,Sudbury,ONP3C 1S8",Espanola,Dollar Stores,Yellow Pages
Price Wise,,"450 Notre Dame Ave,Greater Sudbury,ONP3C 5K8",Espanola,Dollar Stores,Yellow Pages
Dollarama,,"747 Notre Dame Ave,Sudbury,ONP3A 2T2",Espanola,Dollar Stores,Yellow Pages
XS Cargo,,"900 Lasalle Blvd,Sudbury,ONP3A 5W8",Espanola,Dollar Stores,Yellow Pages
Dollar Tree,,"1399 Marcus Dr Unit A003,Sudbury,ONP3B 4K6",Espanola,Dollar Stores,Yellow Pages
Dollarama,,"1349 Lasalle Blvd,Sudbury,ONP3A 1Z2",Espanola,Dollar Stores,Yellow Pages
Dollar Tree,,"B-1066 Barrydowne Rd.,Sudbury,ONP3A 3V3",Espanola,Dollar Stores,Yellow Pages
Stewart's General Store,Phone Number705-869-3720,"29 Main,Webbwood,ONP0P 2G0Get directions",Espanola,General Stores,Yellow Pages
Jones General Stores,Phone Number705-865-3440,"4027 Espaniel St,Sables-Spanish Rivers,ONP0P 1P0Get directions",Espanola,General Stores,Yellow Pages
Pitfield's Killarney General Store,Phone Number705-287-2872,"7 Channel St,Killarney,ONP0M 2A0Get directions",Espanola,General Stores,Yellow Pages
Walden General Store,Phone Number705-692-0750,"1765 Regional Rd 55,Naughton,ONP0M 2M0Get directions",Espanola,General Stores,Yellow Pages
Bailey Glendon Merchant,Phone Number705-859-3730,"South Baymouth,Manitowaning,ONP0P 1N0Get directions",Espanola,General Stores,Yellow Pages
Carl's Trading Post,Phone Number705-859-3474,"South Baymouth,Manitowaning,ONP0P 1N0Get directions",Espanola,General Stores,Yellow Pages
West Bay General Store,Phone Number705-377-4535,"West Bay,Mindemoya,ONP0P 1S0Get directions",Espanola,General Stores,Yellow Pages
Handi-Spot General Store,Phone Number705-844-2709,"Serpent River,Spanish,ONP0P 1V0Get directions",Espanola,General Stores,Yellow Pages
Just Use Water,Phone Number705-626-0358,"7-22 Brady St,Sudbury,ONP3E 6E1Get directions",Espanola,General Stores,Yellow Pages
Art Gallery Of Sudbury,Phone Number705-674-5825,"170 Elgin St,Sudbury,ONP3E 3N5Get directions",Espanola,General Stores,Yellow Pages
Costco Wholesale,Phone Number705-524-8261,"1465 Kingsway,Sudbury,ONP3B 0A5Get directions",Espanola,General Stores,Yellow Pages
Wanup General Store,Phone Number705-522-1036,"Old Wanup,Sudbury,ONP3E 4N1Get directions",Espanola,General Stores,Yellow Pages
Buie General Store,Phone Number705-377-5734,"9379 Highway 542,Spring Bay,ONP0P 2B0Get directions",Espanola,General Stores,Yellow Pages
Wahnapitae General Store,Phone Number705-694-4511,"5 Bank St,Wahnapitae,ONP0M 3C0Get directions",Espanola,General Stores,Yellow Pages
Foleyet General Store,Phone Number705-899-2332,"45 Young,Foleyet,ONP0M 1T0Get directions",Espanola,General Stores,Yellow Pages
Cappellani A & Sons General Merchants,Phone Number705-234-2838,"9 Curran GD,Missanabie,ONP0M 2H0Get directions",Espanola,General Stores,Yellow Pages
Ward R A & Son,Phone Number705-859-3110,,Espanola,General Stores,Yellow Pages
Queen Street General Store & Cafe,Phone Number705-859-1487,,Espanola,General Stores,Yellow Pages
West Bay General Store,Phone Number705-377-6030,,Espanola,General Stores,Yellow Pages
Sweet Grass Pharmacy & Compounding,Call,"404 ON-551 Unit 5,M'Chigeeng,ONP0P 1G0",Espanola,Pharmacies,Yellow Pages
DRUGStore Pharmacy,,"745 Centre St,Espanola,ONP5E 1S8",Espanola,Pharmacies,Yellow Pages
Remedy's Rx Espanola - 5058,,"111-800 Centre St,Espanola,ONP5E 1J3",Espanola,Pharmacies,Yellow Pages
Espanola Clinic Pharmacy,,"801 McKinnon Dr,Espanola,ONP5E 1T2",Espanola,Pharmacies,Yellow Pages
Robinson's Pharmasave,,"119 Tudhope St,Espanola,ONP5E 1S6",Espanola,Pharmacies,Yellow Pages
Narin Ctr Medical Pharmacy,,"36 McIntyre St,Nairn Centre,ONP0M 2L0",Espanola,Pharmacies,Yellow Pages
Island I D A Pharmacy,,"19 Water E,Little Current,ONP0P 1K0",Espanola,Pharmacies,Yellow Pages
i.d.a. - levack pharmacy,Call,"2 1st ave,levack,ONp0m 2c0",Espanola,Pharmacies,Yellow Pages
guardian - manitowaning pharmacy,,"147 arthur st,manitowaning,ONp0p 1n0",Espanola,Pharmacies,Yellow Pages
Dowling IDA Pharmacy,,"Dowling Plaza,Dowling,ONP0M 1R0",Espanola,Pharmacies,Yellow Pages
Mereb Pharmacy,,"18 Hills Trail,Wikwemikong,ONP0P 2J0",Espanola,Pharmacies,Yellow Pages
Parkway Pharmacy,,"18 Hill's Trail,Wikwemikong,ON",Espanola,Pharmacies,Yellow Pages
mnis i.d.a. pharmacy,,"2098 wikwemikong way e,wikwemikong,ONp0p 2j0",Espanola,Pharmacies,Yellow Pages
Guardian Walden Family Drugstore,Call,"24-135 Regional Rd,Lively,ONP3Y 1J1",Espanola,Pharmacies,Yellow Pages
Loblaw Pharmacy,,"65 Regional Rd 24,Lively,ONP3Y 1C3",Espanola,Pharmacies,Yellow Pages
I.D.A. Lively Pharmacy,,"605 Main St,Lively,ONP3Y 1M9",Espanola,Pharmacies,Yellow Pages
Goulet C,,"4690 Regional Rd,ONP0M 1L0",Espanola,Pharmacies,Yellow Pages
chelmsford i.d.a. pharmacy,,"3672 highway 144,chelmsford,ONp0m 1l0",Espanola,Pharmacies,Yellow Pages
Esso,,"498 Causley St,Blind River,ONP0R 1B0",Blind River,Gas Stations,Yellow Pages
Esso,,"225 Highway 108,Elliot Lake,ONP5A 2T1",Blind River,Gas Stations,Yellow Pages
Esso,,"1100 Hwy 17 W,Iron Bridge,ONP0R 1H0",Blind River,Gas Stations,Yellow Pages
Broken Canoe Trading Post,,"7 West,Blind River,ONP0R 1B0",Blind River,Gas Stations,Yellow Pages
Hutton's Valu-Mart,Phone Number705-356-1311,"105 Causley St,Blind River,ONP0R 1B0Get directions",Blind River,Grocery Stores,Yellow Pages
Lyle's No Frills,Phone Number1-866-987-6453,"177 Hwy 108 N,Elliot Lake,ONP5A 2S9Get directions",Blind River,Grocery Stores,Yellow Pages
Foodland,Phone Number705-848-9790,"40 Hillside Dr S,Elliot Lake,ONP5A 1M7Get directions",Blind River,Grocery Stores,Yellow Pages
MacDonald's Groceries,Phone Number705-843-2163,"Hwy 17,Iron Bridge,ONP0R 1H0Get directions",Blind River,Grocery Stores,Yellow Pages
Red Top Motor Inn,Phone Number705-843-2100,"22133 Hwy 17,Iron Bridge,ONP0R 1H0Get directions",Blind River,Grocery Stores,Yellow Pages
Jones' Valu-mart Thessalon,Phone Number705-842-2132,"215 Main St, Box 264,Thessalon,ONP0R 1L0Get directions",Blind River,Grocery Stores,Yellow Pages
Foster's Freshmart,Phone Number705-785-3728,"4 Robinson Dr,Bruce Mines,ONP0R 1C0Get directions",Blind River,Grocery Stores,Yellow Pages
Martins Country Market,Phone Number705-865-2657,"1750 Hwy 17,Massey,ONP0P 1P0Get directions",Blind River,Grocery Stores,Yellow Pages
Dean's Valu-mart Gore Bay,Phone Number705-282-2500,"40 Meredith St,Gore Bay,ONP0P 1H0Get directions",Blind River,Grocery Stores,Yellow Pages
Martins Country Market,Phone Number705-865-2657,"1750 Trans-Canada Highway,Sables-Spanish Rivers,ONP0P 1P0Get directions",Blind River,Grocery Stores,Yellow Pages
Home Hardware Building Centre,Phone Number705-356-1671,"325 Leacock St,Blind River,ONP0R 1B0Get directions",Blind River,Hardware Stores,Yellow Pages
Blind River Home Hardware Building Centre,Phone Number705-356-1671,"325 Leacock Street,Blind River,ONP0R 1B0Get directions",Blind River,Hardware Stores,Yellow Pages
Soo Mill & Lumber Limited,Phone Number705-848-2282,"4 Kilborn Way Ss 2,Elliot Lake,ONP5A 2T1Get directions",Blind River,Hardware Stores,Yellow Pages
Pro Desk at RONA,Phone Number705-848-3684,"31 Timber Road,Elliot Lake,ONP5A 2T1Get directions",Blind River,Hardware Stores,Yellow Pages
RONA Algoma Builders Supply / Elliot Lake,Phone Number705-848-3684,"125 Ontario 108,Elliot Lake,ONP5A 2T1Get directions",Blind River,Hardware Stores,Yellow Pages
Home Hardware Building Centre,Phone Number705-356-2295,"325 Leacock St Blind River,Blind River,ONP0R 1B0Get directions",Blind River,Hardware Stores,Yellow Pages
Lafarge Canada Inc.,Phone Number705-849-0100,"3136A Highway 17,Spragge,ONP0R 1A0Get directions",Blind River,Hardware Stores,Yellow Pages
Kent Trusses Ltd,Phone Number705-842-07091-855-315-7020,"100 Ingram Rd,Thessalon,ONP0R 1L0Get directions",Blind River,Hardware Stores,Yellow Pages
Home Hardware,Phone Number705-842-2435,"119 Main St,Thessalon,ONP0R 1L0Get directions",Blind River,Hardware Stores,Yellow Pages
Thessalon Home Hardware,Phone Number705-842-0502,"119 Main,Thessalon,ONP0R 1L0Get directions",Blind River,Hardware Stores,Yellow Pages
Maple Ridge Aggregates Ltd,Phone Number705-842-2507,"8 Cordukes Dr.,Thessalon,ONP0R 1L0Get directions",Blind River,Hardware Stores,Yellow Pages
Lafarge Canada Inc.,Phone Number705-942-0627,"12500 Hwy 17 E,Thessalon,ONP0R 1L0Get directions",Blind River,Hardware Stores,Yellow Pages
Home Hardware Building Centre,Phone Number705-785-3471,"1-68 Main St,Bruce Mines,ONP0R 1C0Get directions",Blind River,Hardware Stores,Yellow Pages
The Home Depot,Phone Number705-254-11501-800-829-3515,"530 Great Northern Rd,Sault Ste-Marie,ONP6B 4Z9Get directions",Blind River,Hardware Stores,Yellow Pages
Thayer Lumber Co.,Phone Number705-256-8401,"351 Northland Rd,Sault Ste Marie,ONP6C 3N2Get directions",Blind River,Hardware Stores,Yellow Pages
MAGNOLIA DIVINE CREATIONS,Phone Number705-862-1780,"182 Ontario Ave,Elliot Lake,ONP5A 1Y4Get directions",Blind River,General Stores,Yellow Pages
Village General Store & Hotel,Phone Number705-843-1100,"22274 Hwy 17,ONP0R 1H0Get directions",Blind River,General Stores,Yellow Pages
Little Rapids General Store,Phone Number705-842-3717,"59 Little Rapids Road,Thessalon,ONP0R 1L0Get directions",Blind River,General Stores,Yellow Pages
I D A Drug Stores,Phone Number705-356-2633,"27 Woodward Ave,Blind River,ONP0R 1B0Get directions",Blind River,Pharmacies,Yellow Pages
Mitchell Pharmacy,Phone Number705-356-2633,"27 Woodward Ave,Blind River,ONP0R 1B0Get directions",Blind River,Pharmacies,Yellow Pages
DRUGStore Pharmacy,Phone Number705-461-6299,"177 Hwy 108 N,Elliot Lake,ONP5A 2S9Get directions",Blind River,Pharmacies,Yellow Pages
Elliot Lake Health Centre,Phone Number705-848-0004,"267 Hillside Dr S,Elliot Lake,ONP5A 1N7Get directions",Blind River,Pharmacies,Yellow Pages
rexall,Phone Number705-848-2451,"31 nova scotia walk,elliot lake,ONp5a 1y9Get directions",Blind River,Pharmacies,Yellow Pages
Shoppers Drug Mart,Phone Number705-848-7125,"220 Ontario St,Elliot Lake,ONP5A 1Y5Get directions",Blind River,Pharmacies,Yellow Pages
Pharmasave,Phone Number705-848-1026,"36 Prince Edward Walk,ONP5A 1Z7Get directions",Blind River,Pharmacies,Yellow Pages
Angus Pharmacy,Phone Number705-847-0022,"14 Brunswick Walk,Elliot Lake,ONP5A 2A8Get directions",Blind River,Pharmacies,Yellow Pages
